<?xml version="1.0" encoding="UTF-8"?>
<kml xmlns="http://www.opengis.net/kml/2.2">
<Document>
<name>Agulhas National Park</name>
<description>Restructured from source 'My Places.kmz' (folder: Agulhas National Park). Boundary from WDPA (World Database on Protected Areas).</description>
<Style id="style_GATES">
  <IconStyle><scale>0.9</scale><Icon><href>../../icons/gate.png</href></Icon></IconStyle>
  <LabelStyle><scale>0.8</scale></LabelStyle>
</Style>
<Style id="style_CAMPS">
  <IconStyle><scale>0.9</scale><Icon><href>../../icons/camp.png</href></Icon></IconStyle>
  <LabelStyle><scale>0.8</scale></LabelStyle>
</Style>
<Style id="style_PICNIC">
  <IconStyle><scale>0.9</scale><Icon><href>../../icons/picnic.png</href></Icon></IconStyle>
  <LabelStyle><scale>0.8</scale></LabelStyle>
</Style>
<Style id="style_POI">
  <IconStyle><scale>0.9</scale><Icon><href>../../icons/poi.png</href></Icon></IconStyle>
  <LabelStyle><scale>0.8</scale></LabelStyle>
</Style>
<Style id="style_WATER_HOLES">
  <IconStyle><scale>0.9</scale><Icon><href>../../icons/waterhole.png</href></Icon></IconStyle>
  <LabelStyle><scale>0.8</scale></LabelStyle>
</Style>
<Style id="style_BIRD_HIDES">
  <IconStyle><scale>0.9</scale><Icon><href>../../icons/birdhide.png</href></Icon></IconStyle>
  <LabelStyle><scale>0.8</scale></LabelStyle>
</Style>
<Style id="style_OTHER">
  <IconStyle><scale>0.9</scale><Icon><href>../../icons/lookout.png</href></Icon></IconStyle>
  <LabelStyle><scale>0.8</scale></LabelStyle>
</Style>
<Style id="style_DAMS">
  <IconStyle><scale>0.9</scale><Icon><href>http://maps.google.com/mapfiles/kml/paddle/blu-circle.png</href></Icon></IconStyle>
  <LabelStyle><scale>0.8</scale></LabelStyle>
</Style>
<Style id="style_WAYPOINTS">
  <IconStyle><scale>0.9</scale><Icon><href>http://maps.google.com/mapfiles/kml/paddle/wht-blank.png</href></Icon></IconStyle>
  <LabelStyle><scale>0.8</scale></LabelStyle>
</Style>
<Style id="style_MAIN_ROADS">
  <LineStyle><color>ff0055ff</color><width>4</width></LineStyle>
</Style>
<Style id="style_BOUNDARY">
  <LineStyle><color>ff29610d</color><width>3</width></LineStyle>
  <PolyStyle><color>4029610d</color></PolyStyle>
</Style><Folder><name>Boundary</name><Placemark><name>Agulhas National Park Boundary</name><description>Source: WDPA (World Database on Protected Areas), record name "Agulhas National Park". 4 section(s), 3 excluded enclave(s)/hole(s).</description><styleUrl>#style_BOUNDARY</styleUrl><MultiGeometry><Polygon><outerBoundaryIs><LinearRing><coordinates>20.00902319726282,-34.82812800440382,0 20.011215272267066,-34.828524075725454,0 20.011239288662296,-34.82852418094615,0 20.01151613236368,-34.82852694366346,0 20.01161327803038,-34.82938703008733,0 20.011947288036936,-34.83000901110694,0 20.012654317942463,-34.83066501797617,0 20.012092371166034,-34.831108014123515,0 20.01132931709435,-34.83078307557844,0 20.010463264568045,-34.83078699662258,0 20.009507207891374,-34.8309889969446,0 20.008805159330677,-34.831160980594746,0 20.00795311284594,-34.83133596977916,0 20.007245064907863,-34.83157296272202,0 20.00645601233515,-34.83200394842345,0 20.005499938571347,-34.83221394191986,0 20.00472189280117,-34.83231692778395,0 20.0039738313273,-34.83242392372506,0 20.00330279498803,-34.83272491332406,0 20.003073576684244,-34.83269407017514,0 20.003106264342648,-34.83266343566896,0 20.002762885199047,-34.832621709824025,0 20.002568313277095,-34.83262553014407,0 20.00249202288859,-34.83261409436494,0 20.002299367421926,-34.83262936395391,0 20.002274563220567,-34.83265225170004,0 20.002276471581922,-34.83270565524174,0 20.002299367421926,-34.8327972008301,0 20.002282194867462,-34.832873491218606,0 20.002219256713374,-34.83282772561898,0 20.002116244768956,-34.83280865189772,0 20.002005624559956,-34.83282010296534,0 20.001822494712428,-34.832888776995446,0 20.001647006404255,-34.832850634948784,0 20.00146007782041,-34.832789615048625,0 20.001347532162924,-34.83280487024854,0 20.001183493123733,-34.83283921355883,0 20.001025175571442,-34.832884995346205,0 20.000956507836634,-34.832877370893925,0 20.000878300093518,-34.83290407626208,0 20.000838232598426,-34.83289263418766,0 20.000740958328606,-34.83289263958363,0 20.000567376583206,-34.83287358205013,0 20.00043385513834,-34.83286977072328,0 20.000382345568823,-34.832900280223726,0 20.0003499268077,-34.83294987963319,0 20.000309867406486,-34.83296895515309,0 20.000197322648376,-34.83298803696829,0 20.000111474265168,-34.832999479941975,0 20.00005617585191,-34.833045252736156,0 19.99999513256938,-34.833098664371846,0 19.999962704815005,-34.83314825658675,0 19.999916925725586,-34.83313300228616,0 19.999823454688737,-34.83310630411262,0 19.99964415865105,-34.8330796050397,0 19.99952970373289,-34.83304909463999,0 19.999400008903365,-34.83304147108697,0 19.999228322928786,-34.83304529140702,0 19.99916156355539,-34.83303385472857,0 19.999049027790477,-34.83297663086677,0 19.998892612304246,-34.832885084379086,0 19.99879724639584,-34.83284313100563,0 19.99863511661738,-34.8328469432318,0 19.998530202606787,-34.83290798561501,0 19.99840049158945,-34.832957572434,0 19.99826124775842,-34.83295757063536,0 19.998177325723077,-34.832938504108654,0 19.99805332989729,-34.83292706113491,0 19.997954144568155,-34.83292706113491,0 19.997895011445678,-34.83279737260062,0 19.997465845072725,-34.8318513658478,0 20.003342553116397,-34.832441990205666,0 20.003346745755778,-34.83243806196697,0 20.00550390098431,-34.830440111921575,0 20.00696174159117,-34.829089312221925,0 19.99625080073389,-34.82915451127161,0 19.985548046405256,-34.82751814174878,0 19.99362993797132,-34.82333348385316,0 20.00038999340353,-34.82549247729594,0 20.0079531110473,-34.82790679995878,0 20.008164841134544,-34.82797163927967,0 20.008525356859764,-34.828036473204634,0 20.00902319726282,-34.82812800440382,0</coordinates></LinearRing></outerBoundaryIs></Polygon><Polygon><outerBoundaryIs><LinearRing><coordinates>20.02323531485797,-34.77699706566199,0 20.021396523231033,-34.77816054017677,0 20.01639327093278,-34.78068584367668,0 20.01624068206189,-34.78076214215906,0 20.010854032587588,-34.783478190965695,0 20.005166012201755,-34.78634682234792,0 19.995245263358242,-34.77660425078551,0 19.98053084832003,-34.77790698441976,0 19.974908116016763,-34.77840479424583,0 19.978198447600334,-34.765751639726375,0 19.97860091490037,-34.76581267671361,0 20.000801574433183,-34.76945562078021,0 20.012965486068367,-34.77232036529256,0 20.01504653257149,-34.77281244733655,0 20.02416041956775,-34.7764134227412,0 20.02323531485797,-34.77699706566199,0</coordinates></LinearRing></outerBoundaryIs></Polygon><Polygon><outerBoundaryIs><LinearRing><coordinates>19.93616324213997,-34.7088903090405,0 19.93699986075501,-34.7091548068488,0 19.937806610186954,-34.709074632288434,0 19.93826479228636,-34.70887711059015,0 19.93861752617795,-34.708707490358336,0 19.93882640091772,-34.70879514458022,0 19.93899892056379,-34.70896860311848,0 19.939349550941074,-34.70894250029613,0 19.939909844763577,-34.70894664257344,0 19.940011931305662,-34.70914829395855,0 19.93979508317659,-34.7096059742363,0 19.93964824097361,-34.71006414914115,0 19.93943348916423,-34.71037832909656,0 19.93949763420852,-34.71078062732403,0 19.939943191625048,-34.711444094069634,0 19.94060058255087,-34.71199429390151,0 19.941330528980757,-34.712372796966974,0 19.942695491204006,-34.71244024432178,0 19.94402499585692,-34.712536100360694,0 19.944477769433547,-34.712711618346475,0 19.94510814292653,-34.71271626874079,0 19.94583810464485,-34.71309475921572,0 19.94653730864991,-34.71318597025629,0 19.94720101371587,-34.71330561066537,0 19.947617489755373,-34.71356701390653,0 19.94767997375186,-34.714084115989124,0 19.947465230935734,-34.71439827795814,0 19.94700661266512,-34.71462455637811,0 19.946479188164062,-34.714764216595256,0 19.946196050107687,-34.71496310526305,0 19.945875019116897,-34.715362600303706,0 19.94572984515628,-34.715705977648724,0 19.945818854656466,-34.71592315223165,0 19.94559022001272,-34.71598082125786,0 19.94558951674287,-34.71598622438472,0 19.94581838970697,-34.7159289996236,0 19.94606255384383,-34.71586415220884,0 19.946390627425558,-34.71578022927412,0 19.947392015329285,-34.71552846406735,0 19.962647588415507,-34.6972529513626,0 19.963606440185117,-34.6980390145888,0 19.969496934835718,-34.702868007052814,0 19.974032751910045,-34.706583369926534,0 19.974280729172335,-34.7124348852617,0 19.974839599368067,-34.725587521446926,0 19.974860331439174,-34.72606250917744,0 19.974862092311753,-34.72606374844321,0 19.975394153717275,-34.73845032142515,0 19.993468882882667,-34.72690167557181,0 19.99452991922044,-34.72622270091688,0 19.985778858307697,-34.749178074208714,0 19.984989919948873,-34.75124768403333,0 19.974685793714457,-34.76108767195848,0 19.970076567679484,-34.76548851518277,0 19.961115781268347,-34.764631813807114,0 19.96038274656655,-34.783401164032455,0 19.95657648741502,-34.783228978034856,0 19.952759141421268,-34.788900995884205,0 19.943082321092277,-34.801885722348175,0 19.9471515177284,-34.81077772681061,0 19.948721460626984,-34.805248175962504,0 19.949608521316236,-34.80212227642187,0 19.969923794447595,-34.79601969015653,0 19.969936437116928,-34.79601552899345,0 19.988278246044274,-34.79485662573262,0 19.996276928737302,-34.79472768993088,0 19.99788864694358,-34.799310081095314,0 19.999443488426323,-34.803730187797896,0 20.003965961360052,-34.81658675457504,0 20.001082109851552,-34.81571907697378,0 19.986217862364526,-34.81473650288723,0 19.9841194571473,-34.81553860822015,0 19.9832023950745,-34.81640058142165,0 19.982693201630013,-34.82393854772573,0 19.982649637570773,-34.82458355678568,0 19.98210147740133,-34.8251163619305,0 19.985539656629896,-34.827524040402125,0 19.983424775832816,-34.828619406560335,0 19.982568899135458,-34.828226464879435,0 19.9817448647338,-34.82824639205728,0 19.980836823760455,-34.82852437340108,0 19.979239763604255,-34.827658477356806,0 19.97798670132528,-34.827479479894066,0 19.977078660351935,-34.8268304922334,0 19.975728600794355,-34.82643051065952,0 19.97467956411066,-34.8264534280832,0 19.973453515667245,-34.825240543915925,0 19.971864437893544,-34.8250185309804,0 19.97093540494501,-34.8245575492914,0 19.96945333480363,-34.82497345695941,0 19.968434291409494,-34.825350445566585,0 19.967496258045912,-34.82393155819483,0 19.966512215366492,-34.82274960081338,0 19.96487314967618,-34.82224961732595,0 19.964308735160046,-34.82211767778858,0 19.964460086563804,-34.82109271505669,0 19.964671803161252,-34.819658906133554,0 19.964964242006204,-34.818927436252125,0 19.96536061909734,-34.817934264554594,0 19.964103743692874,-34.816417973410694,0 19.96307472591792,-34.81517647641323,0 19.96327611020439,-34.811567706584356,0 19.96327595192372,-34.811519812289475,0 19.963274453653185,-34.81147476344955,0 19.963272946389395,-34.81142972270351,0 19.963271455313475,-34.81138508035713,0 19.963187355212312,-34.808864116086056,0 19.96010393155126,-34.808933800954094,0 19.9563607832236,-34.80856509240505,0 19.955054739184902,-34.8088240638794,0 19.954282600161946,-34.80897804759877,0 19.954242290749164,-34.80903246197852,0 19.954517694635967,-34.8099680258037,0 19.954426696734743,-34.810504022642476,0 19.95421068407586,-34.8104800242337,0 19.954087682900308,-34.81055701159676,0 19.954057473773446,-34.81073502160393,0 19.952758941771776,-34.81058739159482,0 19.950773104695088,-34.810207662753385,0 19.950307836837226,-34.80997139376478,0 19.949976862042604,-34.81041473435249,0 19.949958485295895,-34.813280916880785,0 19.94995479627687,-34.813866832388385,0 19.949954236898577,-34.81395397669462,0 19.949104500772137,-34.813895831927084,0 19.94830546662405,-34.81376983331114,0 19.947353411031145,-34.81385775732957,0 19.94622261158429,-34.81403675299373,0 19.945347324819238,-34.81429573975652,0 19.94456329316148,-34.814860710053665,0 19.943947259358595,-34.81556669134966,0 19.9430472232508,-34.816218662960864,0 19.94227219290741,-34.81536075829234,0 19.942097192931158,-34.81446378977205,0 19.941420164409124,-34.81405980171843,0 19.940632119077065,-34.81451671127718,0 19.94062513404276,-34.814399195066756,0 19.94054211582602,-34.81300283031635,0 19.940079108863813,-34.81225185683769,0 19.939470087974257,-34.81161088033781,0 19.938635051266658,-34.81088989924939,0 19.937843003052194,-34.81074089597553,0 19.937076985714384,-34.81064189770535,0 19.93636895396412,-34.810477902733,0 19.93622795735439,-34.809416934743695,0 19.93602194875399,-34.808607960389,0 19.935218916220037,-34.80777297764075,0 19.933902860029036,-34.80694101301731,0 19.9329588146976,-34.80607902722528,0 19.9317737717422,-34.80466007510233,0 19.931690706760776,-34.804545162429235,0 19.933942819605477,-34.80382817972668,0 19.927672963036855,-34.80068999994347,0 19.926963588598767,-34.800037212647226,0 19.926146792840257,-34.79927423501789,0 19.92550976976014,-34.79862524555858,0 19.924985741998455,-34.7981332714333,0 19.924641666779564,-34.79790129400948,0 19.924316598732105,-34.7975462389677,0 19.923890016111386,-34.79710367899156,0 19.923534869338823,-34.79674194738294,0 19.923276658690895,-34.796473673321316,0 19.922851622904147,-34.796155235076014,0 19.922307995317794,-34.79580145707155,0 19.921887455241915,-34.79553868865952,0 19.921430337939796,-34.795305859577695,0 19.920909676340557,-34.79507808108855,0 19.920212171154844,-34.79474531574368,0 19.92005086605468,-34.79464968723323,0 19.919688405095883,-34.794402470797365,0 19.919385469363988,-34.794218631384695,0 19.919037202405036,-34.79396547043007,0 19.918640483571494,-34.7937254746509,0 19.918295316575666,-34.793551427056684,0 19.9180080955972,-34.79342541225293,0 19.917656755654775,-34.79319339975552,0 19.917406232411736,-34.793021548305774,0 19.917131592049373,-34.7928955415959,0 19.916838065024706,-34.79279074629585,0 19.916519761677705,-34.7926857306619,0 19.916335449221663,-34.79256760201315,0 19.916069370405182,-34.79237188255627,0 19.916082755914488,-34.792357521282554,0 19.91609609555843,-34.79234320767284,0 19.916109438799594,-34.79232889406319,0 19.91635649515615,-34.7920638305813,0 19.916224618571334,-34.791980272771355,0 19.916036483996606,-34.79185754768764,0 19.916031998178198,-34.79185462129368,0 19.916027510561207,-34.791851694899776,0 19.915781850851772,-34.791691499563,0 19.914270237081837,-34.79071627743423,0 19.914434356160655,-34.79054026302265,0 19.914376535149017,-34.79011682982781,0 19.914252300103612,-34.789859014881586,0 19.91415358781785,-34.789788098841655,0 19.913927387638864,-34.78980762312324,0 19.913854056019943,-34.789800749604865,0 19.913733000977288,-34.78970061009505,0 19.913647727260866,-34.789546347585826,0 19.91351364373969,-34.789439963183725,0 19.913368776447896,-34.789447682064804,0 19.913002800039237,-34.78916192877995,0 19.913024651766307,-34.78902034041636,0 19.91252299643918,-34.788683618953826,0 19.912509152275618,-34.78859804576314,0 19.91134238804085,-34.78795089631677,0 19.9107130226879,-34.787830612892435,0 19.91048622535908,-34.78747218539297,0 19.909825729973534,-34.78732665080423,0 19.90919183743341,-34.78667947527754,0 19.908578049237633,-34.78764978261131,0 19.908325623928476,-34.78760037835474,0 19.90796510640456,-34.78740384411208,0 19.90769230155854,-34.787255948802965,0 19.90726137341369,-34.7869658356048,0 19.907142373321904,-34.78684725459709,0 19.90695289965663,-34.786532192406696,0 19.906713956084275,-34.78609013155426,0 19.906466923110088,-34.785809113199946,0 19.90619931184881,-34.785601817669715,0 19.905921299028762,-34.785352244110754,0 19.90587945357396,-34.785201211966296,0 19.905665818722582,-34.78499887170051,0 19.90543863198735,-34.784773858626636,0 19.905115475898526,-34.7846233103175,0 19.904781680829956,-34.78444855855412,0 19.904438483349395,-34.784326982803975,0 19.904167267605374,-34.78411663677332,0 19.90404009537417,-34.784064269250564,0 19.90387727131906,-34.78394529164183,0 19.903731596436103,-34.78391083501697,0 19.903287516605644,-34.783939314747556,0 19.90309685043934,-34.78399183155773,0 19.902899197440036,-34.78398045603319,0 19.902622697279696,-34.78389359591267,0 19.902262138387016,-34.783739090586494,0 19.9018984111828,-34.78361829814588,0 19.901447989333292,-34.78356289720989,0 19.90075756540938,-34.78355967763696,0 19.90032454903877,-34.78361014129496,0 19.900141868852188,-34.78361150556651,0 19.89987605083911,-34.78354582717816,0 19.899665548326425,-34.783441478841155,0 19.899454605145934,-34.783370271420836,0 19.8991367361715,-34.78326436725672,0 19.8990092878484,-34.783233083439995,0 19.898709825298226,-34.783188138921446,0 19.898889314690166,-34.78055797986684,0 19.903686177075485,-34.78078070506547,0 19.9170867950196,-34.78140190817146,0 19.917296600557734,-34.781356576944404,0 19.925359379731617,-34.76397740503319,0 19.91918329097615,-34.74665161418062,0 19.906100960191225,-34.745984089693934,0 19.905349807747484,-34.75590760934864,0 19.9009166213051,-34.755919590116946,0 19.88293283338362,-34.755966538325026,0 19.85917418833816,-34.75602344742413,0 19.859168363429262,-34.75602782172655,0 19.848395263230884,-34.75418162418259,0 19.813810577596144,-34.748245401703855,0 19.813700512268895,-34.75149141739496,0 19.81335201058687,-34.76182597039218,0 19.81324611901323,-34.761789930960504,0 19.81226773756606,-34.76195202116878,0 19.811195678237993,-34.76211601164459,0 19.809812624353185,-34.76290598062644,0 19.80843955743967,-34.76396594407299,0 19.80647146668491,-34.76456092114955,0 19.80439036802113,-34.764339985601794,0 19.80217127828189,-34.76494289290014,0 19.799474149412504,-34.76610585480131,0 19.79714605104948,-34.76589292591774,0 19.794556934355114,-34.7653389318462,0 19.793032873068682,-34.76441995241885,0 19.791020793774635,-34.763786964596704,0 19.78731463096551,-34.764492864054375,0 19.78416548305063,-34.764572847958505,0 19.78215139557051,-34.76387094598732,0 19.777732220565554,-34.76308895129404,0 19.77507229305195,-34.76295103666098,0 19.77185095295914,-34.763301861291836,0 19.76944385814761,-34.7632259045518,0 19.767957779727794,-34.7634018344271,0 19.76575467633728,-34.764480810441,0 19.763750594714224,-34.764049886792805,0 19.76112748904245,-34.76493878119976,0 19.758926376750935,-34.76601773023401,0 19.755996238036005,-34.767665670434326,0 19.753784135129763,-34.76847063381268,0 19.75154104518316,-34.768321701585194,0 19.749371946957808,-34.76796371025699,0 19.748180769726787,-34.767037276349186,0 19.7467617213764,-34.76672827469008,0 19.744840623795824,-34.76629727459948,0 19.742672529213905,-34.76593826793669,0 19.73925437159204,-34.765408247992184,0 19.73645623087043,-34.766022141408655,0 19.73475213700158,-34.76716308610747,0 19.733347070411014,-34.767262069089156,0 19.73209301258254,-34.766953143872456,0 19.730988971563818,-34.766160163061045,0 19.72957790559593,-34.766125126373424,0 19.728816874099493,-34.76566414918108,0 19.727822834556207,-34.76568706210821,0 19.726903790377662,-34.76550313905858,0 19.725063186616808,-34.764849971349065,0 19.72409365809591,-34.76509104901265,0 19.72273821159922,-34.76511728493472,0 19.72123448668225,-34.76487397065716,0 19.71981328535486,-34.764591763399096,0 19.719836185691463,-34.764454027731176,0 19.720091896224062,-34.76284542027986,0 19.697487673117678,-34.760600306858635,0 19.649044152365775,-34.75556380482567,0 19.651341425566386,-34.73610868466801,0 19.67847444833717,-34.72961796000084,0 19.680031510246067,-34.727517050171684,0 19.683088624240668,-34.72851301606278,0 19.725406188944532,-34.734243839681426,0 19.735399434836097,-34.73559537592581,0 19.7393476789523,-34.71575429372564,0 19.74256894619998,-34.71507578761748,0 19.744226615266143,-34.71442144359469,0 19.751073303290354,-34.7133639011231,0 19.75884086021756,-34.71420239032801,0 19.7659636589957,-34.7140972505876,0 19.765971771779903,-34.71411188255729,0 19.76773267941968,-34.71548553133215,0 19.778177063021076,-34.714759548214545,0 19.814840366090095,-34.71669788310078,0 19.81487363920712,-34.716699631382824,0 19.814859854398833,-34.71710901986535,0 19.81485972399713,-34.71711288605081,0 19.823243871407612,-34.72127711674551,0 19.831035727117182,-34.72309665298809,0 19.83568030730038,-34.72327211341724,0 19.845867938054937,-34.72040356477265,0 19.854996894091414,-34.716409706143,0 19.853608748245165,-34.71483099665312,0 19.853605538564807,-34.7148304156911,0 19.852189575788316,-34.713220710167604,0 19.858686366382756,-34.71360658857316,0 19.864440629031833,-34.71346070504745,0 19.866942435944736,-34.71302964110498,0 19.869890415410396,-34.71252169771816,0 19.874589823661495,-34.712255224998614,0 19.874639952771645,-34.71240278306192,0 19.87468716268245,-34.71251169186104,0 19.875775054575172,-34.71310393140129,0 19.881091400447815,-34.71400709984772,0 19.886460176795765,-34.71419078187904,0 19.88655513621063,-34.708624125902645,0 19.88655601844556,-34.708623248164315,0 19.886556093988588,-34.708618800117506,0 19.91179030977503,-34.68348334518021,0 19.912816656563507,-34.682461068723285,0 19.92505393938785,-34.7013636957779,0 19.933804190011415,-34.70254099916775,0 19.934178319673777,-34.70259163459622,0 19.93415402358937,-34.70264676123901,0 19.933975116058832,-34.70290378118449,0 19.93379875001233,-34.702988575562244,0 19.933341002285488,-34.70315740708861,0 19.932950326896105,-34.703527649881096,0 19.932873498713036,-34.70398632031237,0 19.93318229982333,-34.70441918739556,0 19.933803714270027,-34.7050265670224,0 19.93459172992442,-34.706209259149944,0 19.93561180933756,-34.70828344292653,0 19.93616324213997,-34.7088903090405,0</coordinates></LinearRing></outerBoundaryIs><innerBoundaryIs><LinearRing><coordinates>19.97401001255207,-34.72505993506792,0 19.974010108779567,-34.72506016259638,0 19.974028947777754,-34.72469109881513,0 19.974028761618115,-34.72469030021716,0 19.97401001255207,-34.72505993506792,0</coordinates></LinearRing></innerBoundaryIs><innerBoundaryIs><LinearRing><coordinates>19.924720477068433,-34.79686800175682,0 19.924867926313823,-34.79693544641367,0 19.924906601658392,-34.79692686328406,0 19.92487805717667,-34.79691920825479,0 19.9245408869524,-34.796713737448954,0 19.924234718157777,-34.796645811654855,0 19.924313962819156,-34.79668205972922,0 19.92439320837991,-34.796718306904324,0 19.924720477068433,-34.79686800175682,0</coordinates></LinearRing></innerBoundaryIs><innerBoundaryIs><LinearRing><coordinates>19.96892580777984,-34.799712039379074,0 19.967628322589064,-34.79925842493634,0 19.96608624878138,-34.799346266217185,0 19.96592547158332,-34.799921137150704,0 19.96630205909281,-34.80002330912839,0 19.969322087744217,-34.80047298543991,0 19.969329585392074,-34.800465305229636,0 19.96936479205158,-34.80042922802642,0 19.969399999610346,-34.8003931508232,0 19.96956469335595,-34.80022437955142,0 19.96892580777984,-34.799712039379074,0</coordinates></LinearRing></innerBoundaryIs></Polygon><Polygon><outerBoundaryIs><LinearRing><coordinates>19.60539785732533,-34.69334237085371,0 19.586825210415157,-34.70139468731492,0 19.59586089056768,-34.66241735757495,0 19.591023698984543,-34.65582582160437,0 19.580962004792752,-34.642029763662606,0 19.580960133303563,-34.642027194299544,0 19.577058053186647,-34.63667687024133,0 19.590324057909015,-34.63058515228289,0 19.617167141950063,-34.618363298227564,0 19.642701823030734,-34.64410418306153,0 19.643544900576728,-34.64536300010235,0 19.64119880228293,-34.65175624905163,0 19.639310299730596,-34.6568956164395,0 19.63930088742609,-34.656921220138145,0 19.65255756078284,-34.66645403022926,0 19.665055798086655,-34.67446947988253,0 19.669194202050846,-34.67712355011173,0 19.665105315657854,-34.67816305757901,0 19.60539785732533,-34.69334237085371,0</coordinates></LinearRing></outerBoundaryIs></Polygon></MultiGeometry></Placemark></Folder><Folder><name>Main Roads</name></Folder><Folder><name>Gates</name></Folder><Folder><name>Picnic Spots</name></Folder><Folder><name>Bird Hides</name></Folder><Folder><name>Water Holes</name></Folder><Folder><name>Dams</name></Folder><Folder><name>Waypoints</name></Folder><Folder><name>POI</name><Placemark>
  <name>Meisho Maru No. 38</name>
  
  <styleUrl>#style_POI</styleUrl>
  <Point><coordinates>19.98413943645391,-34.82972942821998,0</coordinates></Point>
</Placemark>
<Placemark>
  <name>Border Between Two Oceans</name>
  
  <styleUrl>#style_POI</styleUrl>
  <Point><coordinates>20.01325797740603,-34.83137413379497,0</coordinates></Point>
</Placemark></Folder><Folder><name>Camps</name></Folder><Folder><name>Other Features (Viewpoints, Lookouts, Pans, Trails - not in the requested category list, kept so no surveyed data is lost)</name><Placemark>
  <name>Agulhas National Park</name>
  
  <styleUrl>#style_OTHER</styleUrl>
  <Point><coordinates>19.99782115669013,-34.82580919500033,0</coordinates></Point>
</Placemark></Folder>
</Document>
</kml>