<?xml version="1.0" encoding="UTF-8"?>
<kml xmlns="http://www.opengis.net/kml/2.2">
<Document>
<name>Ai-Ais Richtersveld Transfrontier Park</name>
<description>Restructured from source 'My Places.kmz' (folder: |Ai-|Ais/Richtersveld Transfrontier Park). Boundary from WDPA (World Database on Protected Areas).</description>
<Style id="style_GATES">
  <IconStyle><scale>0.9</scale><Icon><href>../../icons/gate.png</href></Icon></IconStyle>
  <LabelStyle><scale>0.8</scale></LabelStyle>
</Style>
<Style id="style_CAMPS">
  <IconStyle><scale>0.9</scale><Icon><href>../../icons/camp.png</href></Icon></IconStyle>
  <LabelStyle><scale>0.8</scale></LabelStyle>
</Style>
<Style id="style_PICNIC">
  <IconStyle><scale>0.9</scale><Icon><href>../../icons/picnic.png</href></Icon></IconStyle>
  <LabelStyle><scale>0.8</scale></LabelStyle>
</Style>
<Style id="style_POI">
  <IconStyle><scale>0.9</scale><Icon><href>../../icons/poi.png</href></Icon></IconStyle>
  <LabelStyle><scale>0.8</scale></LabelStyle>
</Style>
<Style id="style_WATER_HOLES">
  <IconStyle><scale>0.9</scale><Icon><href>../../icons/waterhole.png</href></Icon></IconStyle>
  <LabelStyle><scale>0.8</scale></LabelStyle>
</Style>
<Style id="style_BIRD_HIDES">
  <IconStyle><scale>0.9</scale><Icon><href>../../icons/birdhide.png</href></Icon></IconStyle>
  <LabelStyle><scale>0.8</scale></LabelStyle>
</Style>
<Style id="style_OTHER">
  <IconStyle><scale>0.9</scale><Icon><href>../../icons/lookout.png</href></Icon></IconStyle>
  <LabelStyle><scale>0.8</scale></LabelStyle>
</Style>
<Style id="style_DAMS">
  <IconStyle><scale>0.9</scale><Icon><href>http://maps.google.com/mapfiles/kml/paddle/blu-circle.png</href></Icon></IconStyle>
  <LabelStyle><scale>0.8</scale></LabelStyle>
</Style>
<Style id="style_WAYPOINTS">
  <IconStyle><scale>0.9</scale><Icon><href>http://maps.google.com/mapfiles/kml/paddle/wht-blank.png</href></Icon></IconStyle>
  <LabelStyle><scale>0.8</scale></LabelStyle>
</Style>
<Style id="style_MAIN_ROADS">
  <LineStyle><color>ff0055ff</color><width>4</width></LineStyle>
</Style>
<Style id="style_BOUNDARY">
  <LineStyle><color>ff29610d</color><width>3</width></LineStyle>
  <PolyStyle><color>4029610d</color></PolyStyle>
</Style><Folder><name>Boundary</name><Placemark><name>Ai-Ais Richtersveld Transfrontier Park Boundary</name><description>Source: WDPA (World Database on Protected Areas), record name "Richtersveld National Park". 2 section(s), 0 excluded enclave(s)/hole(s).</description><styleUrl>#style_BOUNDARY</styleUrl><MultiGeometry><Polygon><outerBoundaryIs><LinearRing><coordinates>17.097464748299558,-29.24547458708247,0 17.06578859067099,-29.263218458365145,0 17.039878251979815,-29.22349562122588,0 17.036900441102546,-29.170877901693757,0 17.036628487914413,-29.141837512191387,0 17.074729670238128,-29.152662194804407,0 17.13256327867242,-29.17171042929283,0 17.099529465812225,-29.241104335196894,0 17.097464748299558,-29.24547458708247,0</coordinates></LinearRing></outerBoundaryIs></Polygon><Polygon><outerBoundaryIs><LinearRing><coordinates>17.144081627265336,-28.51827509591891,0 17.004633282300176,-28.380873310255026,0 17.002339898667458,-28.379928784685603,0 16.997773339168305,-28.376159986793937,0 16.992466652014457,-28.370794751076858,0 16.98788284441781,-28.365704227667948,0 16.98488035434491,-28.361502504237137,0 16.98473547176468,-28.361267527574284,0 16.93728573334994,-28.314514164796833,0 16.939950340036205,-28.307285692980315,0 16.941055871231526,-28.2616754422678,0 16.92285713724715,-28.22564646341351,0 16.913077435375385,-28.20631384260969,0 16.90780490627145,-28.203876003574635,0 16.897713397755126,-28.189645836586067,0 16.888812460326847,-28.175614092416367,0 16.88797443697075,-28.175035714126864,0 16.886627915346082,-28.17407251863176,0 16.887221630673764,-28.17332889531224,0 16.88774044866284,-28.172171126995863,0 16.887328425166743,-28.171160256640462,0 16.886721819856177,-28.170206594858428,0 16.88546093617333,-28.167576407924855,0 16.885258710121434,-28.1649824375894,0 16.884745560559224,-28.162766132151205,0 16.884747456330103,-28.161846784901172,0 16.884955374191236,-28.161549237906968,0 16.884999214342315,-28.1588961353483,0 16.884587174658407,-28.157116597353024,0 16.884463157248945,-28.155211175855015,0 16.88401297641775,-28.15384362628231,0 16.884066364671014,-28.152283426638803,0 16.883837433251017,-28.150309347298503,0 16.885044853137515,-28.14799191669357,0 16.88751693925542,-28.14615701283583,0 16.88776489313534,-28.144825708639473,0 16.888169272394066,-28.14319683586524,0 16.888302764161267,-28.141440191911272,0 16.88896463730822,-28.139925766860586,0 16.88924117703874,-28.137434814764845,0 16.889920185867936,-28.133683121978436,0 16.889744649895704,-28.130352964817405,0 16.88946423138924,-28.12812527576085,0 16.889212426612232,-28.125094627015358,0 16.889241027751268,-28.122775385175828,0 16.889130392253833,-28.120387482796048,0 16.888849950364943,-28.117679124991582,0 16.88797439200465,-28.115737494090013,0 16.887499406972097,-28.114060984227024,0 16.887241896896057,-28.113566999217596,0 16.88686802893642,-28.113416326801996,0 16.88637781118706,-28.113036775127,0 16.885538523384184,-28.11270300434012,0 16.884298637971824,-28.112001123952666,0 16.88366912423072,-28.110461924378285,0 16.883077766925453,-28.108636644165756,0 16.882576083719357,-28.10683424180678,0 16.882127789665788,-28.104709505339372,0 16.881809199435054,-28.102287236266875,0 16.88125792401405,-28.100851033348476,0 16.8811853846978,-28.09778601701106,0 16.882406112751937,-28.094631342762227,0 16.88391104995503,-28.091556763933454,0 16.884237211578125,-28.090236917999334,0 16.885105087030183,-28.08903148291654,0 16.886465088593013,-28.087230976328442,0 16.88809596056018,-28.085430468841025,0 16.889299569119885,-28.084778143796257,0 16.89082554326427,-28.083654682817325,0 16.89191279394032,-28.082199369305386,0 16.893116424983077,-28.08183311680483,0 16.894461193829102,-28.08097286670437,0 16.895250883121832,-28.080320533565725,0 16.895987175168045,-28.08009163182328,0 16.896362929905365,-28.07955186682517,0 16.897257502631703,-28.07763693499652,0 16.897881204953705,-28.075479814841515,0 16.89823214919437,-28.074560506262287,0 16.89913819457206,-28.07396542666305,0 16.900418094419592,-28.07281912470279,0 16.902888292860496,-28.07192642436496,0 16.903845839713767,-28.071319872114373,0 16.905396641441882,-28.070816286842103,0 16.908290329734996,-28.070463313730897,0 16.91095125189878,-28.0709477038734,0 16.912927391585924,-28.07111170693969,0 16.91337946818794,-28.07100870308915,0 16.91490543423845,-28.070987695825465,0 16.917490021047684,-28.06993482713051,0 16.918420863432175,-28.069946247621203,0 16.92047521086232,-28.06961625128895,0 16.921262998088935,-28.069513253733646,0 16.925861947570866,-28.069747796023933,0 16.929001674187987,-28.06992323397003,0 16.930743220323393,-28.07091119499563,0 16.932242509784032,-28.071038973369866,0 16.93341752529858,-28.071809505304373,0 16.935456640011978,-28.072616284413925,0 16.93761401467509,-28.073295256370955,0 16.93957683180537,-28.074100125320456,0 16.942106172362003,-28.075147205079418,0 16.945606412905704,-28.076034064320595,0 16.94754442583462,-28.07649561258239,0 16.94895214002929,-28.076449825399095,0 16.95125257794416,-28.076154166081835,0 16.954522006585364,-28.0759729463943,0 16.95757398365248,-28.07416097255077,0 16.95975804210002,-28.073049001310324,0 16.960068963811693,-28.07197137338011,0 16.96144043173058,-28.071271380669657,0 16.96300454702225,-28.069734084060713,0 16.964660200707726,-28.068416154581826,0 16.965631056628013,-28.067142112918134,0 16.96728665905215,-28.06489348404699,0 16.968333798166327,-28.063459258737737,0 16.969564038349745,-28.061910616281864,0 16.97132262843661,-28.060030043951315,0 16.972718839402944,-28.059021045984423,0 16.973363563377802,-28.058872261245824,0 16.977691583100125,-28.05973427941342,0 16.97871207620142,-28.059736158996486,0 16.98122995130126,-28.060563914792795,0 16.983528500639864,-28.061919985418967,0 16.984974386558747,-28.06301095029505,0 16.98706501893554,-28.06450435369294,0 16.98849758229761,-28.066560408935686,0 16.989464708729372,-28.068536361563815,0 16.9902239173,-28.070476082305333,0 16.990624505916287,-28.071279049188718,0 16.991309295587598,-28.071532711065743,0 16.991915878415114,-28.071889368699374,0 16.99222489806067,-28.07238336000404,0 16.992522473833162,-28.07288879608103,0 16.993155755733596,-28.073129111119556,0 16.993981699395988,-28.073094774104504,0 16.99458827412957,-28.073142448964802,0 16.99577664907315,-28.073979739373442,0 16.997184377656936,-28.074635837973517,0 16.99903082341382,-28.075085952254824,0 17.00054920997809,-28.075417783204102,0 17.002193472850536,-28.07528804340842,0 17.003563061186355,-28.074933250069364,0 17.00498032438253,-28.07430190890591,0 17.006086634390726,-28.07359429264244,0 17.0071815023245,-28.072976319901215,0 17.008247737643046,-28.07211994767738,0 17.00885998170287,-28.071208293228096,0 17.009201369747473,-28.07039198760009,0 17.010197097318212,-28.06896147019563,0 17.01092769036069,-28.068269092944263,0 17.011906267860013,-28.06759578401818,0 17.012245805999214,-28.066766102773386,0 17.012678814275887,-28.066006984134958,0 17.013369356011026,-28.06514104941988,0 17.0140827773983,-28.0639432378901,0 17.01479428772626,-28.06262910714753,0 17.015097585884916,-28.061938655344647,0 17.01525972375731,-28.061204355296695,0 17.015498167306646,-28.060491015747743,0 17.01609325410044,-28.05921312498566,0 17.01663490587623,-28.05775404331439,0 17.017260524653523,-28.056830914415116,0 17.018017763708883,-28.056216753000683,0 17.018246651961476,-28.055860088172494,0 17.01852124376046,-28.054664222775614,0 17.018940833252884,-28.0539737943551,0 17.019991822364773,-28.053048732812726,0 17.020697580628905,-28.05237734933513,0 17.02190886580155,-28.05178223196441,0 17.023032407719484,-28.05134732881612,0 17.02450315000044,-28.050853291646035,0 17.025418790245,-28.050570978268013,0 17.026092181908723,-28.050462243937375,0 17.026662561627973,-28.05055948223429,0 17.02725964042014,-28.050624307166004,0 17.028995570289396,-28.050780640813855,0 17.0304052009393,-28.050677613580945,0 17.0316755661745,-28.050666140929593,0 17.03319009734514,-28.05070044107248,0 17.034912544578333,-28.050639368112286,0 17.036917292599014,-28.050553506239282,0 17.038433733030388,-28.050551559207065,0 17.03955723088154,-28.050358902841026,0 17.040940157961984,-28.050139549200765,0 17.042532895077102,-28.049965968354684,0 17.044419391241945,-28.04976568933506,0 17.046357388882427,-28.04937085997716,0 17.048171399690375,-28.04928692984788,0 17.05060344079618,-28.049140031886907,0 17.05230681520743,-28.048598350433508,0 17.054563344622693,-28.047774369091826,0 17.05687138360753,-28.04675774037736,0 17.057744994935604,-28.046084453035007,0 17.058437400965317,-28.0455065307018,0 17.059324372621745,-28.044890452832078,0 17.06094762193527,-28.044131326999093,0 17.06200436221161,-28.043652582800405,0 17.063372025098943,-28.043227243042793,0 17.06462714322811,-28.043101352345502,0 17.065933762832913,-28.042918229692475,0 17.06709158960524,-28.04224302589489,0 17.067999538847687,-28.041317979641008,0 17.069126840831075,-28.040080132092385,0 17.070521201892007,-28.038418890919047,0 17.070727188009357,-28.03723447029455,0 17.07112965620871,-28.03618927821259,0 17.07190218823547,-28.035735351705057,0 17.072014718604407,-28.035367235809247,0 17.072436268618958,-28.034766435622487,0 17.073029491118177,-28.0345203981978,0 17.073777218943576,-28.034365907260792,0 17.074549750070958,-28.033934860405452,0 17.075324176969218,-28.033744130387277,0 17.07611197139039,-28.033461837693608,0 17.077273617583444,-28.033211980848193,0 17.078412385922945,-28.03302886718842,0 17.07945958619098,-28.0329506657406,0 17.08048199574756,-28.032929681859287,0 17.081208747785524,-28.033152825242666,0 17.082025164929462,-28.03315663027422,0 17.082975081934535,-28.03361818573063,0 17.084008944357322,-28.03453751139699,0 17.08496270236685,-28.035435836094905,0 17.085903092853528,-28.036206383317904,0 17.086765283690966,-28.036887278924723,0 17.087759093907096,-28.037806594698566,0 17.08823025232431,-28.038283422441964,0 17.08898370073723,-28.038506565825287,0 17.090059530922645,-28.03848558104471,0 17.09073096116498,-28.038388298681014,0 17.091291770298994,-28.03872588978794,0 17.091955583283607,-28.039065382960985,0 17.093336613693793,-28.0397863298752,0 17.094378106864212,-28.04044052730842,0 17.0957381605877,-28.04152957482995,0 17.09709631314439,-28.04263957835383,0 17.09880734078621,-28.043909779013063,0 17.101065690429323,-28.04560919910523,0 17.103140834681824,-28.04721712487037,0 17.10543137915488,-28.049271435428352,0 17.106884605340326,-28.050761176786807,0 17.108555355944986,-28.052018196982146,0 17.109663553630128,-28.052811659830184,0 17.110645913678013,-28.053765299129225,0 17.111824747713968,-28.054923021580123,0 17.113562481623262,-28.0562714605594,0 17.114539112090426,-28.056836007275876,0 17.115338350384604,-28.057654229359173,0 17.116450418751867,-28.058550643897036,0 17.11736793138499,-28.059664495619927,0 17.118510534433653,-28.06098433435949,0 17.1189244680898,-28.062206905124526,0 17.11975041894675,-28.06296790334602,0 17.120509596940394,-28.063820469638927,0 17.121066601942175,-28.064903803767493,0 17.122674617639518,-28.06621981499245,0 17.124156729149774,-28.066767204442897,0 17.125030362061636,-28.06731076637874,0 17.125509159320302,-28.06837122894899,0 17.12581436044445,-28.069055935882716,0 17.126060449130478,-28.070257537155555,0 17.12675288573712,-28.071903530323596,0 17.127407173102597,-28.073581951246013,0 17.127864999969802,-28.075216486151874,0 17.1281396978888,-28.07652107598682,0 17.12843156836226,-28.078363528753812,0 17.129112569189772,-28.080135405424585,0 17.130030088118133,-28.082235331395395,0 17.13083507038226,-28.084648058660946,0 17.131079249807556,-28.08572185997582,0 17.13165529885299,-28.086175799973148,0 17.132481235320824,-28.087085569443445,0 17.13321943662777,-28.08813267078608,0 17.133944285700295,-28.08931900157063,0 17.134928547814297,-28.090364187357295,0 17.136332615258027,-28.091922430975387,0 17.137677540586083,-28.09296378924745,0 17.13985225327889,-28.09396508092368,0 17.1408041541884,-28.09437894713068,0 17.142093707358754,-28.09501025142191,0 17.144150083659497,-28.09575788931511,0 17.145952688365924,-28.096028706659467,0 17.14774386268914,-28.09634339742979,0 17.149454891230278,-28.09647688919705,0 17.150908407896736,-28.096635169877118,0 17.15217878931975,-28.096703807035,0 17.153802105183047,-28.097077606646167,0 17.155349137852454,-28.097510541178508,0 17.156724470158224,-28.09777181132,0 17.158424038638543,-28.097870957978273,0 17.159629608619582,-28.097996834286448,0 17.161207272197885,-28.098876098752896,0 17.163589894657946,-28.099804957232948,0 17.164537947368444,-28.099980440145146,0 17.165695834395308,-28.10032376802741,0 17.166794551427472,-28.100245566579588,0 17.167881823687253,-28.100131135043796,0 17.16895575180655,-28.099984274854364,0 17.1698484530437,-28.099871737290812,0 17.170620969781965,-28.099475004967474,0 17.17135725463362,-28.099387262612026,0 17.17216412277611,-28.099539845187678,0 17.173003412377625,-28.099463553899852,0 17.1742642367052,-28.09870633822686,0 17.175507919055292,-28.098672001211867,0 17.176908008797625,-28.098658639984194,0 17.17809827861271,-28.098658639984194,0 17.179620350598725,-28.09919457117246,0 17.1808218250672,-28.099949839813235,0 17.181872634314686,-28.100157698319094,0 17.182366574357957,-28.100325528000667,0 17.18339836834008,-28.100945388418893,0 17.18442827644384,-28.101544255962608,0 17.18582250170715,-28.102263278327598,0 17.187329401230954,-28.103613633762166,0 17.188452915269863,-28.10440514328269,0 17.189471565660256,-28.10519857735244,0 17.189811290858415,-28.10637539600765,0 17.190181435624822,-28.107048668061566,0 17.191108452293292,-28.107681874418915,0 17.191913471429586,-28.1089006401524,0 17.192722324375836,-28.110474147064167,0 17.192924483877903,-28.111032985783595,0 17.192815795412685,-28.111723437586534,0 17.19302938979456,-28.112282270010724,0 17.193475654078213,-28.112759074371752,0 17.19359580080561,-28.113136715886696,0 17.193982961644394,-28.114084633698837,0 17.19416796298117,-28.115434997227283,0 17.194228999069082,-28.116272309219653,0 17.19417563239955,-28.117235496620822,0 17.19432057523443,-28.118391309811045,0 17.194284364931548,-28.119814158696443,0 17.19420039073549,-28.121374327762965,0 17.193780779659278,-28.12200756289866,0 17.19389703232224,-28.12313095732776,0 17.19397515103242,-28.124252446992784,0 17.194585410288482,-28.125417778607527,0 17.195098444737482,-28.12608914859527,0 17.195535192395255,-28.127000833621537,0 17.195815550647183,-28.127685556743018,0 17.196080641108722,-28.129150367995067,0 17.195884195898998,-28.131238865381306,0 17.195502839284643,-28.132871550381708,0 17.19520544967179,-28.135028737985806,0 17.194806942986077,-28.13647831562173,0 17.194517206603848,-28.138223538185684,0 17.19433419007089,-28.139165764188647,0 17.194303852340965,-28.140964383999062,0 17.194458433210173,-28.141961922804455,0 17.1941246921009,-28.142274733092393,0 17.19418387738409,-28.14282405428662,0 17.194046685805972,-28.144361374277935,0 17.193962905863486,-28.14595591723173,0 17.19359291757911,-28.146463276958627,0 17.1932801828342,-28.147510408878247,0 17.193225011225366,-28.14935670444828,0 17.19312777292845,-28.149907926809306,0 17.192813083956707,-28.150667046347053,0 17.19282453502433,-28.151618797069773,0 17.192273282086376,-28.152070827806426,0 17.192446862932456,-28.152574353723423,0 17.19232097223511,-28.152862367004616,0 17.191723945603655,-28.15395716658992,0 17.191558005397667,-28.155208360077722,0 17.19110595757394,-28.156518686688003,0 17.190680596232596,-28.15776225662279,0 17.190426919966455,-28.159196550280512,0 17.19003590912996,-28.161309843774234,0 17.189667786039536,-28.162965400332894,0 17.189599126398605,-28.163745487564142,0 17.189141336403623,-28.16447218024689,0 17.188605345860083,-28.165301859693045,0 17.18810559529703,-28.166820089775285,0 17.187769899061664,-28.168038849213474,0 17.18742655679023,-28.16866064767072,0 17.18722818703128,-28.16936253615205,0 17.186741788702648,-28.169883240918807,0 17.186526247288555,-28.17038866890192,0 17.18608181762181,-28.17104670104436,0 17.185347458218644,-28.172543946346025,0 17.18484581188477,-28.17394772870466,0 17.184222102368153,-28.176074390620613,0 17.184067611431146,-28.17727980411962,0 17.183888316292837,-28.178519569022853,0 17.18372047941665,-28.179770769705215,0 17.18343818672298,-28.181046760199763,0 17.1830490797513,-28.182173979445565,0 17.182806839264288,-28.183493839768857,0 17.183005238700844,-28.18504065570164,0 17.18330663479344,-28.186366238411154,0 17.183340971808434,-28.187134889863216,0 17.18340966202635,-28.18856726616633,0 17.183348634032257,-28.189887125590303,0 17.183527958848288,-28.191948924803,0 17.183220870946514,-28.193348895834845,0 17.182679158916073,-28.194729785051493,0 17.182450278757415,-28.196257540752867,0 17.182110771195198,-28.198162946962384,0 17.18174265440001,-28.199887155068097,0 17.18193530986673,-28.20082554726116,0 17.18220047407266,-28.202439127063997,0 17.181990661340024,-28.20334700795803,0 17.18282424384381,-28.204714535947005,0 17.182671646879044,-28.2060916201321,0 17.18360633116731,-28.20734279923073,0 17.18376657416809,-28.20885529973225,0 17.184787089752433,-28.210611921203167,0 17.185714143293126,-28.212286514610923,0 17.186816686940574,-28.21445511461178,0 17.187375601203087,-28.215744458240124,0 17.188445709901657,-28.217350399201507,0 17.189338418333364,-28.218283053719915,0 17.190271178072464,-28.219259595154142,0 17.190997950794838,-28.220466909820004,0 17.19171516911979,-28.221733357608343,0 17.19219013796453,-28.222473388136336,0 17.192615516393005,-28.223318330876225,0 17.193115274150614,-28.223863810166677,0 17.1935635376272,-28.224512285213734,0 17.193723780628034,-28.22492426464305,0 17.193838242740753,-28.22571388558731,0 17.19430938586953,-28.22622505124508,0 17.19479770874733,-28.22691929908632,0 17.194999905121563,-28.22752581356542,0 17.195564525582427,-28.228080849051878,0 17.196443873685894,-28.22887427502775,0 17.196995150006217,-28.229454091333196,0 17.197822994835406,-28.230375318166352,0 17.198902645340866,-28.231660826186157,0 17.200190204714204,-28.233091300423155,0 17.201082913145967,-28.23404685617743,0 17.20269473387492,-28.235292320084454,0 17.203598893374306,-28.236108640101634,0 17.204339003941925,-28.2372701747787,0 17.204781554025544,-28.238481316959167,0 17.20543963113414,-28.239207992554782,0 17.206799669569136,-28.240203601415033,0 17.208937969611668,-28.24202886633907,0 17.210080564566454,-28.243278143371583,0 17.21227989260302,-28.24494130100021,0 17.212876940818205,-28.245978868629834,0 17.21363802987122,-28.24669411024496,0 17.213863120286817,-28.247069849693787,0 17.21444300404147,-28.247867095090328,0 17.215747720680838,-28.248462166595687,0 17.217155442969386,-28.24898665391089,0 17.2188321111131,-28.24934903303142,0 17.219728609287927,-28.249442474390662,0 17.221071438296292,-28.249875399929692,0 17.222749978828517,-28.250340738833984,0 17.223078050611605,-28.250470419274393,0 17.223825756853273,-28.250594378227902,0 17.22438081392346,-28.25075075684191,0 17.224974028328802,-28.25088616596372,0 17.225721748959586,-28.25101011682341,0 17.226536219071306,-28.251055875228417,0 17.227455595099684,-28.251092083732658,0 17.228298674444318,-28.25105774042231,0 17.22944885518058,-28.25106152926611,0 17.230345367744576,-28.25086697892789,0 17.23090234306875,-28.250840264566534,0 17.231333433990812,-28.250674322561906,0 17.231659603707783,-28.250472148670667,0 17.231909483036247,-28.25035389681483,0 17.23259235625227,-28.250105950129466,0 17.233433555114516,-28.249844635021873,0 17.23440254584085,-28.249560449255284,0 17.235772103599743,-28.24907597637514,0 17.237399165139436,-28.24847515280601,0 17.23853791009651,-28.24821193473298,0 17.23984070398535,-28.24767215624496,0 17.240485418966955,-28.24727542392162,0 17.24084019791684,-28.24665173688811,0 17.241393360115524,-28.24622258490433,0 17.24193317007979,-28.245873542729782,0 17.242371879158952,-28.245604620256984,0 17.243115785764928,-28.244887469381183,0 17.24396078066553,-28.24402916631294,0 17.24452538943524,-28.243497024867736,0 17.245179638129855,-28.24292864434142,0 17.245654599779982,-28.242476606410207,0 17.246306940113243,-28.24181668029553,0 17.246820043810033,-28.241353197591934,0 17.247655505896944,-28.240737126916827,0 17.248233465102373,-28.24035184566111,0 17.249175743265994,-28.23983495312052,0 17.24975560363822,-28.239464935158594,0 17.250837119337632,-28.23874777708818,0 17.25187095837805,-28.238476928267573,0 17.25282849893614,-28.238331955755086,0 17.254329653590673,-28.238158366815128,0 17.255041135140345,-28.238152638133727,0 17.255817463205403,-28.238112578732455,0 17.256412594965354,-28.238051536349303,0 17.257774513882737,-28.238175487208935,0 17.25920128021494,-28.238564565402328,0 17.260254201070552,-28.238852549005912,0 17.261099212158967,-28.239176778885167,0 17.261711514674687,-28.239537248744966,0 17.262413455316732,-28.23984049474302,0 17.26299903807518,-28.240132304961833,0 17.26355792985464,-28.240412665012457,0 17.26410537866036,-28.240729279432628,0 17.264599423025004,-28.240940978943,0 17.26539102157841,-28.241244224941,0 17.266079630670447,-28.24146547435214,0 17.26696278290615,-28.2417553672164,0 17.267615131333287,-28.24218449581781,0 17.268383851133876,-28.242749049728843,0 17.26953024212702,-28.243414698229685,0 17.271077208246595,-28.244086044835058,0 17.272456306913057,-28.244646787419242,0 17.273328030564187,-28.24509499783585,0 17.274144426124394,-28.24508926915439,0 17.274958910625287,-28.24510451715969,0 17.27536138691852,-28.24516936367513,0 17.276088129963284,-28.2453238483169,0 17.2769712965881,-28.24544209297818,0 17.27783918732871,-28.245388673248613,0 17.278472467430504,-28.245258985613646,0 17.279178212204783,-28.244749715726755,0 17.279824845440316,-28.244480777066144,0 17.28066603620863,-28.24433772910288,0 17.281364163725243,-28.24429766340637,0 17.282241595373364,-28.243946719165706,0 17.283141912069652,-28.243242914229086,0 17.28383622825936,-28.24271077278388,0 17.284751793860266,-28.242167189264308,0 17.285459462284393,-28.24165792657203,0 17.286012610093906,-28.241162025107315,0 17.286642070774974,-28.240574578054293,0 17.28729823772352,-28.240145426070512,0 17.287839949753902,-28.23985551791776,0 17.288417900865454,-28.2393023925913,0 17.288919561588557,-28.238875142673635,0 17.29011932824443,-28.237196707362102,0 17.290659138208696,-28.236586358173838,0 17.291136002824317,-28.23636510156814,0 17.291652917847955,-28.23613241817651,0 17.29272108670881,-28.235529693440583,0 17.293197959418364,-28.235194004399716,0 17.293941859729102,-28.23435478314667,0 17.294844080290147,-28.233958058017947,0 17.295654745370257,-28.233403023430753,0 17.29630900305807,-28.232689692875,0 17.297224566860336,-28.232144191101497,0 17.297854028440725,-28.231602524037214,0 17.29850827803466,-28.23103605277157,0 17.299021375436155,-28.230416177964173,0 17.299584077643146,-28.22971427599299,0 17.300072378937216,-28.229138263819777,0 17.30048247788409,-28.22885979864077,0 17.301100489296175,-28.228340995940187,0 17.30158879598622,-28.228005299704762,0 17.30226784168758,-28.227108861784473,0 17.302651236165673,-28.226591983633114,0 17.303229188176545,-28.226118969015147,0 17.303887264385764,-28.22579280559347,0 17.304713192759664,-28.225510521893,0 17.305422764149284,-28.225275913052883,0 17.306262044757602,-28.224915435099206,0 17.307061260568787,-28.224509177156733,0 17.307717426618012,-28.224228794623116,0 17.30837740579267,-28.224062852618488,0 17.309050746195055,-28.22395413537498,0 17.30975077577773,-28.224085740364558,0 17.310424099992247,-28.224102882342095,0 17.311070734127156,-28.22405137277258,0 17.31169256406065,-28.224045644091177,0 17.312276243853603,-28.224085695398458,0 17.313130780561096,-28.224148618264053,0 17.31385752360586,-28.224255419052326,0 17.31486847040361,-28.22437174635894,0 17.31568677432523,-28.22452622290683,0 17.31641351017538,-28.224724577377287,0 17.317308112579383,-28.22491147358562,0 17.318177912580666,-28.225018267179223,0 17.32000526033454,-28.225184172311685,0 17.321287075737985,-28.225287153679176,0 17.322362890634963,-28.225243274857178,0 17.323217428241776,-28.225191773381596,0 17.324422946062157,-28.22537486455832,0 17.325431996189707,-28.225330986635697,0 17.32631133619924,-28.22523179501127,0 17.327541642932545,-28.225176466021026,0 17.329162997374453,-28.225412955343586,0 17.330603139323443,-28.225697125821682,0 17.331678947025807,-28.225641804925317,0 17.333027528098,-28.225882112769227,0 17.333626463090866,-28.226173922988096,0 17.334225414271486,-28.226603051589507,0 17.334734712936722,-28.227009303236684,0 17.33525927579501,-28.227610096228887,0 17.336029904856275,-28.228300532743333,0 17.336693702552395,-28.228727767372504,0 17.337168673195777,-28.22967185767004,0 17.337552082062984,-28.230411893593953,0 17.337882085589854,-28.23117480287482,0 17.338446699755423,-28.231888133430573,0 17.339060921424448,-28.232546134996085,0 17.339144849755087,-28.233036307779344,0 17.338969382131324,-28.23363138737858,0 17.33888354993593,-28.234192120969567,0 17.339053326649775,-28.234384761147737,0 17.339638910307542,-28.234687999951177,0 17.34058884080241,-28.23506751385463,0 17.34153874971355,-28.235574814226254,0 17.342542080152953,-28.23624995057469,0 17.34369038130609,-28.23710817989854,0 17.344281692745994,-28.237937823371794,0 17.344937853399244,-28.23892575382041,0 17.34563406356125,-28.23977636588654,0 17.346431369212382,-28.24067084868068,0 17.346997891739363,-28.241500484959374,0 17.34776659715078,-28.24211078198698,0 17.34838462205272,-28.243030076177035,0 17.349002639760045,-28.24396080614622,0 17.349630199274316,-28.244618814906346,0 17.350183368667558,-28.245366460893422,0 17.35048666772559,-28.246152263316276,0 17.350818582311774,-28.246903743113194,0 17.351268747854476,-28.24774485204324,0 17.35172655313795,-28.248414303777054,0 17.35213475811264,-28.24894834009376,0 17.35260781769665,-28.249675023783254,0 17.353626408731827,-28.250594325167924,0 17.3537961710565,-28.25068205223488,0 17.35391634026695,-28.25079457540926,0 17.354124250034147,-28.250847971756457,0 17.354372220101936,-28.250910917105102,0 17.354570581767007,-28.251055851846047,0 17.354860519597366,-28.25121224574849,0 17.35503217589428,-28.251357181388755,0 17.35524580894696,-28.251547905111693,0 17.355303024714885,-28.251765334202787,0 17.355371684355816,-28.251957951897907,0 17.355484214724754,-28.25221924362313,0 17.355631090202678,-28.252411862217627,0 17.355753160579923,-28.25260449520124,0 17.355863773594308,-28.252842893784475,0 17.35599919800461,-28.25305840642028,0 17.356147968354094,-28.253308239883324,0 17.35619183098828,-28.253525661779804,0 17.356229957746393,-28.2539605046735,0 17.356283346898977,-28.254488805114192,0 17.356334826790885,-28.254935083787018,0 17.356449260125316,-28.255345138667167,0 17.35645686838984,-28.255656001023567,0 17.356502641183965,-28.255964975703023,0 17.356525519936838,-28.25626249301962,0 17.356557925208108,-28.256537130683967,0 17.356571255858796,-28.257019657431215,0 17.356660884991925,-28.257500265924477,0 17.356695206718484,-28.25777490358888,0 17.356805826927427,-28.258059060577125,0 17.35694313901473,-28.258366110707414,0 17.356964109406192,-28.258629314391328,0 17.356983167838962,-28.258881065208925,0 17.356950740084642,-28.259100396366136,0 17.356943094048574,-28.25935404295467,0 17.35693926743329,-28.25964012359276,0 17.35693924495024,-28.26014553718676,0 17.357196725348672,-28.26105909370216,0 17.357372216354747,-28.261778124161083,0 17.357467566075343,-28.26212714295326,0 17.357545773818458,-28.262575362363066,0 17.35765068782905,-28.26333253396922,0 17.357820450153724,-28.26434338184157,0 17.358030270080974,-28.26514633433584,0 17.358303028162254,-28.26556974055103,0 17.35847278958761,-28.266178150800954,0 17.358537645096305,-28.26656915264425,0 17.358707412816898,-28.267166127115047,0 17.358966826757694,-28.26777454366021,0 17.359293018957715,-28.268577503349036,0 17.35963255709686,-28.269220265003185,0 17.359996884148927,-28.26987255317573,0 17.36042608019949,-28.27057252340319,0 17.360790415345434,-28.271169496974665,0 17.36107654814424,-28.27177792071444,0 17.361232963630414,-28.272420675173976,0 17.36148094898664,-28.27310920242769,0 17.36170221998151,-28.273681395180176,0 17.36183193729414,-28.274244046125773,0 17.36204176531527,-28.27458925269184,0 17.36259874693468,-28.27493256618493,0 17.363260636269388,-28.27524153277045,0 17.36389773579191,-28.27556195222229,0 17.364416569069476,-28.275905256722183,0 17.364962107715144,-28.276191352648766,0 17.365624004244467,-28.27645453295031,0 17.366285899874413,-28.27669293063417,0 17.367180495983177,-28.276956134318084,0 17.367830941444822,-28.277070550565384,0 17.368595833730808,-28.277171630766077,0 17.36921767085886,-28.277537822112777,0 17.369879567388182,-28.27788112661267,0 17.370413663060162,-28.278293090753493,0 17.370842836627673,-28.278729867189554,0 17.371153773627782,-28.27923339220723,0 17.371428449963048,-28.2796701461603,0 17.371830932551518,-28.280127905578354,0 17.37220861993194,-28.280667669677143,0 17.37263590042653,-28.281251306302693,0 17.372845734742896,-28.28173386182823,0 17.373261564169923,-28.282260267397362,0 17.373704106159607,-28.28281147536927,0 17.374158091123036,-28.28337412631481,0 17.37448426893394,-28.283774654676506,0 17.37475513214366,-28.28410652429659,0 17.375132820423346,-28.284531855960324,0 17.375497153770652,-28.28509259134995,0 17.375939687666516,-28.28559802562836,0 17.376613035263404,-28.286366662691307,0 17.377173844397475,-28.286997981371712,0 17.377393213326172,-28.28741757715943,0 17.37757441772527,-28.287907765231125,0 17.37778235087484,-28.288384583981326,0 17.377994073767525,-28.288563871925078,0 17.37815239941375,-28.28912461271068,0 17.3783355211674,-28.28965866431588,0 17.378465239379352,-28.290196519153994,0 17.378593039337318,-28.290583709670443,0 17.378842910571905,-28.29120934373617,0 17.3792835289118,-28.291625165069263,0 17.379472364957735,-28.29190937421822,0 17.37974321287902,-28.29234998356486,0 17.37997591965302,-28.29282875114592,0 17.380204799811736,-28.293122494007832,0 17.380435597325004,-28.29348490280597,0 17.380586292223654,-28.29376911195493,0 17.380813269416876,-28.294038050615484,0 17.381000196202137,-28.294242141861332,0 17.381175679114335,-28.294535884723246,0 17.3814064829229,-28.294875400379397,0 17.381686872651073,-28.29520348025636,0 17.381890956702364,-28.29550866609202,0 17.38198632980533,-28.295701314364123,0 17.38211412976335,-28.296101872403426,0 17.382148466778347,-28.29641087676049,0 17.382314401588417,-28.29679808256543,0 17.382470809880033,-28.297345516981977,0 17.382482260947654,-28.29774607502128,0 17.38279888256244,-28.298394580645322,0 17.382808416275452,-28.29874936678982,0 17.382754997445204,-28.29922241198466,0 17.382783612973412,-28.299760303694995,0 17.38291521706367,-28.300321083151402,0 17.38273593001918,-28.300887554417045,0 17.382524207126494,-28.301673364034457,0 17.38227434308652,-28.302045284961878,0 17.382001569716692,-28.30248778198552,0 17.381833732840562,-28.303054245157227,0 17.381627740427916,-28.30356349166175,0 17.381202370093376,-28.30414522622118,0 17.380948701021794,-28.304828031088732,0 17.380763684396584,-28.30517707326328,0 17.38051572242273,-28.30563101326061,0 17.380305909690037,-28.30602582013546,0 17.380120893064827,-28.306372952149957,0 17.379718424865473,-28.307015713804105,0 17.379705071731735,-28.307038599751536,0 17.379264462385095,-28.30766038471893,0 17.378980253236136,-28.308188713937966,0 17.37874755275743,-28.308545394054647,0 17.378503411103566,-28.309005063632753,0 17.378217298989227,-28.309476184278424,0 17.377973163630656,-28.31009797733975,0 17.37771377397155,-28.310660649869078,0 17.377521133793323,-28.31105167599401,0 17.377391430869864,-28.3114999241821,0 17.37723695432203,-28.312016832910444,0 17.37710916335726,-28.312545177417974,0 17.37704431414386,-28.313004861385195,0 17.37691463370345,-28.31354465606097,0 17.376838349610182,-28.313945206905714,0 17.37667051363337,-28.314416334746,0 17.37650266236801,-28.314704340832634,0 17.37633481020339,-28.315095366058245,0 17.376153612998905,-28.315429160227495,0 17.37596097192136,-28.31570382127427,0 17.37583126989722,-28.316152062267804,0 17.37565007988735,-28.31660030326134,0 17.375560443559664,-28.31696841196259,0 17.375535654646797,-28.317508206638365,0 17.375562360914273,-28.31770274168815,0 17.375510873827807,-28.31808231584614,0 17.3754727317812,-28.318599202091434,0 17.375447942868334,-28.31893108610069,0 17.375409801721048,-28.319333531816994,0 17.37538502000274,-28.319758871574606,0 17.375293474414377,-28.32002209684225,0 17.37526868640083,-28.320355882917625,0 17.375295391768987,-28.320712540551256,0 17.375282045829806,-28.321113085100762,0 17.37533545836476,-28.321412510778714,0 17.375530023092153,-28.321710050578304,0 17.37564828304187,-28.321998042275766,0 17.375766557380757,-28.322352805037895,0 17.375896266599455,-28.322558783960687,0 17.376025970422234,-28.322869675994696,0 17.376247233323227,-28.3231443136591,0 17.37642845301076,-28.32339607257063,0 17.376573426422567,-28.323741295324453,0 17.376924392246963,-28.32416470333834,0 17.377183811583677,-28.324601470781204,0 17.377612994144442,-28.325013434922027,0 17.377990674330192,-28.325425407156786,0 17.378250093666963,-28.325747734969923,0 17.37877847504666,-28.32669374262207,0 17.37938123125889,-28.327740815186417,0 17.379892410406455,-28.32873260372662,0 17.380399785421787,-28.329495482430502,0 17.381078807740835,-28.330416670592854,0 17.381832212986296,-28.33117381162208,0 17.382515048430776,-28.331578123431598,0 17.38341913958169,-28.332026296975982,0 17.384061923718832,-28.332373384024436,0 17.384809621866623,-28.332752906021767,0 17.385212082871362,-28.333460485413013,0 17.385757591839422,-28.334141365731398,0 17.386408006724196,-28.33491378534285,0 17.386955441140742,-28.33578920071102,0 17.387668815763277,-28.33650250158911,0 17.38850427785019,-28.33738745156961,0 17.389242471962575,-28.337995860920216,0 17.390344985932416,-28.3386710197517,0 17.391228146261994,-28.339302331237548,0 17.392191438883856,-28.34013770339226,0 17.392813276011907,-28.340818607093013,0 17.393501885103944,-28.341509036412845,0 17.39437169859508,-28.342266215213613,0 17.39497256713031,-28.34314164587022,0 17.395481866694865,-28.3439388840722,0 17.396109440598252,-28.34496308507829,0 17.396773239193692,-28.345756518248663,0 17.397396992777033,-28.346448842440054,0 17.39794063025596,-28.347106844005623,0 17.39844802685502,-28.347858316607983,0 17.399230085400177,-28.348674614142112,0 17.399800428247204,-28.349286842913443,0 17.400370763000353,-28.349979174299392,0 17.400733171798493,-28.350650544287134,0 17.401225277224796,-28.351217014653457,0 17.401702104068875,-28.35177394501153,0 17.402140796960282,-28.352342310249355,0 17.402581383823872,-28.352954560604417,0 17.40319364317213,-28.353715575013723,0 17.403788744355097,-28.354407920788844,0 17.40434569719622,-28.354974392054487,0 17.404736683751025,-28.355714436072333,0 17.40509906377082,-28.356422046040564,0 17.40558922935952,-28.357608391214228,0 17.405861956863873,-28.35837322414494,0 17.406086995118756,-28.359334510379313,0 17.40616707525038,-28.36010125167138,0 17.406426473003364,-28.360799319832722,0 17.40672405776911,-28.36145923155823,0 17.407088383921803,-28.36214394658583,0 17.407456530394597,-28.363103292982544,0 17.407654921737276,-28.36403022601405,0 17.408032601923082,-28.36481601314847,0 17.40829967718838,-28.365926046349898,0 17.40864111559506,-28.366791943293492,0 17.408892913177453,-28.367787535965988,0 17.40920574504912,-28.368598112013217,0 17.409350724756166,-28.369399176830484,0 17.409493796101856,-28.370143003396834,0 17.409781860644387,-28.370965028713044,0 17.410106182254538,-28.371638271089296,0 17.410613615725822,-28.37235347493288,0 17.410976084778554,-28.372969499742567,0 17.411481610787746,-28.37361603585134,0 17.412078703969087,-28.374262564765502,0 17.412607123120267,-28.3747832245661,0 17.413160331184372,-28.375235211235974,0 17.413469395796028,-28.375792102923185,0 17.413705990339224,-28.376593122774352,0 17.41373467961182,-28.377476156299508,0 17.413526837293773,-28.3782009001514,0 17.413269393767564,-28.37901911504008,0 17.413092083432957,-28.38002040581705,0 17.412886119798657,-28.380813824598306,0 17.412626722045616,-28.38152905002562,0 17.4124722463971,-28.382265253038952,0 17.412302513750035,-28.382978561111656,0 17.412157563720655,-28.38360032269668,0 17.41198782477835,-28.384244972027773,0 17.411854324917215,-28.38472941612963,0 17.41173417099526,-28.38529204459212,0 17.41154726039781,-28.385765036727037,0 17.411427112771094,-28.3862952527237,0 17.411240202173644,-28.38669768405083,0 17.411120055446247,-28.387182120058753,0 17.410984646324437,-28.387641759959195,0 17.410875941671407,-28.388126195967118,0 17.410689031073957,-28.38858774512829,0 17.41059558341948,-28.389035942055045,0 17.410546004694424,-28.389232386365506,0 17.410528862716887,-28.38973589699401,0 17.41050218702634,-28.390344291056124,0 17.41041825689706,-28.390794426921218,0 17.410374363686003,-28.391219760383592,0 17.410317132629643,-28.39162030313446,0 17.410326651054163,-28.39213719657431,0 17.410309472204403,-28.392631195972854,0 17.410280834193202,-28.393193863106262,0 17.410212167357713,-28.393699304579172,0 17.410276992289425,-28.39444507098318,0 17.410160627211212,-28.39513363600844,0 17.41011483193398,-28.395501751904305,0 17.410109087064768,-28.395961420583035,0 17.410067104013706,-28.396501200869693,0 17.410065193853654,-28.397052424130038,0 17.409906852918994,-28.397615105652562,0 17.40973896388215,-28.398399021297735,0 17.40964928258836,-28.399213460832527,0 17.40951574585506,-28.39969794180655,0 17.40930398609015,-28.400170971712953,0 17.409101796910477,-28.40057533478381,0 17.40894351623035,-28.401116986559657,0 17.408810017268536,-28.40165673716865,0 17.408649824629777,-28.40215261615026,0 17.408567837036117,-28.402623690930568,0 17.408405727942068,-28.403016595739246,0 17.408276062790094,-28.403672665561032,0 17.407988064797394,-28.404273465747792,0 17.40763330922988,-28.404839915429704,0 17.407282364989214,-28.405532254010268,0 17.407032516237678,-28.406030035058052,0 17.40671972933211,-28.406733831900794,0 17.406509923793976,-28.407321264564644,0 17.406302042805066,-28.40802312966366,0 17.40596253524285,-28.40864681669717,0 17.40567070973549,-28.40903017340372,0 17.405304487811918,-28.409653860437288,0 17.404961146439803,-28.410048675406017,0 17.4044919053772,-28.410720051688998,0 17.40410085766848,-28.411368542923867,0 17.403646850222003,-28.41210859413627,0 17.403307296794367,-28.41276662627871,0 17.402904798018085,-28.413460890307817,0 17.402511841048693,-28.414073155951314,0 17.40215893538658,-28.41463010069856,0 17.40179269097996,-28.4152995830093,0 17.401352028573285,-28.416051070900153,0 17.400823631905155,-28.41696469576408,0 17.400547024725483,-28.417565504044717,0 17.400173142376673,-28.418395191584807,0 17.399900345624474,-28.419167664256236,0 17.3995455378963,-28.41968837621755,0 17.3992002710757,-28.419922993151545,0 17.398948481587183,-28.420169044965405,0 17.398870281938002,-28.42037312092276,0 17.398811147916206,-28.420615338926723,0 17.39873866885455,-28.42076602573144,0 17.39863758235856,-28.42089381219961,0 17.3985021507537,-28.421195163326104,0 17.398378170216404,-28.42135919517068,0 17.398153102283914,-28.421696786277607,0 17.397887966856217,-28.421979062783464,0 17.397907048671414,-28.42219649187456,0 17.397744918892954,-28.42244062723313,0 17.397557993007013,-28.422709550605248,0 17.397601870929634,-28.42294796537624,0 17.397662907017605,-28.423256931961816,0 17.397607599611092,-28.423604063976313,0 17.39760187812425,-28.42389015270834,0 17.397470274033992,-28.424260164375028,0 17.397298609643144,-28.424620641429442,0 17.397115503177986,-28.42507266497148,0 17.396995341162096,-28.425440772773413,0 17.396825579736742,-28.425858467394335,0 17.396615767004107,-28.42629904706331,0 17.396432659639572,-28.426705305005783,0 17.39627434928184,-28.42708675065296,0 17.396089339851187,-28.427458664385824,0 17.395686871651833,-28.427971745599564,0 17.395322559888257,-28.428370364700527,0 17.394853334114146,-28.42880522288266,0 17.394462308888478,-28.429238187092608,0 17.393993091208245,-28.429673053368674,0 17.393552480062965,-28.4301422413713,0 17.393109960556274,-28.43063433060985,0 17.392474793676854,-28.43113022487995,0 17.391893030339133,-28.43171576267224,0 17.391278832052535,-28.432060991721357,0 17.390826770738954,-28.43239667266829,0 17.3905406604232,-28.432583592258936,0 17.390285073997006,-28.43276097813657,0 17.390056172254617,-28.432879237187024,0 17.389722369991432,-28.433047074063154,0 17.389222633817553,-28.433298848263178,0 17.388814444131356,-28.433607822942633,0 17.388484462188217,-28.433821447901437,0 17.388219335753774,-28.43410181514662,0 17.387763455019467,-28.434548124396372,0 17.387431563815653,-28.43479607108179,0 17.386981412662124,-28.43496582531253,0 17.386399649324403,-28.435013514562,0 17.386103981913266,-28.435122233604147,0 17.3858140593714,-28.435438848024376,0 17.385409696300485,-28.43584891729364,0 17.385144561772165,-28.4361884176613,0 17.3847649867148,-28.43650502398765,0 17.384381593136084,-28.436743445053878,0 17.38399820675187,-28.437004744873036,0 17.38331343236905,-28.43712300482275,0 17.38263819799448,-28.437090592356924,0 17.38184469737496,-28.437073435090895,0 17.381217146853885,-28.436892253174904,0 17.380694507645444,-28.436775924968913,0 17.38012036876006,-28.4366500423655,0 17.379405075883597,-28.43660809618666,0 17.378756539682627,-28.43665578633545,0 17.378237715398313,-28.436667237403014,0 17.37757582606355,-28.436728287880157,0 17.37669840970392,-28.43688468088328,0 17.37560543844029,-28.436827486699087,0 17.37494354910558,-28.436886612627006,0 17.373633131663723,-28.436890455430103,0 17.372309362886824,-28.43691907815287,0 17.371697066666343,-28.43687521461942,0 17.371204946850867,-28.43691909344136,0 17.370647979620628,-28.436978226563838,0 17.37010053081491,-28.43689812394922,0 17.369610321159428,-28.436976331692335,0 17.369131547283132,-28.437067885374574,0 17.368755791646493,-28.437121297010208,0 17.368029047702464,-28.437136566599236,0 17.367521673586396,-28.437077440671317,0 17.367025735249513,-28.437008797218198,0 17.366415348289763,-28.436997354244454,0 17.365858381059468,-28.437056494561546,0 17.365246084838986,-28.436987834920615,0 17.364767326251183,-28.437022171935666,0 17.364271378921046,-28.436963054101625,0 17.363815506280616,-28.436903935368264,0 17.363319559849856,-28.436844823829517,0 17.362705360663938,-28.436675084887213,0 17.36209498179801,-28.436686535954834,0 17.361345351906493,-28.436783811123917,0 17.360630067123964,-28.436799080712944,0 17.359851836093412,-28.436780022280175,0 17.35930439538157,-28.436711361739924,0 17.35869593297099,-28.4367819540239,0 17.35851089386273,-28.43682964417269,0 17.357723130018485,-28.43700133014721,0 17.35720239377548,-28.43698418816973,0 17.356422254383574,-28.436881229285234,0 17.35560395675725,-28.436845011787796,0 17.35486387496792,-28.436866026246093,0 17.353879636236286,-28.436936624825307,0 17.353376073447066,-28.437115935252166,0 17.35258830870356,-28.437299057005816,0 17.351785274370968,-28.437390625976548,0 17.350995607561288,-28.43757376211937,0 17.34988738019848,-28.43795526892046,0 17.349217867310756,-28.43831957259016,0 17.348769626317278,-28.43862475123126,0 17.34827368708102,-28.439124464922088,0 17.347878857723174,-28.43957839772486,0 17.347564138174505,-28.440099088102386,0 17.347354339830986,-28.440757097761832,0 17.3471826691449,-28.441230082702134,0 17.347075868356683,-28.441794629418553,0 17.347011028136478,-28.442565146064567,0 17.346946187916274,-28.443221238369404,0 17.346864175141604,-28.44373809403777,0 17.346784065332372,-28.444382735274985,0 17.34671540569144,-28.444853826243047,0 17.34637207780918,-28.445319193925627,0 17.3458723416353,-28.44561291430449,0 17.34538404213987,-28.445918077657097,0 17.345052150036736,-28.44624421769646,0 17.34483469936191,-28.446442572166916,0 17.344735521227392,-28.446661904223447,0 17.344437967038573,-28.447468668044564,0 17.344199553166902,-28.447897796645975,0 17.343778011246286,-28.44822393668528,0 17.343173361061815,-28.448531018291817,0 17.342646911425845,-28.448870503370983,0 17.342274960820816,-28.449152787970718,0 17.34163598081591,-28.4496887263536,0 17.34112479357441,-28.450085435294568,0 17.34071660388821,-28.45053936809734,0 17.340129119063647,-28.45105242682797,0 17.339736191771863,-28.451540696645793,0 17.33929177019911,-28.452086175936245,0 17.33892363901475,-28.452549657740462,0 17.33865850538575,-28.452967365851237,0 17.338526914785348,-28.453589136429457,0 17.338740555032643,-28.453953417616106,0 17.338824484262602,-28.45425094212726,0 17.33893130033931,-28.454456936338488,0 17.338988524201056,-28.454554196219135,0 17.339057191036602,-28.454668635848805,0 17.339074362691747,-28.45482884917203,0 17.339051483938874,-28.454989054401267,0 17.33900761411013,-28.45524272257353,0 17.33898663742343,-28.455416289030495,0 17.338973284289693,-28.455462061824676,0 17.338956118929786,-28.455738616843632,0 17.33892178910935,-28.45594460296104,0 17.338876009120554,-28.45616394221213,0 17.338776830986035,-28.456327974056705,0 17.33867572920161,-28.45644431575255,0 17.33854984569888,-28.456608349395765,0 17.338399159793425,-28.456772374045784,0 17.338286622229873,-28.456968833644737,0 17.338237029115646,-28.457050846419406,0 17.33811496503364,-28.45734075367278,0 17.33790133288028,-28.457573454151543,0 17.3377125040289,-28.45784238471822,0 17.337615221665203,-28.45807317503693,0 17.337565628550976,-28.45818952392733,0 17.33744356626761,-28.458490875953146,0 17.337323397057162,-28.45882655690002,0 17.33720131768672,-28.45913935909408,0 17.33707353211787,-28.4593300819177,0 17.33702202974291,-28.459421642794553,0 17.33678170031527,-28.45982599867085,0 17.336648192360258,-28.460344778888384,0 17.336499414816217,-28.46073768369712,0 17.336302955217263,-28.46134992775694,0 17.336093149679186,-28.46194881868297,0 17.336009220449228,-28.462294026148356,0 17.33587189397275,-28.462595391663967,0 17.335622037127337,-28.463196192750047,0 17.33542557662912,-28.463806533844433,0 17.335278702050516,-28.464302428114536,0 17.335129931701033,-28.464695332923213,0 17.33494300581509,-28.465134018620006,0 17.33478660471809,-28.46575769755964,0 17.334716035816427,-28.466205916969443,0 17.334571085787047,-28.46675902700747,0 17.33443756344286,-28.467300694071753,0 17.334288800287936,-28.4677279367948,0 17.33420678121803,-28.468244806852283,0 17.33413811438254,-28.468660599407087,0 17.334029403434272,-28.469190822598364,0 17.333911151578434,-28.469789712625072,0 17.3337738179074,-28.470146386446515,0 17.333602154415928,-28.47064227262274,0 17.333434295056747,-28.471426143301812,0 17.333186324988958,-28.472141346246076,0 17.333005127784475,-28.472845106216653,0 17.332886853445586,-28.473478303580805,0 17.332802924215628,-28.473869283840315,0 17.33286587675883,-28.474420454940002,0 17.332783856789604,-28.474925866735305,0 17.332909746587575,-28.47545415908212,0 17.332905936160103,-28.475993894402677,0 17.333018472824335,-28.476508832716434,0 17.33322066200401,-28.476907437428224,0 17.333148175747738,-28.47721830697924,0 17.333562095914033,-28.477777108826444,0 17.333684166291278,-28.47807271598299,0 17.333743292219197,-28.478452245174935,0 17.333747111639923,-28.47866967516535,0 17.333712781819486,-28.47899198769005,0 17.333668903896864,-28.47915410307934,0 17.333678444804434,-28.479510746323854,0 17.333684166291278,-28.479751054167764,0 17.333678445703754,-28.480039044965906,0 17.333710871659434,-28.48029079668288,0 17.333794801788713,-28.480483415277376,0 17.333951218174207,-28.48054826179282,0 17.33412478463117,-28.480718008829,0 17.334271666404334,-28.480817186064257,0 17.334523454094153,-28.48100790888782,0 17.33467033766601,-28.481143326103563,0 17.334845827772767,-28.48142560260942,0 17.334992687962256,-28.481561005435992,0 17.33512621840032,-28.481696428946975,0 17.335290264634068,-28.482001577011147,0 17.335423786978254,-28.4821598882682,0 17.335559226676992,-28.48238685107225,0 17.335589744271317,-28.482524176649406,0 17.335776678251136,-28.482760674065787,0 17.33583581227299,-28.48295521631013,0 17.335973153138582,-28.48325083785585,0 17.336058991629216,-28.48354837765544,0 17.33612766655864,-28.483706673624056,0 17.33622494262704,-28.483946982367286,0 17.33628217278408,-28.48415106641852,0 17.336337494579766,-28.484265506048246,0 17.33642141661511,-28.484469573911667,0 17.33651679691269,-28.48462788516872,0 17.3365969148158,-28.48477664742427,0 17.3367189941863,-28.484934943392886,0 17.33680100606165,-28.485116133402812,0 17.336923092626648,-28.485262992692924,0 17.337005111696612,-28.485409852882356,0 17.33708715504821,-28.485592953052276,0 17.337142460656082,-28.485730278629433,0 17.33726454812046,-28.485898116404883,0 17.33737708568401,-28.48622997793109,0 17.337449571940226,-28.486516065763794,0 17.337615521139412,-28.486924225772384,0 17.337743337285247,-28.487301852898156,0 17.337894024089962,-28.48760702434464,0 17.338033275115606,-28.487961771818277,0 17.338132474833913,-28.48826884533088,0 17.33820304373552,-28.488415704621048,0 17.338340392695045,-28.488759002825702,0 17.338412871756702,-28.488974521756745,0 17.338481553880683,-28.489169064900352,0 17.338498711146656,-28.489272061556335,0 17.33863414994613,-28.48954479805394,0 17.33868184099424,-28.48986522380102,0 17.338769596839484,-28.490206626234794,0 17.33893173471182,-28.490479354638467,0 17.339008033194204,-28.49083411829986,0 17.339086256225812,-28.491349079096665,0 17.339223597091404,-28.49167902326826,0 17.33925031055344,-28.492148219364765,0 17.339458222119333,-28.492638384054146,0 17.339534534990833,-28.49311901592978,0 17.33964897462056,-28.493448975389867,0 17.339584141594912,-28.49394486876065,0 17.339765354087888,-28.494412148401864,0 17.339877906939876,-28.49473065589501,0 17.339963747229206,-28.49502819569466,0 17.339944671709304,-28.49533716407882,0 17.340165942704118,-28.495815892989015,0 17.34032617131578,-28.49599517283889,0 17.340616109146197,-28.496149656581338,0 17.340776329663925,-28.496285072897763,0 17.341003330239573,-28.49654445626163,0 17.341125400616818,-28.4967256462715,0 17.341262749576288,-28.496998389064345,0 17.341487839991885,-28.497107092818055,0 17.34174915509948,-28.497183383206504,0 17.34208105529649,-28.497475186230815,0 17.342239372848837,-28.49757436436539,0 17.34249306440347,-28.497810867177748,0 17.34297755976661,-28.497913849444558,0 17.343256054623282,-28.498161788935363,0 17.343496393044177,-28.49838683438486,0 17.343752001054042,-28.498701538645037,0 17.34392940132085,-28.49900860406376,0 17.344207896177522,-28.49923174744714,0 17.34453596885993,-28.499374788215846,0 17.344711458966685,-28.49964561365408,0 17.344920912869895,-28.499830826331504,0 17.342985236379604,-28.500151079408738,0 17.335540495597456,-28.50134134922382,0 17.269830987110424,-28.511805795800797,0 17.240862260085294,-28.50397512355306,0 17.14638033398529,-28.517936066795983,0 17.144081627265336,-28.51827509591891,0</coordinates></LinearRing></outerBoundaryIs></Polygon></MultiGeometry></Placemark></Folder><Folder><name>Main Roads</name></Folder><Folder><name>Gates</name><Placemark>
  <name>Richtersveld Park Entrance</name>
  
  <styleUrl>#style_GATES</styleUrl>
  <Point><coordinates>16.9397,-28.291567,0</coordinates></Point>
</Placemark>
<Placemark>
  <name>Helskloof gate</name>
  
  <styleUrl>#style_GATES</styleUrl>
  <Point><coordinates>16.955467,-28.2993,0</coordinates></Point>
</Placemark></Folder><Folder><name>Picnic Spots</name></Folder><Folder><name>Bird Hides</name></Folder><Folder><name>Water Holes</name></Folder><Folder><name>Dams</name></Folder><Folder><name>Waypoints</name><Placemark>
  <name>Turn-off to Gannakouriep</name>
  
  <styleUrl>#style_WAYPOINTS</styleUrl>
  <Point><coordinates>17.103367,-28.307567,0</coordinates></Point>
</Placemark>
<Placemark>
  <name>Turn-off to Hakkiesdoring</name>
  
  <styleUrl>#style_WAYPOINTS</styleUrl>
  <Point><coordinates>17.1718,-28.3947,0</coordinates></Point>
</Placemark>
<Placemark>
  <name>Turn-off to Kokerboomkloof</name>
  
  <styleUrl>#style_WAYPOINTS</styleUrl>
  <Point><coordinates>17.2793,-28.32946700000001,0</coordinates></Point>
</Placemark>
<Placemark>
  <name>Turn-off</name>
  
  <styleUrl>#style_WAYPOINTS</styleUrl>
  <Point><coordinates>16.871217,-28.46565,0</coordinates></Point>
</Placemark>
<Placemark>
  <name>Turn-off to Stofbakkies</name>
  
  <styleUrl>#style_WAYPOINTS</styleUrl>
  <Point><coordinates>16.828117,-28.485467,0</coordinates></Point>
</Placemark>
<Placemark>
  <name>Lekkersing turn-off</name>
  
  <styleUrl>#style_WAYPOINTS</styleUrl>
  <Point><coordinates>16.947817,-28.452483,0</coordinates></Point>
</Placemark>
<Placemark>
  <name>Gannakouriep Hakkiesdoring fork</name>
  
  <styleUrl>#style_WAYPOINTS</styleUrl>
  <Point><coordinates>17.16645,-28.3669,0</coordinates></Point>
</Placemark>
<Placemark>
  <name>R 1</name>
  
  <styleUrl>#style_WAYPOINTS</styleUrl>
  <Point><coordinates>16.935017,-28.11365,0</coordinates></Point>
</Placemark>
<Placemark>
  <name>R 10</name>
  
  <styleUrl>#style_WAYPOINTS</styleUrl>
  <Point><coordinates>17.324567,-28.347117,0</coordinates></Point>
</Placemark>
<Placemark>
  <name>R 11</name>
  
  <styleUrl>#style_WAYPOINTS</styleUrl>
  <Point><coordinates>17.201583,-28.245283,0</coordinates></Point>
</Placemark>
<Placemark>
  <name>R 12</name>
  
  <styleUrl>#style_WAYPOINTS</styleUrl>
  <Point><coordinates>17.220733,-28.254217,0</coordinates></Point>
</Placemark>
<Placemark>
  <name>R 13</name>
  
  <styleUrl>#style_WAYPOINTS</styleUrl>
  <Point><coordinates>17.055117,-28.230667,0</coordinates></Point>
</Placemark>
<Placemark>
  <name>R 14</name>
  
  <styleUrl>#style_WAYPOINTS</styleUrl>
  <Point><coordinates>17.03125,-28.293183,0</coordinates></Point>
</Placemark>
<Placemark>
  <name>R 15</name>
  
  <styleUrl>#style_WAYPOINTS</styleUrl>
  <Point><coordinates>16.9947,-28.2795,0</coordinates></Point>
</Placemark>
<Placemark>
  <name>R 17</name>
  
  <styleUrl>#style_WAYPOINTS</styleUrl>
  <Point><coordinates>17.164833,-28.3455,0</coordinates></Point>
</Placemark>
<Placemark>
  <name>R 18</name>
  
  <styleUrl>#style_WAYPOINTS</styleUrl>
  <Point><coordinates>17.154267,-28.3945,0</coordinates></Point>
</Placemark>
<Placemark>
  <name>R 2</name>
  
  <styleUrl>#style_WAYPOINTS</styleUrl>
  <Point><coordinates>17.009483,-28.12345,0</coordinates></Point>
</Placemark>
<Placemark>
  <name>R 3</name>
  
  <styleUrl>#style_WAYPOINTS</styleUrl>
  <Point><coordinates>17.053517,-28.193033,0</coordinates></Point>
</Placemark>
<Placemark>
  <name>R 4</name>
  
  <styleUrl>#style_WAYPOINTS</styleUrl>
  <Point><coordinates>17.09235,-28.212267,0</coordinates></Point>
</Placemark>
<Placemark>
  <name>R 5</name>
  
  <styleUrl>#style_WAYPOINTS</styleUrl>
  <Point><coordinates>17.124833,-28.18525,0</coordinates></Point>
</Placemark>
<Placemark>
  <name>R 6</name>
  
  <styleUrl>#style_WAYPOINTS</styleUrl>
  <Point><coordinates>17.13665,-28.264183,0</coordinates></Point>
</Placemark>
<Placemark>
  <name>R 7</name>
  
  <styleUrl>#style_WAYPOINTS</styleUrl>
  <Point><coordinates>17.123717,-28.3056,0</coordinates></Point>
</Placemark>
<Placemark>
  <name>R 8</name>
  
  <styleUrl>#style_WAYPOINTS</styleUrl>
  <Point><coordinates>17.1867,-28.324667,0</coordinates></Point>
</Placemark>
<Placemark>
  <name>R 9</name>
  
  <styleUrl>#style_WAYPOINTS</styleUrl>
  <Point><coordinates>17.2347,-28.36538300000001,0</coordinates></Point>
</Placemark></Folder><Folder><name>POI</name><Placemark>
  <name>Aloe Pearsonii</name>
  
  <styleUrl>#style_POI</styleUrl>
  <Point><coordinates>16.9905,-28.332533,0</coordinates></Point>
</Placemark>
<Placemark>
  <name>Basterkokerboom</name>
  
  <styleUrl>#style_POI</styleUrl>
  <Point><coordinates>16.8842,-28.419267,0</coordinates></Point>
</Placemark>
<Placemark>
  <name>Grasdrif ruins</name>
  
  <styleUrl>#style_POI</styleUrl>
  <Point><coordinates>17.38065,-28.335617,0</coordinates></Point>
</Placemark>
<Placemark>
  <name>Halfmensbome</name>
  
  <styleUrl>#style_POI</styleUrl>
  <Point><coordinates>16.982883,-28.138917,0</coordinates></Point>
</Placemark>
<Placemark>
  <name>Hand of God</name>
  
  <styleUrl>#style_POI</styleUrl>
  <Point><coordinates>17.00965,-28.121967,0</coordinates></Point>
</Placemark>
<Placemark>
  <name>Koerdegab Pass</name>
  
  <styleUrl>#style_POI</styleUrl>
  <Point><coordinates>17.043533,-28.275267,0</coordinates></Point>
</Placemark>
<Placemark>
  <name>Kokerboom</name>
  
  <styleUrl>#style_POI</styleUrl>
  <Point><coordinates>17.2497,-28.3366,0</coordinates></Point>
</Placemark>
<Placemark>
  <name>Penkop Pass or Akkedis Pass</name>
  
  <styleUrl>#style_POI</styleUrl>
  <Point><coordinates>17.023967,-28.163867,0</coordinates></Point>
</Placemark>
<Placemark>
  <name>Springbokvlakte</name>
  
  <styleUrl>#style_POI</styleUrl>
  <Point><coordinates>17.26445,-28.33075,0</coordinates></Point>
</Placemark>
<Placemark>
  <name>Kodas Piek</name>
  
  <styleUrl>#style_POI</styleUrl>
  <Point><coordinates>16.99216,-28.22738,0</coordinates></Point>
</Placemark></Folder><Folder><name>Camps</name><Folder><name>Camping Sites</name><Placemark>
  <name>Kokerboomkloof Camp Site</name>
  
  <styleUrl>#style_CAMPS</styleUrl>
  <Point><coordinates>17.291267,-28.307233,0</coordinates></Point>
</Placemark>
<Placemark>
  <name>De Hoop Camp Site</name>
  
  <styleUrl>#style_CAMPS</styleUrl>
  <Point><coordinates>17.178033,-28.183683,0</coordinates></Point>
</Placemark>
<Placemark>
  <name>Richtersburg Camp Site</name>
  
  <styleUrl>#style_CAMPS</styleUrl>
  <Point><coordinates>17.213217,-28.250933,0</coordinates></Point>
</Placemark></Folder><Folder><name>Rest Camps</name><Placemark>
  <name>Kubus Rest Camp and Chalets</name>
  
  <styleUrl>#style_CAMPS</styleUrl>
  <Point><coordinates>16.994633,-28.4399,0</coordinates></Point>
</Placemark>
<Placemark>
  <name>Potjiespram Rest Camp</name>
  
  <styleUrl>#style_CAMPS</styleUrl>
  <Point><coordinates>16.96315,-28.0747,0</coordinates></Point>
</Placemark>
<Placemark>
  <name>Sendlingsdrif Rest Camp</name>
  
  <styleUrl>#style_CAMPS</styleUrl>
  <Point><coordinates>16.8916,-28.12523300000001,0</coordinates></Point>
</Placemark></Folder><Folder><name>Wilderness Camps</name><Placemark>
  <name>Hakkiesdoring Wilderness Camp</name>
  
  <styleUrl>#style_CAMPS</styleUrl>
  <Point><coordinates>17.169133,-28.393683,0</coordinates></Point>
</Placemark>
<Placemark>
  <name>Ganakouriep Wilderness Camp</name>
  
  <styleUrl>#style_CAMPS</styleUrl>
  <Point><coordinates>17.159767,-28.38745,0</coordinates></Point>
</Placemark></Folder></Folder><Folder><name>Other Features (Viewpoints, Lookouts, Pans, Trails - not in the requested category list, kept so no surveyed data is lost)</name></Folder>
</Document>
</kml>