<?xml version="1.0" encoding="UTF-8"?>
<kml xmlns="http://www.opengis.net/kml/2.2">
<Document>
<name>Augrabies Falls National Park</name>
<description>Restructured from source 'My Places.kmz' (folder: Augrabies National Park). Boundary from WDPA (World Database on Protected Areas).</description>
<Style id="style_GATES">
  <IconStyle><scale>0.9</scale><Icon><href>../../icons/gate.png</href></Icon></IconStyle>
  <LabelStyle><scale>0.8</scale></LabelStyle>
</Style>
<Style id="style_CAMPS">
  <IconStyle><scale>0.9</scale><Icon><href>../../icons/camp.png</href></Icon></IconStyle>
  <LabelStyle><scale>0.8</scale></LabelStyle>
</Style>
<Style id="style_PICNIC">
  <IconStyle><scale>0.9</scale><Icon><href>../../icons/picnic.png</href></Icon></IconStyle>
  <LabelStyle><scale>0.8</scale></LabelStyle>
</Style>
<Style id="style_POI">
  <IconStyle><scale>0.9</scale><Icon><href>../../icons/poi.png</href></Icon></IconStyle>
  <LabelStyle><scale>0.8</scale></LabelStyle>
</Style>
<Style id="style_WATER_HOLES">
  <IconStyle><scale>0.9</scale><Icon><href>../../icons/waterhole.png</href></Icon></IconStyle>
  <LabelStyle><scale>0.8</scale></LabelStyle>
</Style>
<Style id="style_BIRD_HIDES">
  <IconStyle><scale>0.9</scale><Icon><href>../../icons/birdhide.png</href></Icon></IconStyle>
  <LabelStyle><scale>0.8</scale></LabelStyle>
</Style>
<Style id="style_OTHER">
  <IconStyle><scale>0.9</scale><Icon><href>../../icons/lookout.png</href></Icon></IconStyle>
  <LabelStyle><scale>0.8</scale></LabelStyle>
</Style>
<Style id="style_DAMS">
  <IconStyle><scale>0.9</scale><Icon><href>http://maps.google.com/mapfiles/kml/paddle/blu-circle.png</href></Icon></IconStyle>
  <LabelStyle><scale>0.8</scale></LabelStyle>
</Style>
<Style id="style_WAYPOINTS">
  <IconStyle><scale>0.9</scale><Icon><href>http://maps.google.com/mapfiles/kml/paddle/wht-blank.png</href></Icon></IconStyle>
  <LabelStyle><scale>0.8</scale></LabelStyle>
</Style>
<Style id="style_MAIN_ROADS">
  <LineStyle><color>ff0055ff</color><width>4</width></LineStyle>
</Style>
<Style id="style_BOUNDARY">
  <LineStyle><color>ff29610d</color><width>3</width></LineStyle>
  <PolyStyle><color>4029610d</color></PolyStyle>
</Style><Folder><name>Boundary</name><Placemark><name>Augrabies Falls National Park Boundary</name><description>Source: WDPA (World Database on Protected Areas), record name "Augrabies Falls National Park". 1 section(s), 1 excluded enclave(s)/hole(s).</description><styleUrl>#style_BOUNDARY</styleUrl><Polygon><outerBoundaryIs><LinearRing><coordinates>20.1427998220542,-28.593656557603992,0 20.142732147170932,-28.59367353590494,0 20.134631050582584,-28.595706673723953,0 20.131635115668075,-28.596417097670894,0 20.126528443133168,-28.595795509654977,0 20.12608980869777,-28.59574234982955,0 20.112374092590358,-28.595249168814064,0 20.108709895745164,-28.59365890573389,0 20.106515746904222,-28.59320304928127,0 20.10648940756016,-28.593223209383552,0 20.097441579365466,-28.591376256409035,0 20.085261386403886,-28.587205505629527,0 20.075879389921965,-28.588062439030296,0 20.06482444759024,-28.5865928119087,0 20.055157846257657,-28.584360532712367,0 20.055127844874164,-28.584353859742805,0 20.04952469710713,-28.583058736171665,0 20.04483877598875,-28.583037632680544,0 20.044403558077818,-28.583035668561195,0 20.039354329738558,-28.5831626474382,0 20.039331951908082,-28.583163155555155,0 20.037006509243042,-28.58321027643308,0 20.016780792399686,-28.580758438551072,0 20.016678422571204,-28.580745687063768,0 20.014238315445937,-28.58044169912506,0 20.004614483171906,-28.576167938199717,0 19.976963998589724,-28.562009320373818,0 19.97436818644269,-28.571050850616245,0 19.956072340965818,-28.49682346013452,0 19.954635935699912,-28.49290211024413,0 19.95460350884491,-28.49282201482407,0 19.953872915802492,-28.491170316356943,0 19.8861226288563,-28.452812162651128,0 19.88403365932595,-28.44461082942621,0 19.88395735274969,-28.44430565078511,0 19.883785659580553,-28.44363428079737,0 19.884853829340784,-28.443372965689775,0 19.886101307729234,-28.44320890956351,0 19.8871370704195,-28.44348545109267,0 19.887896258305716,-28.443773441890812,0 19.889305911438726,-28.444603092558623,0 19.890162387983878,-28.445457539333916,0 19.890725113573183,-28.446186125089582,0 19.891703668589457,-28.447027218731137,0 19.892928284412847,-28.447366704709623,0 19.893893441329283,-28.446895584063896,0 19.89639600816929,-28.446092541637427,0 19.898606254874835,-28.446122146419896,0 19.89924194695834,-28.446130654006424,0 19.901571000401418,-28.446306100046456,0 19.90286810877626,-28.446756222421698,0 19.90411182799852,-28.447110975291253,0 19.905405139435686,-28.447498145123234,0 19.908138592821842,-28.447536270982084,0 19.909180078797647,-28.447452342651445,0 19.910843348841524,-28.447023175379172,0 19.912886231714253,-28.446992611919484,0 19.91475553194232,-28.44691246523803,0 19.916889930725745,-28.446395555610366,0 19.91888318990732,-28.446002613929465,0 19.920847849748498,-28.445201519434534,0 19.923071928027127,-28.444261202692303,0 19.924779129053604,-28.443608884842092,0 19.933208257854858,-28.44059525216909,0 19.936552001074062,-28.439616749313473,0 19.94068735633647,-28.439525120987525,0 19.945125989972496,-28.438834602634756,0 19.950243661216064,-28.437302950170988,0 19.955225876572968,-28.435359344358233,0 19.959412699136806,-28.433410014360618,0 19.962567591021582,-28.431836448093577,0 19.963935216137372,-28.431046803766947,0 19.96797897365076,-28.429110843090882,0 19.97090498537682,-28.428042712001513,0 19.97348002408387,-28.427161514891964,0 19.976091324355195,-28.426955482909193,0 19.979425570733554,-28.427226270575886,0 19.982450774983306,-28.426890531173058,0 19.983642946864563,-28.426934379418014,0 19.98348844783368,-28.42754661538396,0 19.98258865094556,-28.431100454622253,0 19.984181801748775,-28.431520590902494,0 19.98508706381699,-28.431820012083847,0 19.985854687343988,-28.432715702667508,0 19.98692693822767,-28.434047624698053,0 19.987647165684223,-28.43511212342571,0 19.988367626065155,-28.434353795291372,0 19.989429986204925,-28.43293077013891,0 19.995053971263815,-28.43325367441747,0 19.996395889258906,-28.43357905812701,0 19.995473428555954,-28.436794686625433,0 19.9943125395921,-28.443575350022343,0 19.98789859544388,-28.44799096461128,0 20.000681880964066,-28.459178088398005,0 20.00145935926207,-28.459373106383737,0 20.005835084421676,-28.460515491796457,0 20.018357645688866,-28.463948384810067,0 20.025762887347412,-28.448472304253414,0 20.027712307277227,-28.448577741669396,0 20.033841596212767,-28.45127765124255,0 20.035384571141094,-28.45168668809015,0 20.037275215878537,-28.453284316617896,0 20.037176704141643,-28.45376805655053,0 20.04111815567842,-28.45480303413268,0 20.041075513424232,-28.455738946894826,0 20.042681865375812,-28.45711612101212,0 20.043305050587662,-28.45636453599451,0 20.043688444166435,-28.456354995086883,0 20.044140512674574,-28.45617760201469,0 20.044314087225416,-28.455962082184328,0 20.04477185383803,-28.45507709533166,0 20.04519146491424,-28.454094833309853,0 20.045387925412456,-28.453888839997944,0 20.046017377999647,-28.453225093563162,0 20.045904862919144,-28.45444957358893,0 20.045672216399737,-28.457018681267073,0 20.049550092163088,-28.458044724084687,0 20.052679805728474,-28.459056380447578,0 20.051766367923562,-28.45984652569655,0 20.055457684724445,-28.461083714941424,0 20.056445428114046,-28.461247844812135,0 20.057198922392388,-28.46130142911761,0 20.05781500116143,-28.461205270007156,0 20.058006682662324,-28.461245754787683,0 20.058378694421265,-28.461340004637464,0 20.058422646987594,-28.46134657238639,0 20.058566705788905,-28.46138308216348,0 20.05905809085823,-28.461507608589216,0 20.06001876375501,-28.461835914196058,0 20.060239360258322,-28.46192035963685,0 20.061044243596996,-28.46225940404821,0 20.06238675874198,-28.46269238984189,0 20.063051478243153,-28.463123931324333,0 20.063492117267458,-28.46346108805875,0 20.063430273588324,-28.46352815230233,0 20.063425023346213,-28.463534031170582,0 20.065609126759853,-28.464489098592992,0 20.061376726554727,-28.474580615203195,0 20.07921939555871,-28.478983277756015,0 20.07938993579694,-28.480524200431432,0 20.090300556725367,-28.479266761152076,0 20.091522108558536,-28.470464730263075,0 20.0919683440639,-28.470582322915845,0 20.096345543212294,-28.47173335800801,0 20.09684515168243,-28.474048481851923,0 20.1002833623873,-28.474008025849685,0 20.100410307989364,-28.47401104397443,0 20.100664523848764,-28.474158293570326,0 20.104466093935116,-28.476149441143775,0 20.10495251384748,-28.476403094926866,0 20.105667814817878,-28.476620508729468,0 20.108868532556755,-28.47758935106765,0 20.114000492228968,-28.47977948983157,0 20.114857052411082,-28.47903957261815,0 20.116328660739157,-28.4807972498931,0 20.120511842847293,-28.48579234084383,0 20.122354572605502,-28.490804655610305,0 20.131481739890432,-28.491796242702378,0 20.136059713584984,-28.495492470700924,0 20.137383483261203,-28.495910150033353,0 20.140099749703722,-28.497977581700013,0 20.143372989671775,-28.500378782354858,0 20.14496187858788,-28.499762705384512,0 20.14683872232922,-28.49627996564783,0 20.146993221360106,-28.49599386342601,0 20.147647493437148,-28.4963447905796,0 20.147525422160527,-28.496731973901433,0 20.146386766236333,-28.500336762431573,0 20.14690752406301,-28.50134189601164,0 20.150932312176508,-28.50378122522335,0 20.15156181062912,-28.505406218322264,0 20.157495922398937,-28.506910938788735,0 20.16025034527729,-28.509117620581662,0 20.16240191481654,-28.507532619434812,0 20.16840957584128,-28.511484575952352,0 20.17159595928615,-28.513580442383443,0 20.174039437070405,-28.515785223009573,0 20.177007431847528,-28.516605303092206,0 20.176935979811674,-28.51667849261827,0 20.176738837627283,-28.51857123457478,0 20.17866368358216,-28.518017234207946,0 20.18022706682575,-28.51908038485186,0 20.182994326626897,-28.520398440235795,0 20.18374725163443,-28.525272126307527,0 20.185758994581988,-28.52618354963107,0 20.19227486069633,-28.526105221378828,0 20.19501387099342,-28.522246720609644,0 20.194891709784656,-28.518819332346254,0 20.200196367168644,-28.519742356024892,0 20.20536177442642,-28.519021303890042,0 20.204434459183005,-28.524906855866675,0 20.212969243036184,-28.527045140620714,0 20.213136696801143,-28.524392082128827,0 20.22075086895751,-28.52562970484695,0 20.22075128084697,-28.525630229151716,0 20.21989278442453,-28.530091247812777,0 20.222257767581937,-28.530983744903835,0 20.22664116215998,-28.52777759795771,0 20.223620360990935,-28.535732625760033,0 20.23818567742711,-28.536747029551748,0 20.23941006842,-28.52579918208653,0 20.239414229583076,-28.525762254124686,0 20.239457749575536,-28.525375758784207,0 20.240760520981325,-28.52468911201288,0 20.241840133715243,-28.524303822663228,0 20.24387345859327,-28.52339782225164,0 20.245258279645952,-28.52441056499555,0 20.2453174271576,-28.52508193408397,0 20.24547665212583,-28.525388528257906,0 20.245470219275262,-28.5222788398965,0 20.245468047412487,-28.521231109028406,0 20.248117519408027,-28.52208553242133,0 20.248365502965612,-28.522989580404783,0 20.248346436438965,-28.523823064882492,0 20.249811389783872,-28.52622622156281,0 20.250400820741334,-28.52845201574786,0 20.25160257939558,-28.53216167332255,0 20.251827691394908,-28.533420483168698,0 20.25091977542735,-28.535154224987423,0 20.251940327883858,-28.53794839340361,0 20.252764368580813,-28.53841947537842,0 20.25408625058003,-28.53930443165416,0 20.255652320098534,-28.541242212558018,0 20.25790885940637,-28.54201273010335,0 20.26194694669431,-28.542190049431213,0 20.269519538695818,-28.541489950600692,0 20.27289193431534,-28.54183511309992,0 20.27577985885347,-28.542857359879235,0 20.279610051662587,-28.54357632918419,0 20.28471822606531,-28.54407024584515,0 20.28850263079181,-28.544209415032412,0 20.290289926339085,-28.545081010979857,0 20.292588424416294,-28.545695120233574,0 20.292756373707732,-28.54979579493994,0 20.292149859228687,-28.552979084716924,0 20.29186568785127,-28.554598371617487,0 20.293179968780578,-28.556448440742884,0 20.295339231120693,-28.557320031294353,0 20.298087878552792,-28.557609886387127,0 20.299836659734126,-28.557336484391215,0 20.30224802542608,-28.556959440925425,0 20.30320176994576,-28.557447704447952,0 20.303819802042256,-28.558243031590564,0 20.304441676042586,-28.561536919992818,0 20.305168435275107,-28.563711240581256,0 20.304754539390558,-28.567308421746247,0 20.305296294588402,-28.571082970802422,0 20.30558630076723,-28.57442644332565,0 20.305635907371254,-28.575668088711268,0 20.304714613988267,-28.576230763039234,0 20.30180385836144,-28.57680108340321,0 20.30064224094673,-28.578328839104586,0 20.299795349375927,-28.579667782142394,0 20.30067664541093,-28.58194698166784,0 20.301306135769607,-28.584067876231472,0 20.302198837006756,-28.58495094572953,0 20.306782458443763,-28.585164480756134,0 20.31034941969,-28.58588919493036,0 20.31317627576459,-28.586507100222434,0 20.31625492942152,-28.58710786263771,0 20.31853242742966,-28.587981354355975,0 20.319716968563284,-28.588761412808935,0 20.325929529324355,-28.587914469976738,0 20.328472155565578,-28.587014182958114,0 20.3298188255784,-28.587038963777104,0 20.331800717329315,-28.58827102958429,0 20.33275446904355,-28.588879439834216,0 20.33334959990418,-28.588848915045332,0 20.33360517823644,-28.58752142937044,0 20.335657354703187,-28.570382431304097,0 20.336092167919276,-28.564605245835367,0 20.336812425952758,-28.52290426442022,0 20.340005137027504,-28.501191651673366,0 20.342992363806616,-28.40788934741539,0 20.374689445061904,-28.446097522982257,0 20.39162964619129,-28.449705919592475,0 20.39991747261331,-28.556727011142584,0 20.40189787418757,-28.582286697872746,0 20.392728677986156,-28.58065607321913,0 20.375303794434615,-28.568236013980822,0 20.375372677107407,-28.58176066102567,0 20.375314345280856,-28.620991863083987,0 20.375320073962314,-28.62155452122414,0 20.375324134401353,-28.62301513803817,0 20.375326641711183,-28.62391523080322,0 20.374721168647056,-28.62373648155335,0 20.3742881747595,-28.623601073330804,0 20.373847550124367,-28.623309262212615,0 20.373446975897252,-28.623114719968328,0 20.37288807782261,-28.622843893630716,0 20.372235727596774,-28.62263410338113,0 20.37176075965141,-28.62251966465078,0 20.37100540827305,-28.622477710378007,0 20.37036258636431,-28.622365194398185,0 20.369649188359404,-28.62213441936791,0 20.36927150097904,-28.621955140417356,0 20.36883659783075,-28.62173009406854,0 20.368516134312188,-28.621594670557556,0 20.36818614517449,-28.62138678237409,0 20.367835164061603,-28.621064453661575,0 20.36750516683003,-28.620646759939973,0 20.367222859747244,-28.620309168833046,0 20.366934816788387,-28.619832349183525,0 20.36673452967483,-28.619435633048,0 20.36636828616753,-28.618911131343566,0 20.366045920582792,-28.618661282592086,0 20.365923834017792,-28.618394260386765,0 20.36591619427702,-28.618043324239977,0 20.36590855543551,-28.617617991676923,0 20.36573877962104,-28.61703054372458,0 20.365538486212245,-28.61649650021326,0 20.365324845065572,-28.61600061403709,0 20.365185586845428,-28.615657294248706,0 20.364920445122493,-28.61502217143601,0 20.364619049029955,-28.614335539053855,0 20.364170776560115,-28.613450557597105,0 20.363785458432233,-28.612765851562756,0 20.363503136960276,-28.612235620277602,0 20.363154058812825,-28.611678691718225,0 20.36273249440916,-28.611032125032523,0 20.362343355061853,-28.610219631630628,0 20.3620972879595,-28.60985342499555,0 20.362093476632708,-28.60984007186181,0 20.362080116304355,-28.60963790516513,0 20.362003816922652,-28.60937279401918,0 20.361990456594356,-28.609031382592207,0 20.361862649441775,-28.6087662714462,0 20.361752006749782,-28.608558376068174,0 20.361704315701672,-28.608245573874115,0 20.36165090406604,-28.608047219403602,0 20.361536456342435,-28.607860299812955,0 20.361366686823203,-28.607648593108024,0 20.361267495198774,-28.60744450905679,0 20.361240788931298,-28.607280498795944,0 20.36106719279678,-28.607122181243653,0 20.36097373794769,-28.606954344367466,0 20.360739796404516,-28.606537055340766,0 20.360735287203795,-28.60652901899897,0 20.35943823009029,-28.607806933143422,0 20.354314875131422,-28.61282322471203,0 20.354349257112574,-28.615111980433483,0 20.354108955563902,-28.61724052912706,0 20.352188176343304,-28.61903915613209,0 20.346206465256216,-28.624597122858916,0 20.34607294920727,-28.62440258061457,0 20.345887918192943,-28.624135565603808,0 20.345681909592486,-28.623881889337667,0 20.3455941609418,-28.623801793917607,0 20.34547970602364,-28.623645392820606,0 20.345466360084515,-28.623525231704036,0 20.345435828101017,-28.623336410946536,0 20.34541485141432,-28.62325821759265,0 20.345336635577326,-28.62304650189452,0 20.345195474391687,-28.622695565747733,0 20.345077207247357,-28.622369410419935,0 20.344928415314143,-28.62216152313573,0 20.344674716564953,-28.621827737060357,0 20.344482053903732,-28.621558819983534,0 20.3442855862109,-28.62124602678267,0 20.34402807613486,-28.620942763697542,0 20.343741949631294,-28.62056703234265,0 20.343469169066964,-28.62015887233406,0 20.343257438979663,-28.619811754708678,0 20.343091473592665,-28.619519930100637,0 20.34279962740095,-28.61920714319507,0 20.34267373580434,-28.619003059143836,0 20.342580265666754,-28.618861920441248,0 20.34226553082965,-28.618501450581448,0 20.34191455061608,-28.618167678895247,0 20.34151778861508,-28.61776524127282,0 20.341269802359534,-28.617543999955615,0 20.340874960411156,-28.61714156143387,0 20.34050871420584,-28.616922229377337,0 20.34024166412155,-28.616720062680713,0 20.34014820027926,-28.61654459505695,0 20.340131028624114,-28.616365299918584,0 20.341605455427498,-28.614559071843644,0 20.341553959347777,-28.61445226296155,0 20.341500548611464,-28.614335921265706,0 20.341471925888698,-28.6140765316066,0 20.34162642491964,-28.6137046025853,0 20.34163023624643,-28.613508149281643,0 20.34162450666571,-28.61311334330611,0 20.34156727560935,-28.612686100583005,0 20.341389875342543,-28.61233898475632,0 20.34133263709157,-28.61199757422861,0 20.34142801738915,-28.611856434626702,0 20.341355531132933,-28.61157223357168,0 20.34134217080458,-28.611377705716507,0 20.341080840408495,-28.610914232006166,0 20.340819494723974,-28.61038972940247,0 20.340623028829782,-28.610290553066534,0 20.340396035448748,-28.610149412565306,0 20.340159509254022,-28.609943436340473,0 20.33999928064236,-28.6097259991555,0 20.33962731564816,-28.609365521201823,0 20.339264890662207,-28.60911758171096,0 20.338965419118836,-28.608825770592773,0 20.338892924768686,-28.608783802830203,0 20.33878992811276,-28.608553035893863,0 20.33864685766639,-28.6082268958545,0 20.338438939805258,-28.607984662562103,0 20.338190969737525,-28.607780594698625,0 20.3380955984332,-28.60765852342206,0 20.337946804701346,-28.607593682302536,0 20.33783617729779,-28.60739151560591,0 20.337838079363905,-28.6070634519167,0 20.33777321755997,-28.606832668792606,0 20.337695008917592,-28.606611421180105,0 20.337670204716233,-28.606355850042405,0 20.337593899039234,-28.60599918521416,0 20.337519510716902,-28.60573598242962,0 20.337504248322432,-28.605520455404644,0 20.337385973983544,-28.605318280614142,0 20.337302044753585,-28.605114205556106,0 20.33720475339669,-28.60477661444918,0 20.337099846580713,-28.60438753625573,0 20.336910997044924,-28.604151033443372,0 20.336651584003448,-28.60404995324268,0 20.33655815883202,-28.60403425557638,0 20.33642459871629,-28.604011810296754,0 20.33632159396643,-28.604040420428987,0 20.330429548884638,-28.60780364612134,0 20.329655138174132,-28.60829765181512,0 20.329248850554052,-28.608557043272867,0 20.3272154483343,-28.605400511024698,0 20.319091543140246,-28.60355247076984,0 20.318834056446576,-28.604424112582706,0 20.318832904415046,-28.60442394800674,0 20.318833854099125,-28.60442576823459,0 20.31743566462427,-28.609154009649785,0 20.307674947440944,-28.605202155654922,0 20.303168173072777,-28.602746823007408,0 20.299777736153658,-28.60189044358907,0 20.282122885163062,-28.600166445025366,0 20.22962672519327,-28.584211635558518,0 20.22957412294744,-28.58419790111219,0 20.225172118698367,-28.592180780018964,0 20.20567216643741,-28.586191279004254,0 20.210128333256023,-28.594270555341836,0 20.210426357790254,-28.59492589311543,0 20.210618383731457,-28.595442648059702,0 20.215230246578642,-28.609382066029468,0 20.212694981288394,-28.613818087134973,0 20.19764499681918,-28.613025582964212,0 20.196887671428954,-28.613360058819637,0 20.19016552781693,-28.608984621443085,0 20.18711301655253,-28.607712813695343,0 20.177944757444664,-28.607179897034598,0 20.17506642777346,-28.605965084720822,0 20.154305608916786,-28.595389588058993,0 20.14671482003297,-28.592946746994755,0 20.14460961414244,-28.593207974868108,0 20.1427998220542,-28.593656557603992,0</coordinates></LinearRing></outerBoundaryIs><innerBoundaryIs><LinearRing><coordinates>20.146546933694083,-28.49816245443367,0 20.146228394724687,-28.498074713876917,0 20.14557225655443,-28.499629183040327,0 20.14596138870718,-28.49972072143413,0 20.146546933694083,-28.49816245443367,0</coordinates></LinearRing></innerBoundaryIs></Polygon></Placemark></Folder><Folder><name>Main Roads</name></Folder><Folder><name>Gates</name><Placemark>
  <name>Main Entrance Gate</name>
  
  <styleUrl>#style_GATES</styleUrl>
  <Point><coordinates>20.34923747859411,-28.6174812413253,0</coordinates></Point>
</Placemark></Folder><Folder><name>Picnic Spots</name></Folder><Folder><name>Bird Hides</name></Folder><Folder><name>Water Holes</name></Folder><Folder><name>Dams</name></Folder><Folder><name>Waypoints</name></Folder><Folder><name>POI</name></Folder><Folder><name>Camps</name><Folder><name>Rest Camps</name><Placemark>
  <name>Main Camp</name>
  
  <styleUrl>#style_CAMPS</styleUrl>
  <Point><coordinates>20.33771431552403,-28.59382276896687,0</coordinates></Point>
</Placemark></Folder></Folder><Folder><name>Other Features (Viewpoints, Lookouts, Pans, Trails - not in the requested category list, kept so no surveyed data is lost)</name><Placemark>
  <name>Augrabies Falls National Park</name>
  
  <styleUrl>#style_OTHER</styleUrl>
  <Point><coordinates>20.30856696002437,-28.57349911662735,0</coordinates></Point>
</Placemark></Folder>
</Document>
</kml>