<?xml version="1.0" encoding="UTF-8"?>
<kml xmlns="http://www.opengis.net/kml/2.2">
<Document>
<name>Bontebok National Park</name>
<description>Restructured from source 'My Places.kmz' (folder: Bontebok National Park). Boundary from WDPA (World Database on Protected Areas).</description>
<Style id="style_GATES">
  <IconStyle><scale>0.9</scale><Icon><href>../../icons/gate.png</href></Icon></IconStyle>
  <LabelStyle><scale>0.8</scale></LabelStyle>
</Style>
<Style id="style_CAMPS">
  <IconStyle><scale>0.9</scale><Icon><href>../../icons/camp.png</href></Icon></IconStyle>
  <LabelStyle><scale>0.8</scale></LabelStyle>
</Style>
<Style id="style_PICNIC">
  <IconStyle><scale>0.9</scale><Icon><href>../../icons/picnic.png</href></Icon></IconStyle>
  <LabelStyle><scale>0.8</scale></LabelStyle>
</Style>
<Style id="style_POI">
  <IconStyle><scale>0.9</scale><Icon><href>../../icons/poi.png</href></Icon></IconStyle>
  <LabelStyle><scale>0.8</scale></LabelStyle>
</Style>
<Style id="style_WATER_HOLES">
  <IconStyle><scale>0.9</scale><Icon><href>../../icons/waterhole.png</href></Icon></IconStyle>
  <LabelStyle><scale>0.8</scale></LabelStyle>
</Style>
<Style id="style_BIRD_HIDES">
  <IconStyle><scale>0.9</scale><Icon><href>../../icons/birdhide.png</href></Icon></IconStyle>
  <LabelStyle><scale>0.8</scale></LabelStyle>
</Style>
<Style id="style_OTHER">
  <IconStyle><scale>0.9</scale><Icon><href>../../icons/lookout.png</href></Icon></IconStyle>
  <LabelStyle><scale>0.8</scale></LabelStyle>
</Style>
<Style id="style_DAMS">
  <IconStyle><scale>0.9</scale><Icon><href>http://maps.google.com/mapfiles/kml/paddle/blu-circle.png</href></Icon></IconStyle>
  <LabelStyle><scale>0.8</scale></LabelStyle>
</Style>
<Style id="style_WAYPOINTS">
  <IconStyle><scale>0.9</scale><Icon><href>http://maps.google.com/mapfiles/kml/paddle/wht-blank.png</href></Icon></IconStyle>
  <LabelStyle><scale>0.8</scale></LabelStyle>
</Style>
<Style id="style_MAIN_ROADS">
  <LineStyle><color>ff0055ff</color><width>4</width></LineStyle>
</Style>
<Style id="style_BOUNDARY">
  <LineStyle><color>ff29610d</color><width>3</width></LineStyle>
  <PolyStyle><color>4029610d</color></PolyStyle>
</Style><Folder><name>Boundary</name><Placemark><name>Bontebok National Park Boundary</name><description>Source: WDPA (World Database on Protected Areas), record name "Bontebok National Park". 1 section(s), 0 excluded enclave(s)/hole(s).</description><styleUrl>#style_BOUNDARY</styleUrl><Polygon><outerBoundaryIs><LinearRing><coordinates>20.46171170613036,-34.04085145602983,0 20.468689773414383,-34.04719500034895,0 20.47246830736657,-34.05054300365663,0 20.47184235224279,-34.051266743865085,0 20.47282325808692,-34.05208025619885,0 20.476776548299142,-34.04891666966853,0 20.478269165689483,-34.050564496554216,0 20.48051523958668,-34.04980239036797,0 20.483373409155547,-34.04730282726365,0 20.48716094532142,-34.04802004468928,0 20.491848647996733,-34.04838248406435,0 20.491902037149373,-34.048386302585754,0 20.50007022496095,-34.048580884400224,0 20.50357549901014,-34.048245240325514,0 20.503577176245756,-34.048245074850286,0 20.50384593504191,-34.04843771592783,0 20.505067067791003,-34.049312997296965,0 20.505278011870814,-34.04959388075292,0 20.505678503360286,-34.05012713016288,0 20.5075145070889,-34.053599399992265,0 20.507918782026195,-34.05406222169415,0 20.508563977245785,-34.05439697544,0 20.509137300446127,-34.05448610904665,0 20.50976774768344,-34.05441992883658,0 20.51057856474904,-34.05425187522383,0 20.511247965221457,-34.05428111937812,0 20.511836977994164,-34.054306858874384,0 20.51142505792012,-34.05621770238503,0 20.510784206426024,-34.059440968825584,0 20.51746281835443,-34.06582274422425,0 20.517463146606985,-34.0658231714022,0 20.51602540225059,-34.06820243759239,0 20.51411933683795,-34.070309418744614,0 20.51269049576979,-34.0719189102295,0 20.51054066282137,-34.07237376483732,0 20.50967401674251,-34.07476394340125,0 20.50950150698901,-34.076533070844505,0 20.509329445997196,-34.07691754271036,0 20.509016216625128,-34.0776174760656,0 20.5088458562513,-34.07799815908771,0 20.508844379564493,-34.07799856288335,0 20.507959461060352,-34.078246487984984,0 20.502527962395618,-34.079447968748696,0 20.50129594784977,-34.07977981588573,0 20.493907727659575,-34.081465702979756,0 20.49099618512588,-34.08216462459768,0 20.490984120720668,-34.08216752311267,0 20.490978473877533,-34.08217462326019,0 20.489757805178613,-34.08370857978707,0 20.490425228941206,-34.08802663861843,0 20.486751967829093,-34.09015729981951,0 20.4848850705896,-34.08847078409934,0 20.474433916891826,-34.0921799686306,0 20.472467334300063,-34.09489272322054,0 20.465756856693645,-34.09172541439631,0 20.46538835139137,-34.092206885339465,0 20.46536164512389,-34.09218780981951,0 20.46408769968764,-34.09137147541321,0 20.463021636139672,-34.090486487661224,0 20.461862138427023,-34.08944891913228,0 20.46185069455396,-34.08942603318485,0 20.461382756608998,-34.08990123495397,0 20.46042516389025,-34.0892308614151,0 20.459251047697762,-34.08866854681594,0 20.45860610608696,-34.08856930932615,0 20.457498126037763,-34.08851968023902,0 20.456555503433776,-34.08860236570655,0 20.455596353089277,-34.088585822677544,0 20.45420723417658,-34.08855272942486,0 20.45280159381855,-34.08805656535816,0 20.450817147993064,-34.0873950132692,0 20.449461116037753,-34.08661768875527,0 20.447575907702003,-34.08524498606721,0 20.446848280623726,-34.084517290640406,0 20.446633307581124,-34.083806139141984,0 20.446600252099984,-34.08304537294555,0 20.44666639363919,-34.082714612189534,0 20.447212134632366,-34.08145769721489,0 20.44755942492759,-34.08064731632055,0 20.448022465164684,-34.07996924368558,0 20.448733570797685,-34.07930772217361,0 20.449758879768524,-34.07848080544477,0 20.450122704099556,-34.07803427855907,0 20.4509991770704,-34.07763736007604,0 20.452094711401855,-34.076986353437405,0 20.451810030108845,-34.07686459602422,0 20.45200454987014,-34.07678449970484,0 20.452001609986382,-34.07676685320769,0 20.4501202588429,-34.076000333148784,0 20.447994562798897,-34.07488169703265,0 20.445876865325147,-34.07426399318871,0 20.442334984372053,-34.073324768223415,0 20.438803883592414,-34.07415629667571,0 20.435974175767626,-34.07418691679271,0 20.435122879317476,-34.072880102035015,0 20.432392527693025,-34.075726734201396,0 20.431805187659336,-34.074797851439655,0 20.43201456691878,-34.073809100809285,0 20.432282482150868,-34.07270320808652,0 20.433069131735067,-34.07122547537534,0 20.43312738981723,-34.07112150925019,0 20.43371848991643,-34.07047315111498,0 20.434268109685547,-34.070146699010934,0 20.43404707521239,-34.07012776468457,0 20.433394832005945,-34.07051682758947,0 20.432803603303682,-34.071165281052856,0 20.43274448367106,-34.07126827770878,0 20.431958703731254,-34.07274449416303,0 20.431689795647628,-34.0738506926553,0 20.43147999820343,-34.074842473101626,0 20.431283312874655,-34.073916812610776,0 20.43109583300634,-34.07303445537576,0 20.431095144125663,-34.073037645271086,0 20.43094601404738,-34.073728614184176,0 20.430600814675927,-34.074457184651294,0 20.430539778587956,-34.075422259729464,0 20.430680894807494,-34.07641404017579,0 20.430530215197336,-34.07724942042438,0 20.42940882175975,-34.0785081996936,0 20.428419010828748,-34.07924056799777,0 20.42762755526752,-34.07981273017333,0 20.426786497598812,-34.08050313701011,0 20.425697510331872,-34.08115539460573,0 20.424660023641252,-34.081765698827894,0 20.42411648418846,-34.08196785023608,0 20.42376938994545,-34.082253931773494,0 20.422930236141553,-34.0825743431314,0 20.42223794162777,-34.083024434030335,0 20.421394975597707,-34.08371484806173,0 20.42065499902901,-34.08395896093725,0 20.419695704793014,-34.08423740273389,0 20.419381015821273,-34.08425646296536,0 20.41909877708696,-34.08422976389244,0 20.41803269735118,-34.08402756032359,0 20.417266021709565,-34.08381393626411,0 20.416733948612887,-34.083562162064084,0 20.416016873280114,-34.08299758567,0 20.415345577936137,-34.08273436759697,0 20.41468761414211,-34.08250928527525,0 20.41412501535723,-34.08225751107523,0 20.4137817477295,-34.08190655963995,0 20.413657781581378,-34.081589946119095,0 20.413552905342385,-34.0811321938956,0 20.413142895428336,-34.079911526096,0 20.41299988523656,-34.07897314919143,0 20.413737966933695,-34.07778684088993,0 20.41418616296113,-34.07671879883344,0 20.414094647050376,-34.075658350652304,0 20.414502784575916,-34.074758139176765,0 20.41510163773046,-34.07365957233134,0 20.415647101732418,-34.07258006481811,0 20.416047622899555,-34.071203032793676,0 20.415847404134468,-34.07012351089128,0 20.41581118663703,-34.06900586223071,0 20.415847449100568,-34.06833831885831,0 20.415145665839873,-34.06714056038851,0 20.414081525941697,-34.06601525040344,0 20.41422646158196,-34.06576731810719,0 20.414610365076328,-34.06527033026151,0 20.415093954822225,-34.06563011124058,0 20.41663972934009,-34.06415650102167,0 20.41751867184928,-34.06328250838101,0 20.418312495325438,-34.06243188012712,0 20.419432802381948,-34.06097552520026,0 20.419724591017086,-34.06105102238672,0 20.419822815870305,-34.06095021018399,0 20.41975790280503,-34.06093346210952,0 20.420557589860948,-34.05999840730061,0 20.422926452693673,-34.057229392922125,0 20.422564673420993,-34.05689211208124,0 20.425741388254494,-34.0554683261023,0 20.427086793820536,-34.05406614723489,0 20.427972289689478,-34.05373466702122,0 20.43128303588344,-34.05385106087772,0 20.43165601980951,-34.052804184365584,0 20.435079183957214,-34.0479063982616,0 20.44130086564246,-34.0503062076653,0 20.443234160727968,-34.049773790128256,0 20.453506648812834,-34.04099050470796,0 20.453080987097906,-34.04157730784641,0 20.45288293210166,-34.04216006043839,0 20.454442066947877,-34.04216607420494,0 20.454139032290584,-34.041420756562616,0 20.453711632186128,-34.04108650733639,0 20.458625436115028,-34.04091726931648,0 20.460246318412942,-34.04086143940384,0 20.46171170613036,-34.04085145602983,0</coordinates></LinearRing></outerBoundaryIs></Polygon></Placemark></Folder><Folder><name>Main Roads</name></Folder><Folder><name>Gates</name><Placemark>
  <name>Main Entrance</name>
  
  <styleUrl>#style_GATES</styleUrl>
  <Point><coordinates>20.42944578336203,-34.05374580732876,0</coordinates></Point>
</Placemark></Folder><Folder><name>Picnic Spots</name><Placemark>
  <name>Die Stroom</name>
  
  <styleUrl>#style_PICNIC</styleUrl>
  <Point><coordinates>20.43034578864333,-34.07614541044493,0</coordinates></Point>
</Placemark></Folder><Folder><name>Bird Hides</name></Folder><Folder><name>Water Holes</name></Folder><Folder><name>Dams</name></Folder><Folder><name>Waypoints</name></Folder><Folder><name>POI</name><Placemark>
  <name>Old Reception</name>
  
  <styleUrl>#style_POI</styleUrl>
  <Point><coordinates>20.4729327264729,-34.0555143399658,0</coordinates></Point>
</Placemark></Folder><Folder><name>Camps</name><Placemark>
  <name>Reception</name>
  
  <styleUrl>#style_CAMPS</styleUrl>
  <Point><coordinates>20.43054865795977,-34.05925371606635,0</coordinates></Point>
</Placemark>
<Placemark>
  <name>Lang Elsie's Kraal Rest Camp</name>
  
  <styleUrl>#style_CAMPS</styleUrl>
  <Point><coordinates>20.45467270700047,-34.07571948929523,0</coordinates></Point>
</Placemark></Folder><Folder><name>Other Features (Viewpoints, Lookouts, Pans, Trails - not in the requested category list, kept so no surveyed data is lost)</name><Placemark>
  <name>Bontebok National Park</name>
  
  <styleUrl>#style_OTHER</styleUrl>
  <Point><coordinates>20.46470325295076,-34.07258661616832,0</coordinates></Point>
</Placemark>
<Placemark>
  <name>Lookout</name>
  
  <styleUrl>#style_OTHER</styleUrl>
  <Point><coordinates>20.45838713681872,-34.05766553036465,0</coordinates></Point>
</Placemark>
<Placemark>
  <name>Lookout</name>
  
  <styleUrl>#style_OTHER</styleUrl>
  <Point><coordinates>20.46145830945278,-34.05800002734914,0</coordinates></Point>
</Placemark>
<Placemark>
  <name>Viewing Deck</name>
  
  <styleUrl>#style_OTHER</styleUrl>
  <Point><coordinates>20.43985172202628,-34.07220213560102,0</coordinates></Point>
</Placemark>
<Placemark>
  <name>Lookout</name>
  
  <styleUrl>#style_OTHER</styleUrl>
  <Point><coordinates>20.45289906432198,-34.08077135835346,0</coordinates></Point>
</Placemark>
<Placemark>
  <name>Boundary</name>
  
  <styleUrl>#style_OTHER</styleUrl>
  <LineString><tessellate>1</tessellate><coordinates>20.43184290459392,-34.07400114305355,0 20.43252605548446,-34.07367890095279,0 20.43290099831833,-34.07354859251283,0 20.43359717078291,-34.07337580121829,0 20.43509077428313,-34.07285779630546,0 20.43593982004707,-34.07421667495092,0 20.43879904819146,-34.07417378860934,0 20.44033161404755,-34.07347181192741,0 20.44238221632733,-34.07336746824913,0 20.44788327022216,-34.07485782838744,0 20.44991819667512,-34.07598390141269,0 20.45163968438815,-34.07697178085474,0 20.45189843782462,-34.0771477990566,0 20.44996830377506,-34.07845265658247,0 20.44872187245588,-34.07938008321685,0 20.44736387925495,-34.08078501210304,0 20.44670178865934,-34.08246938882517,0 20.4466596731428,-34.08396025889439,0 20.44716077583556,-34.08488596424582,0 20.44897263277479,-34.08603188610405,0 20.45065443785948,-34.08724166548965,0 20.45287328287359,-34.08860359831612,0 20.45511152951198,-34.08874869171759,0 20.45846438672922,-34.08942219533071,0 20.46021221170479,-34.08972078573449,0 20.46087421650515,-34.09025263035092,0 20.4611811838618,-34.09005918876981,0 20.46184295598996,-34.08947047203813,0 20.46248473953849,-34.08877976353332,0 20.46353446596817,-34.08941327911421,0 20.4644141801403,-34.08969924496933,0 20.46483857992783,-34.089960720458,0 20.46995673610091,-34.09350268436207,0 20.47269268120972,-34.09477059689636,0 20.47461312384955,-34.09217214095456,0 20.48520985536136,-34.08839671540593,0 20.48706504060261,-34.09006993112292,0 20.49066648873722,-34.08779162119207,0 20.49008184426874,-34.08357733902143,0 20.49131728911233,-34.08208638865742,0 20.50926258910954,-34.07799968252409,0 20.51017890703956,-34.07619850979626,0 20.51027996752428,-34.0746155780753,0 20.51102468049447,-34.07234286630924,0 20.51313824270104,-34.07189026646557,0 20.516538354838,-34.06813754525449,0 20.51788815480576,-34.06587652878982,0 20.51106721471297,-34.0594103456781,0 20.51214195608126,-34.05409197136289,0 20.51525229486916,-34.05168154432364,0 20.51362899187818,-34.0511670768955,0 20.51325611790792,-34.05110577132665,0 20.51273311097455,-34.0511528510681,0 20.51203933415614,-34.05125262356093,0 20.5118019397809,-34.05132228869673,0 20.51092943637518,-34.0516662519826,0 20.51079106039446,-34.05173392164992,0 20.51057166663087,-34.05175049427989,0 20.51009397216152,-34.0517629585399,0 20.50997505099453,-34.05175676146536,0 20.50934959326964,-34.05156832688231,0 20.50922719646625,-34.05151760092281,0 20.50880567002861,-34.05119892075789,0 20.50875111118655,-34.05115198816215,0 20.50761440515854,-34.04994006257307,0 20.50740024656562,-34.04971058278555,0 20.50721643222344,-34.04951934088209,0 20.50701344402962,-34.04931507350961,0 20.5064826794214,-34.04885785589724,0 20.50636091521722,-34.04876459051829,0 20.50616458182619,-34.04866923036527,0 20.50478369159095,-34.0480515004973,0 20.50043664744119,-34.04837936483629,0 20.49856801159154,-34.04841000136004,0 20.49231857215119,-34.04823675575943,0 20.48887613823651,-34.04805266247606,0 20.4876637545337,-34.04797009947273,0 20.48695105652281,-34.04784517424336,0 20.48411224646782,-34.04725959855581,0 20.48013847913308,-34.04600606993489,0 20.476685361723,-34.04413795647302,0 20.47364020070544,-34.04196438198274,0 20.47251656145158,-34.04100582473475,0 20.47218848851796,-34.04070327781439,0 20.46622384239001,-34.03948436583626,0 20.46519365535633,-34.03937987433328,0 20.4615707792715,-34.03918396759696,0 20.46011885153844,-34.04136078022304,0 20.45727944129673,-34.04131520942995,0 20.45366482132781,-34.04150181346504,0 20.45336815501192,-34.04141377047598,0 20.44314927841588,-34.05014303865352,0 20.44226649670095,-34.05038661814539,0 20.44119765833682,-34.05066950153297,0 20.4411498108902,-34.05071083388685,0 20.43492096435501,-34.04829788841164,0 20.43199470878927,-34.05266314721732,0 20.43159226658927,-34.05379494190839,0 20.42832650001027,-34.05370998753786,0 20.42730928243849,-34.05411877744915,0 20.42540173967149,-34.05604763983855,0 20.42413131885102,-34.05637880020606,0 20.41862876836716,-34.06276999144004,0 20.41505918313059,-34.06633768438358,0 20.41468292207549,-34.06742069205284,0 20.41537858188783,-34.06959586377428,0 20.41562605377355,-34.07136537868032,0 20.41489720665222,-34.07364380469052,0 20.41428700402541,-34.07523100018088,0 20.41361521758901,-34.07712123768219,0 20.41318089900096,-34.07901842635815,0 20.41334461225483,-34.08089734428242,0 20.41459640036194,-34.08251704002559,0 20.41628121480064,-34.08318434722546,0 20.41870248185054,-34.08409072912723,0 20.42052626528867,-34.08410616489941,0 20.42358904171199,-34.08280607667025,0 20.42615563172785,-34.08118974109702,0 20.42815863460499,-34.07997573835278,0 20.43060602641945,-34.07808707885582,0 20.43147617739313,-34.07690063550642,0 20.43197746406161,-34.07483544555662,0 20.43184290459392,-34.07400114305355,0</coordinates></LineString>
</Placemark></Folder>
</Document>
</kml>