<?xml version="1.0" encoding="UTF-8"?>
<kml xmlns="http://www.opengis.net/kml/2.2">
<Document>
<name>Camdeboo National Park</name>
<description>Restructured from source 'My Places.kmz' (folder: Camdeboo National Park). Boundary from WDPA (World Database on Protected Areas).</description>
<Style id="style_GATES">
  <IconStyle><scale>0.9</scale><Icon><href>../../icons/gate.png</href></Icon></IconStyle>
  <LabelStyle><scale>0.8</scale></LabelStyle>
</Style>
<Style id="style_CAMPS">
  <IconStyle><scale>0.9</scale><Icon><href>../../icons/camp.png</href></Icon></IconStyle>
  <LabelStyle><scale>0.8</scale></LabelStyle>
</Style>
<Style id="style_PICNIC">
  <IconStyle><scale>0.9</scale><Icon><href>../../icons/picnic.png</href></Icon></IconStyle>
  <LabelStyle><scale>0.8</scale></LabelStyle>
</Style>
<Style id="style_POI">
  <IconStyle><scale>0.9</scale><Icon><href>../../icons/poi.png</href></Icon></IconStyle>
  <LabelStyle><scale>0.8</scale></LabelStyle>
</Style>
<Style id="style_WATER_HOLES">
  <IconStyle><scale>0.9</scale><Icon><href>../../icons/waterhole.png</href></Icon></IconStyle>
  <LabelStyle><scale>0.8</scale></LabelStyle>
</Style>
<Style id="style_BIRD_HIDES">
  <IconStyle><scale>0.9</scale><Icon><href>../../icons/birdhide.png</href></Icon></IconStyle>
  <LabelStyle><scale>0.8</scale></LabelStyle>
</Style>
<Style id="style_OTHER">
  <IconStyle><scale>0.9</scale><Icon><href>../../icons/lookout.png</href></Icon></IconStyle>
  <LabelStyle><scale>0.8</scale></LabelStyle>
</Style>
<Style id="style_DAMS">
  <IconStyle><scale>0.9</scale><Icon><href>http://maps.google.com/mapfiles/kml/paddle/blu-circle.png</href></Icon></IconStyle>
  <LabelStyle><scale>0.8</scale></LabelStyle>
</Style>
<Style id="style_WAYPOINTS">
  <IconStyle><scale>0.9</scale><Icon><href>http://maps.google.com/mapfiles/kml/paddle/wht-blank.png</href></Icon></IconStyle>
  <LabelStyle><scale>0.8</scale></LabelStyle>
</Style>
<Style id="style_MAIN_ROADS">
  <LineStyle><color>ff0055ff</color><width>4</width></LineStyle>
</Style>
<Style id="style_BOUNDARY">
  <LineStyle><color>ff29610d</color><width>3</width></LineStyle>
  <PolyStyle><color>4029610d</color></PolyStyle>
</Style><Folder><name>Boundary</name><Placemark><name>Camdeboo National Park Boundary</name><description>Source: WDPA (World Database on Protected Areas), record name "Camdeboo National Park". 3 section(s), 2 excluded enclave(s)/hole(s).</description><styleUrl>#style_BOUNDARY</styleUrl><MultiGeometry><Polygon><outerBoundaryIs><LinearRing><coordinates>24.570478466408133,-32.20506764315718,0 24.588227103198278,-32.24584122659127,0 24.60630960070756,-32.25115491586661,0 24.626722911633124,-32.254469765667125,0 24.6386080433266,-32.25605661761875,0 24.645707471422725,-32.25581635474094,0 24.647225784242607,-32.2557896637619,0 24.653932291342244,-32.25564477308774,0 24.654022010407516,-32.26817548311203,0 24.660280269319003,-32.26988439914567,0 24.65710824984592,-32.2784480611291,0 24.661588761312316,-32.28592457585847,0 24.669721960100446,-32.28581775168783,0 24.670790128961357,-32.28117547826565,0 24.67322587887128,-32.284444524695004,0 24.67621670113988,-32.28548207883483,0 24.67691288162422,-32.288636685634515,0 24.666366826967533,-32.30659164488844,0 24.657974236721714,-32.306751872600785,0 24.650283579923325,-32.31226386508524,0 24.65867044778298,-32.31740579284303,0 24.64587362296936,-32.319782259443684,0 24.63454735967298,-32.323539546013194,0 24.62068044864384,-32.328292395577535,0 24.586728321854594,-32.32350131493371,0 24.5816640928237,-32.32278798437795,0 24.576454912863994,-32.322421739971276,0 24.5749199445998,-32.32042680984932,0 24.57434743888325,-32.31827443901409,0 24.58250490138016,-32.310229616603465,0 24.590594418297826,-32.290265992781315,0 24.590594643128327,-32.29026537944367,0 24.573790644322855,-32.285272617737064,0 24.57113913536284,-32.28518716775352,0 24.567324818285783,-32.28250966478913,0 24.565348117421706,-32.28048102717764,0 24.564165800311514,-32.27884764610195,0 24.562951107607603,-32.27339470490165,0 24.56179071956609,-32.266366834961445,0 24.56136334284406,-32.26371474324077,0 24.562211220971108,-32.26123445620516,0 24.56323379690224,-32.259935505119415,0 24.563766184761676,-32.25989748268262,0 24.56958897934794,-32.25897254164943,0 24.56992188858436,-32.25651748599313,0 24.569499641595257,-32.254493827927774,0 24.56678435001777,-32.249905676605636,0 24.563414604700313,-32.248985940848456,0 24.548028146082117,-32.24221341002084,0 24.54481264528738,-32.23692122893152,0 24.5462712098485,-32.23337275055195,0 24.55032751200514,-32.23158965573799,0 24.55270170871694,-32.23068066687921,0 24.554270767581897,-32.230442178363774,0 24.555389404597406,-32.230696821401125,0 24.556517539353024,-32.23109505829024,0 24.55803852495802,-32.230222562121526,0 24.558260761824727,-32.22697877584977,0 24.556518864054397,-32.225425070210804,0 24.554268264768666,-32.218824413315986,0 24.54880452720721,-32.21938299662793,0 24.54262430426826,-32.21995769938826,0 24.541406383897538,-32.22174579623146,0 24.54264087697493,-32.219571600648806,0 24.54471991619124,-32.216881501779824,0 24.54576017998835,-32.215449544560784,0 24.54871629741922,-32.21110949101018,0 24.54902394829662,-32.210603224858914,0 24.550654776197007,-32.2094692202283,0 24.559400150696433,-32.20585655993227,0 24.559708834894877,-32.20639701381111,0 24.560331165750767,-32.2061399902683,0 24.560022161393704,-32.20559990421219,0 24.56054192996612,-32.20538554540656,0 24.56216282665315,-32.20496929689551,0 24.569581969132628,-32.20443789739102,0 24.56965065125661,-32.2044268060522,0 24.570478466408133,-32.20506764315718,0</coordinates></LinearRing></outerBoundaryIs><innerBoundaryIs><LinearRing><coordinates>24.557263649298022,-32.218516597862674,0 24.561060185878944,-32.22641920957881,0 24.563982213608313,-32.2275639017526,0 24.567323320914568,-32.225855622438985,0 24.56369994519639,-32.221009691244205,0 24.56254367515055,-32.21799866390717,0 24.557263649298022,-32.218516597862674,0</coordinates></LinearRing></innerBoundaryIs></Polygon><Polygon><outerBoundaryIs><LinearRing><coordinates>24.49852475631252,-32.30502667614013,0 24.498342300057175,-32.30490932270703,0 24.498090518662536,-32.30475293689847,0 24.498048558094524,-32.30472241930414,0 24.496736245781165,-32.30388703905555,0 24.496320439736564,-32.30362001774955,0 24.49462665209836,-32.30254050304171,0 24.481728620279625,-32.29431264970896,0 24.472931532963912,-32.28481068726336,0 24.470423229348626,-32.282098576588,0 24.470420908198378,-32.28208795289669,0 24.46037127661316,-32.27286794230167,0 24.45986051385171,-32.27391144815476,0 24.45670115683299,-32.275254850930594,0 24.452391890673255,-32.274442381810445,0 24.44703576868585,-32.27180101900177,0 24.439882475695754,-32.26535031776291,0 24.44673871182215,-32.26083750174928,0 24.439347706431533,-32.25225220297676,0 24.43101914072082,-32.26017554766332,0 24.420674106125148,-32.250100029093005,0 24.420674063857007,-32.250100029093005,0 24.41537416388661,-32.23863737911171,0 24.41523776910782,-32.238342533680964,0 24.410815528314004,-32.22765599412878,0 24.412101566933814,-32.224968088706305,0 24.42560605837292,-32.21699236210776,0 24.425606098842422,-32.21699236210776,0 24.425834889968257,-32.208189709787234,0 24.450991471779048,-32.20013788705381,0 24.475687901075844,-32.20731961480834,0 24.47092063627838,-32.19262860642499,0 24.469413752043067,-32.18612481910509,0 24.466894036030965,-32.17975072841335,0 24.466365684328935,-32.17841258577215,0 24.46647575775006,-32.17852437509981,0 24.46664239582998,-32.17869688485331,0 24.484766495977055,-32.197445389692916,0 24.496482172914,-32.18874942034944,0 24.48547270390219,-32.170920097284636,0 24.486919930710258,-32.17102677756367,0 24.498389271647625,-32.171579844434234,0 24.510606317927284,-32.171797234854466,0 24.518091071345907,-32.175466804249595,0 24.52097127970086,-32.176878173289026,0 24.525282060318887,-32.17883884733487,0 24.52531693602782,-32.178855526161556,0 24.524603859980232,-32.17932435443538,0 24.52196686517874,-32.18105802071102,0 24.52951767200301,-32.191659382774276,0 24.53277923787158,-32.189671866663275,0 24.540062932558328,-32.196353294368976,0 24.539491130111628,-32.19797295628683,0 24.540799089706297,-32.199170281283386,0 24.54125092618932,-32.20095770363508,0 24.544056739027326,-32.207987984657734,0 24.542297871049982,-32.20920115660806,0 24.537595002207638,-32.21728715267989,0 24.536274282132467,-32.22230264295257,0 24.53574385569442,-32.22443818027773,0 24.53585461080172,-32.22602995961489,0 24.535880620094588,-32.22640378260843,0 24.535965209426934,-32.227619343158096,0 24.53095648115675,-32.23133508914299,0 24.53040328838108,-32.23243649424876,0 24.530231242677758,-32.233483318600236,0 24.530337931050724,-32.23398521224772,0 24.530476351102777,-32.234095480821736,0 24.530421629154887,-32.23419347544848,0 24.529832466195387,-32.23419949640959,0 24.52701790565186,-32.236893549597596,0 24.526854614848673,-32.23704983827935,0 24.526850332277036,-32.23765147033902,0 24.526848804328893,-32.237866855271136,0 24.527038710568092,-32.23787620911969,0 24.526765233928472,-32.23882429060848,0 24.525544355687543,-32.243056487566776,0 24.524087078955574,-32.24536523791534,0 24.521492846917397,-32.25211172977248,0 24.519987062552957,-32.256131523051295,0 24.51953934586419,-32.26098724966181,0 24.530892321723343,-32.27503674375066,0 24.536935982609577,-32.27871372715674,0 24.5403825579088,-32.28241020336816,0 24.537649037073436,-32.28552756024868,0 24.53716678821678,-32.2860774947805,0 24.53635053474943,-32.28700830658801,0 24.536007708688828,-32.28743495036264,0 24.535675405595555,-32.287920890936334,0 24.535452980770515,-32.288301267289626,0 24.535232931054964,-32.2887778693032,0 24.53463072163055,-32.29025028881972,0 24.5343930281158,-32.29072826859465,0 24.53413640117401,-32.291110951709015,0 24.53357194528911,-32.29165085880004,0 24.533545650911094,-32.29185167741292,0 24.53338811127236,-32.291911154975764,0 24.53334868859116,-32.292128254914985,0 24.533045936320946,-32.292455938190926,0 24.53265534726654,-32.292833070689596,0 24.532221760725747,-32.293190388425614,0 24.531758421913707,-32.29353027010586,0 24.527301629166914,-32.29655509214376,0 24.526972703027866,-32.29676389403846,0 24.526492206050534,-32.297027583356225,0 24.52597465430688,-32.297270303181904,0 24.525387573277953,-32.29748985107574,0 24.524838349210484,-32.29765768075731,0 24.52398277198739,-32.297856552337976,0 24.515173065384715,-32.29858334124816,0 24.514034724223222,-32.29870369032301,0 24.513269366987743,-32.29882076586563,0 24.512127903380076,-32.2990281890996,0 24.51098738226193,-32.29929639391338,0 24.510333184828653,-32.29947133093714,0 24.50860381731235,-32.30001868171672,0 24.506023445625544,-32.30117662180362,0 24.499168416389352,-32.30469622205294,0 24.49852475631252,-32.30502667614013,0</coordinates></LinearRing></outerBoundaryIs><innerBoundaryIs><LinearRing><coordinates>24.53827503806258,-32.20271894582265,0 24.540721174242833,-32.20338537313643,0 24.540324143344606,-32.20181449494294,0 24.53901615317301,-32.20061743164911,0 24.53827503806258,-32.20271894582265,0</coordinates></LinearRing></innerBoundaryIs></Polygon><Polygon><outerBoundaryIs><LinearRing><coordinates>24.542973008297736,-32.21848864243685,0 24.550948668346393,-32.204484644150966,0 24.551625070040984,-32.20315387864855,0 24.554934033778693,-32.19592430696116,0 24.555905759343375,-32.193841486095664,0 24.569362503077116,-32.204206260810224,0 24.569293372191396,-32.20421380342424,0 24.56214268903392,-32.204788406359796,0 24.560448744014366,-32.20522217186567,0 24.55056128267711,-32.20930601755862,0 24.548839105240575,-32.21051193287934,0 24.548406633859088,-32.21101315203532,0 24.545481588004918,-32.215310480594155,0 24.54453088499241,-32.21679677125394,0 24.542973008297736,-32.21848864243685,0</coordinates></LinearRing></outerBoundaryIs></Polygon></MultiGeometry></Placemark></Folder><Folder><name>Main Roads</name></Folder><Folder><name>Gates</name><Placemark>
  <name>Main Gate</name>
  
  <styleUrl>#style_GATES</styleUrl>
  <Point><coordinates>24.54098900314172,-32.22034303238804,0</coordinates></Point>
</Placemark>
<Placemark>
  <name>Game Viewing Gate Area</name>
  
  <styleUrl>#style_GATES</styleUrl>
  <Point><coordinates>24.540556,-32.22,0</coordinates></Point>
</Placemark></Folder><Folder><name>Picnic Spots</name></Folder><Folder><name>Bird Hides</name><Placemark>
  <name>Khwalimanzi Hide</name>
  
  <styleUrl>#style_BIRD_HIDES</styleUrl>
  <Point><coordinates>24.53491318897639,-32.2101438691429,0</coordinates></Point>
</Placemark></Folder><Folder><name>Water Holes</name></Folder><Folder><name>Dams</name></Folder><Folder><name>Waypoints</name></Folder><Folder><name>POI</name><Placemark>
  <name>View Point</name>
  
  <styleUrl>#style_POI</styleUrl>
  <Point><coordinates>24.494722,-32.266389,0</coordinates></Point>
</Placemark>
<Placemark>
  <name>Car Park</name>
  
  <styleUrl>#style_POI</styleUrl>
  <Point><coordinates>24.493333,-32.264444,0</coordinates></Point>
</Placemark></Folder><Folder><name>Camps</name><Placemark>
  <name>Reception</name>
  
  <styleUrl>#style_CAMPS</styleUrl>
  <Point><coordinates>24.540278,-32.220278,0</coordinates></Point>
</Placemark>
<Placemark>
  <name>Camdeboo Tented Camp</name>
  
  <styleUrl>#style_CAMPS</styleUrl>
  <Point><coordinates>24.53658897373014,-32.21378590454761,0</coordinates></Point>
</Placemark></Folder><Folder><name>Other Features (Viewpoints, Lookouts, Pans, Trails - not in the requested category list, kept so no surveyed data is lost)</name><Placemark>
  <name>Camdeboo National Park</name>
  
  <styleUrl>#style_OTHER</styleUrl>
  <Point><coordinates>24.604912,-32.263618,0</coordinates></Point>
</Placemark></Folder>
</Document>
</kml>