<?xml version="1.0" encoding="UTF-8"?>
<kml xmlns="http://www.opengis.net/kml/2.2">
<Document>
<name>Golden Gate Highlands National Park</name>
<description>Boundary from WDPA. No other source data available for this park yet - all other category folders are empty pending data.</description>
<Style id="style_GATES">
  <IconStyle><scale>0.9</scale><Icon><href>../../icons/gate.png</href></Icon></IconStyle>
  <LabelStyle><scale>0.8</scale></LabelStyle>
</Style>
<Style id="style_CAMPS">
  <IconStyle><scale>0.9</scale><Icon><href>../../icons/camp.png</href></Icon></IconStyle>
  <LabelStyle><scale>0.8</scale></LabelStyle>
</Style>
<Style id="style_PICNIC">
  <IconStyle><scale>0.9</scale><Icon><href>../../icons/picnic.png</href></Icon></IconStyle>
  <LabelStyle><scale>0.8</scale></LabelStyle>
</Style>
<Style id="style_POI">
  <IconStyle><scale>0.9</scale><Icon><href>../../icons/poi.png</href></Icon></IconStyle>
  <LabelStyle><scale>0.8</scale></LabelStyle>
</Style>
<Style id="style_WATER_HOLES">
  <IconStyle><scale>0.9</scale><Icon><href>../../icons/waterhole.png</href></Icon></IconStyle>
  <LabelStyle><scale>0.8</scale></LabelStyle>
</Style>
<Style id="style_BIRD_HIDES">
  <IconStyle><scale>0.9</scale><Icon><href>../../icons/birdhide.png</href></Icon></IconStyle>
  <LabelStyle><scale>0.8</scale></LabelStyle>
</Style>
<Style id="style_OTHER">
  <IconStyle><scale>0.9</scale><Icon><href>../../icons/lookout.png</href></Icon></IconStyle>
  <LabelStyle><scale>0.8</scale></LabelStyle>
</Style>
<Style id="style_DAMS">
  <IconStyle><scale>0.9</scale><Icon><href>http://maps.google.com/mapfiles/kml/paddle/blu-circle.png</href></Icon></IconStyle>
  <LabelStyle><scale>0.8</scale></LabelStyle>
</Style>
<Style id="style_WAYPOINTS">
  <IconStyle><scale>0.9</scale><Icon><href>http://maps.google.com/mapfiles/kml/paddle/wht-blank.png</href></Icon></IconStyle>
  <LabelStyle><scale>0.8</scale></LabelStyle>
</Style>
<Style id="style_MAIN_ROADS">
  <LineStyle><color>ff0055ff</color><width>4</width></LineStyle>
</Style>
<Style id="style_BOUNDARY">
  <LineStyle><color>ff29610d</color><width>3</width></LineStyle>
  <PolyStyle><color>4029610d</color></PolyStyle>
</Style><Folder><name>Boundary</name><Placemark><name>Golden Gate Highlands National Park Boundary</name><description>Source: WDPA (World Database on Protected Areas), record name "Golden Gate Highlands National Park". 1 section(s), 0 excluded enclave(s)/hole(s).</description><styleUrl>#style_BOUNDARY</styleUrl><Polygon><outerBoundaryIs><LinearRing><coordinates>28.689577223809863,-28.410656964247437,0 28.690576665580693,-28.413191734011264,0 28.690958120221126,-28.415625409185225,0 28.691070643395506,-28.416674412594034,0 28.691476907633216,-28.417242778731236,0 28.693041001341214,-28.418656072319834,0 28.693987069247896,-28.42010179366281,0 28.695570169228006,-28.425224752020654,0 28.695837213017,-28.42531058421605,0 28.715897558025915,-28.431707651686736,0 28.720805362577494,-28.430494653305573,0 28.721005643395756,-28.430445060191346,0 28.721747641640377,-28.43026197620918,0 28.725104700221777,-28.431068792190956,0 28.728904292698985,-28.431980499700273,0 28.73342110260188,-28.430899135986294,0 28.73369691028421,-28.430091285784158,0 28.735391528896002,-28.42512775384273,0 28.73784836790793,-28.418183402142233,0 28.744947840070836,-28.41657753492524,0 28.750714001649897,-28.416693915291887,0 28.75734421116647,-28.419228751605544,0 28.757384269668364,-28.419244014000014,0 28.76442653415728,-28.4219352370215,0 28.77630601900762,-28.4214413203606,0 28.77634225898811,-28.42143940300599,0 28.777784258037116,-28.421380292366564,0 28.777891082207702,-28.42177700940141,0 28.778066557026023,-28.42242930386925,0 28.780370730724712,-28.431029220222285,0 28.781032612864863,-28.43349914167203,0 28.780624423178665,-28.434639685273225,0 28.77794256929417,-28.442135229657083,0 28.784172256744284,-28.445570263956483,0 28.786535602236313,-28.45000466628227,0 28.782409757304492,-28.455346925220397,0 28.78276263328894,-28.456037361734786,0 28.782138893195395,-28.457917934065335,0 28.776149557656026,-28.461089669352702,0 28.775274021778728,-28.46283292240139,0 28.772998343998438,-28.47718518314963,0 28.77284382967906,-28.47815979104149,0 28.775115531556594,-28.479582663309202,0 28.775846073337675,-28.479679952867514,0 28.77808918217005,-28.479531221188836,0 28.785665450600106,-28.47902775462711,0 28.795269308931495,-28.480187425009603,0 28.79680859214284,-28.48030951157466,0 28.799549526089834,-28.488262793792842,0 28.802715816881516,-28.489410984329425,0 28.804186432357994,-28.489943109586818,0 28.804163538316686,-28.490311211093456,0 28.80398421979595,-28.493435300298813,0 28.803671380729668,-28.498874798433178,0 28.802675682836536,-28.502187700302102,0 28.802895037376118,-28.50200841955285,0 28.80308958681502,-28.501897800243228,0 28.80326697988727,-28.501846305062884,0 28.80342529833888,-28.501844402996767,0 28.803572172917484,-28.501882545043372,0 28.80370950029328,-28.501951219073476,0 28.803839203216683,-28.502042764661837,0 28.804094787844235,-28.502250652845305,0 28.804224490767695,-28.50234983097988,0 28.804363727404166,-28.50243184285523,0 28.804512512142765,-28.502489058623098,0 28.80454302973709,-28.502496691169313,0 28.804844404245898,-28.50251004430305,0 28.80502178922427,-28.502489058623098,0 28.805199167008027,-28.502460451188824,0 28.805372747854108,-28.502435662275957,0 28.805457815625743,-28.50242965570402,0 28.805534877632567,-28.502424219302213,0 28.805683663270486,-28.502439481696683,0 28.80583243182133,-28.502523403732027,0 28.805937338637307,-28.502628303353447,0 28.806028892319603,-28.50275799098847,0 28.80610900212878,-28.502904851177902,0 28.80617957192976,-28.50305934211491,0 28.806242510083848,-28.50321574321191,0 28.806271118417442,-28.503290124339742,0 28.80635313838667,-28.503515185077674,0 28.80639891118085,-28.50366013510711,0 28.80643706042207,-28.503805093230426,0 28.80646756992246,-28.50394813309981,0 28.806488546609216,-28.504087361642405,0 28.806499989582903,-28.50422659827882,0 28.806501899742955,-28.50436010533457,0 28.806492358835328,-28.504489801063414,0 28.806469471988578,-28.504613774406096,0 28.806459931081008,-28.50464810422659,0 28.80638745201935,-28.504844541342493,0 28.806335949644392,-28.504958980972162,0 28.80628253800876,-28.505077240921878,0 28.806231029338562,-28.50520310913612,0 28.806187157711236,-28.505342352967148,0 28.80615473085618,-28.50549493374416,0 28.806139467562446,-28.50566849300651,0 28.806137558301714,-28.50572188935365,0 28.806156632922296,-28.50602896196699,0 28.80616426366987,-28.506099531767916,0 28.806173798282202,-28.50614531175671,0 28.806179518869726,-28.506172010829573,0 28.806309213699308,-28.5067518190412,0 28.80593536192748,-28.506976871685254,0 28.805258233580673,-28.50705697519919,0 28.804577292108377,-28.507154235079838,0 28.803862021714963,-28.507594800359698,0 28.803186802628886,-28.50766537016068,0 28.802469622075478,-28.507373543754,0 28.801645619150065,-28.507783591439534,0 28.801117267447978,-28.50794951905499,0 28.79996521432321,-28.507945692439705,0 28.798561363616102,-28.507753051362158,0 28.79758477092048,-28.507405933736834,0 28.796444138286404,-28.507283869654827,0 28.795770827561682,-28.50699014298067,0 28.794284957784612,-28.50627111971636,0 28.792947872746197,-28.506068953919055,0 28.791822503405854,-28.506011730057253,0 28.790960350339958,-28.506004099309678,0 28.789747237744905,-28.50608229895886,0 28.78880880238438,-28.50594688983705,0 28.787881801903666,-28.505986941144386,0 28.787057805273548,-28.506122351165516,0 28.786504658363356,-28.505752340398146,0 28.786193758235413,-28.505361360138636,0 28.785747440891726,-28.504670929919428,0 28.78523245041731,-28.50427613113851,0 28.784314989944903,-28.504415359681047,0 28.783628327885083,-28.50472242509977,0 28.783264000833015,-28.505430011685633,0 28.78330212129589,-28.50671932383767,0 28.783124728223697,-28.507053096423192,0 28.78229309275207,-28.50769583469497,0 28.781350828977622,-28.507632890245645,0 28.78044672973283,-28.5072419018922,0 28.779716196945003,-28.507144633917676,0 28.77906766883791,-28.507447879915674,0 28.778638487176465,-28.507819792749217,0 28.778249349627856,-28.509069040104066,0 28.77765993216019,-28.510114209702976,0 28.777131557975054,-28.510846593295582,0 28.776456317305247,-28.511653349022822,0 28.77579253309898,-28.512383821556057,0 28.774960883238236,-28.51277862213567,0 28.774039597049807,-28.512923572165107,0 28.77365238405031,-28.513285944091024,0 28.77288940821967,-28.513593002315133,0 28.772069209426547,-28.513978261087857,0 28.77147409205577,-28.5145275517051,0 28.770787408412218,-28.514569505078555,0 28.76964866975038,-28.515347654270784,0 28.769064981863494,-28.51583781086623,0 28.76855569668811,-28.51565471159563,0 28.768282938606774,-28.51502340910298,0 28.768845649806963,-28.514464591967283,0 28.76944650395302,-28.513930570939067,0 28.769795566812036,-28.513257314173643,0 28.7700054011284,-28.512774780231894,0 28.76913751308581,-28.51315623397295,0 28.768027368368394,-28.5133297932353,0 28.767367403582853,-28.513415602048326,0 28.76703548989599,-28.514113654921175,0 28.766600593942314,-28.514432164212963,0 28.765297800952794,-28.51487463065962,0 28.764679767956977,-28.51557078236567,0 28.76423151167495,-28.516450025248446,0 28.763800419853567,-28.517375033730787,0 28.763510466734715,-28.518465984217755,0 28.763346419601646,-28.519612241211917,0 28.763228153356636,-28.520089052767503,0 28.76296301073438,-28.52062117172966,0 28.762400307628127,-28.521031233804365,0 28.76177086133623,-28.52086720195973,0 28.761267299446388,-28.520392291570943,0 28.76127494458308,-28.519738109426157,0 28.75897644740519,-28.52195242286598,0 28.75883145240965,-28.52487814321171,0 28.759109922984635,-28.525410269368365,0 28.75949331836199,-28.525795541630885,0 28.76006745724743,-28.526087352749073,0 28.760427956784838,-28.526375344446535,0 28.760778930703168,-28.52673963282774,0 28.760788457221565,-28.527084840293128,0 28.76044703230474,-28.527399543653985,0 28.760521413432514,-28.52791067873477,0 28.760876190583758,-28.528261614881558,0 28.761286291329327,-28.528444714152215,0 28.76197296777832,-28.52853244121917,0 28.761736441583537,-28.528822349371865,0 28.761498013322694,-28.529081731836413,0 28.761299629174573,-28.529524213571563,0 28.76052902169704,-28.529964794139914,0 28.760176137618714,-28.530109745068614,0 28.759268211758638,-28.530781091673987,0 28.75868262989951,-28.531713723709345,0 28.758232494034417,-28.532682587631257,0 28.757685066812428,-28.53368008326919,0 28.75752865942013,-28.534427713967773,0 28.757021291599358,-28.53490832965565,0 28.75698696177892,-28.535282152649188,0 28.756880137608334,-28.53583716565265,0 28.75658259061413,-28.536539022657735,0 28.75673136815817,-28.537235159075294,0 28.756744729385787,-28.538026674891114,0 28.7568668231454,-28.538810544670866,0 28.756912603134197,-28.53958297237625,0 28.756887807026715,-28.540509890119267,0 28.75655972714975,-28.541240370746493,0 28.75625644427953,-28.541667582892615,0 28.75531606008815,-28.541965114598327,0 28.754244057417395,-28.542142493281403,0 28.753261711758626,-28.54217301087573,0 28.752662762376644,-28.54225502275108,0 28.75198751990814,-28.54215966493655,0 28.751825382935124,-28.54182399208355,0 28.752101967631745,-28.541362442023058,0 28.75197797900057,-28.54090471228261,0 28.7511177127123,-28.5415398126122,0 28.750522581851726,-28.5420509548876,0 28.749790109226183,-28.5424457392794,0 28.74984352895575,-28.542977850147622,0 28.749269389171047,-28.54337837131476,0 28.74853884109467,-28.54361676180406,0 28.747691951322565,-28.54388949110711,0 28.74709874411178,-28.5442022699188,0 28.746454028230858,-28.544421593881395,0 28.746045852933833,-28.544793492325766,0 28.745446917041647,-28.545279830399807,0 28.74489567939213,-28.545543025090467,0 28.719761601316918,-28.542727693827942,0 28.719420169205478,-28.54267238012619,0 28.714266281363848,-28.539239345019723,0 28.70602594274311,-28.533750420145736,0 28.68961628676226,-28.580739343246023,0 28.68944080385006,-28.580523830610275,0 28.68933588983947,-28.580394128586136,0 28.68916230899339,-28.58020531502325,0 28.688918151151825,-28.579938300911806,0 28.688097952358646,-28.579509172310395,0 28.687403643363496,-28.579373762289265,0 28.687636350137495,-28.578864522979302,0 28.68720907773678,-28.578647093888208,0 28.686497597086486,-28.578282811802296,0 28.685908186813435,-28.577178522570705,0 28.68541414964335,-28.576005560208387,0 28.684588229363328,-28.575540191626487,0 28.683281632241574,-28.575505869000608,0 28.682724649722843,-28.57541623267298,0 28.682097106396384,-28.575315154270925,0 28.68116054162573,-28.57490318923078,0 28.68049102963738,-28.574836454139017,0 28.679821509555097,-28.57477159863032,0 28.67897842391517,-28.57484218282042,0 28.678871615033074,-28.574851723728045,0 28.6783298877142,-28.5742623970919,0 28.678246505272057,-28.574138520875977,0 28.677996071961218,-28.573766510016355,0 28.6775611832021,-28.57395724093385,0 28.676754330348103,-28.573991578848222,0 28.67629654035312,-28.573318329277413,0 28.676220240971418,-28.573205798908475,0 28.675773886755508,-28.572299865046716,0 28.67567279306502,-28.572118683130668,0 28.675188296802503,-28.571254701743044,0 28.67456073818755,-28.57065774435938,0 28.67417923858102,-28.569627829061005,0 28.673498282719606,-28.568412912425913,0 28.673000419833556,-28.567472640649783,0 28.672464428390697,-28.567005370001766,0 28.671436311736443,-28.56661058561002,0 28.670480673244526,-28.565773311389137,0 28.669389587859257,-28.564318078816257,0 28.66866473878673,-28.562923882331233,0 28.667520257054264,-28.561796715246146,0 28.666612300617203,-28.561119653449225,0 28.6654907129261,-28.560656202221935,0 28.664380568208685,-28.56019847158217,0 28.662990032863775,-28.559883789804985,0 28.661467871844877,-28.55958055909548,0 28.6601192979673,-28.559260154932133,0 28.658637188255682,-28.55904082377498,0 28.657769291219893,-28.558750908427612,0 28.6568403500022,-28.558205421942603,0 28.655634833081137,-28.557884989001025,0 28.654799370994226,-28.557583645069144,0 28.654232832279433,-28.55681692356211,0 28.653332508388587,-28.556515566140433,0 28.65242264179153,-28.555781266092538,0 28.651177051080083,-28.555209073339995,0 28.649664437263993,-28.554507192952542,0 28.648189951105394,-28.554434758856985,0 28.647409427702996,-28.55438035886641,0 28.646658240185673,-28.55432800303487,0 28.645183754027073,-28.5543757309552,0 28.64353188199084,-28.55473625297566,0 28.642116528954716,-28.554991860985524,0 28.64005263162369,-28.55477831067043,0 28.638520907214172,-28.55441025502921,0 28.637931489746506,-28.55430536440099,0 28.637223821322323,-28.554614339080445,0 28.636634411049272,-28.554509454747517,0 28.63581225713,-28.553466224086947,0 28.63475359230449,-28.553046650782278,0 28.633044473923405,-28.552886483324528,0 28.631451719721156,-28.55282929723421,0 28.630509396591435,-28.552411633190275,0 28.62960713286293,-28.55159155400696,0 28.63141414784468,-28.58202488903737,0 28.631446582793615,-28.58256654890704,0 28.63140271206555,-28.582528398766556,0 28.631210063793446,-28.58231478190163,0 28.6311356682765,-28.58219080855895,0 28.631040287978976,-28.58209545074442,0 28.630948727102123,-28.582030603329656,0 28.630876248040465,-28.582019160355912,0 28.630803768978808,-28.58202106242203,0 28.630725561235693,-28.58209353428913,0 28.63064926275331,-28.582181259557444,0 28.630551980389612,-28.58224420580541,0 28.63045089299436,-28.582291880665707,0 28.630372677157368,-28.58229760215255,0 28.630269681400705,-28.58227852033741,0 28.630206750441232,-28.582257542751336,0 28.63017239094313,-28.58226136307138,0 28.6301037313022,-28.58220031978891,0 28.62996829879802,-28.582152644928556,0 28.629846228420774,-28.582091600746708,0 28.629743223670914,-28.581996242932235,0 28.62957346314488,-28.58178072400119,0 28.629495247307887,-28.581622420838016,0 28.629481901368706,-28.581572835817667,0 28.629331207369376,-28.581404990847602,0 28.629169076691596,-28.581229523223897,0 28.628907761584003,-28.58101210222668,0 28.62861592168747,-28.580788950749422,0 28.628577772446306,-28.580766063902672,0 28.6285014820578,-28.580718389042374,0 28.62835077996459,-28.58066878873359,0 28.62822297910725,-28.58061920371324,0 28.62814477855875,-28.580605844284264,0 28.62804750428893,-28.5806726009597,0 28.627971197712668,-28.580796567107825,0 28.627952131185964,-28.580954884660173,0 28.627965484319702,-28.581067400639995,0 28.627967392681057,-28.581221891577,0 28.62794449863975,-28.58136112101886,0 28.62791780136547,-28.58136303027959,0 28.627879652124307,-28.58138972935251,0 28.62781479661561,-28.581441222734213,0 28.627725153093365,-28.581467921807075,0 28.62754584986112,-28.581441222734213,0 28.627469552278058,-28.581345865819003,0 28.627357006620628,-28.581181841168984,0 28.62724637921707,-28.58109600897359,0 28.627143381661767,-28.58106167915315,0 28.627053730944965,-28.581054054700815,0 28.626845813083833,-28.58102161975188,0 28.62655207022192,-28.58094343539119,0 28.62639947415647,-28.580907195410703,0 28.626323182868646,-28.580907195410703,0 28.62623543421796,-28.5808766697225,0 28.62603134207285,-28.580815641728464,0 28.62583868660613,-28.58075461373437,0 28.62564794129952,-28.58070692268626,0 28.625329402330124,-28.580613475031782,0 28.625100507782236,-28.580531455062555,0 28.624997503032375,-28.580487592428426,0 28.62462746168808,-28.5803273791052,0 28.624291751063538,-28.58019959263703,0 28.62419446869984,-28.58019386395563,0 28.62405523296269,-28.580218660962373,0 28.62397892728569,-28.580241555003738,0 28.623862570301412,-28.580254900043542,0 28.62372333276562,-28.580251080622816,0 28.623669922029308,-28.58022629170995,0 28.623582179673917,-28.58010803985411,0 28.623444838808325,-28.579955458177835,0 28.62332085827103,-28.579919234385102,0 28.623193057413744,-28.579919219096666,0 28.623093872084553,-28.579951654045544,0 28.622985153941727,-28.58002983930561,0 28.622929840239976,-28.58009277656032,0 28.622903142066377,-28.580199579147234,0 28.622861173404488,-28.580323551590595,0 28.62281539341575,-28.580405564365265,0 28.622739102127923,-28.580510463087364,0 28.62267996810607,-28.580542890841684,0 28.622561700961796,-28.580548613227847,0 28.622431998937657,-28.580548613227847,0 28.622258418091576,-28.580485675073817,0 28.622088671055394,-28.58042081956512,0 28.622031439999034,-28.58043608195959,0 28.621945600609024,-28.58050283233979,0 28.621873122446686,-28.580636339395483,0 28.621846423373768,-28.580794641659338,0 28.621846423373768,-28.58089572186003,0 28.621844506019215,-28.581143662250156,0 28.621836881566878,-28.581412584722955,0 28.6217720269575,-28.58156516010399,0 28.621669031200895,-28.58172156120105,0 28.621569837777827,-28.5818035730764,0 28.62139437015412,-28.58187032255728,0 28.621230323021052,-28.5819351699721,0 28.621165468411675,-28.581958048724914,0 28.62111397323133,-28.581979034404867,0 28.620934670898407,-28.5820591442141,0 28.620679070083042,-28.582171659294602,0 28.62053029343832,-28.582261302816846,0 28.62042537133385,-28.582366202438266,0 28.620368161861222,-28.58244058266672,0 28.620335735006222,-28.582635125810384,0 28.62029950311961,-28.582839201767683,0 28.620204130016646,-28.58305281233737,0 28.62008968319236,-28.58333508074935,0 28.62008968319236,-28.583459046897474,0 28.620095396585327,-28.583560134292725,0 28.619992399929345,-28.58374895505017,0 28.619830270150885,-28.584061741955793,0 28.619738723663204,-28.584254374939405,0 28.619588028764554,-28.584477519222105,0 28.619469769714158,-28.584673964431886,0 28.61948503300789,-28.584801749101416,0 28.619578503145476,-28.58509546228572,0 28.619645252626356,-28.585257583970304,0 28.619647169980965,-28.585320522124334,0 28.619622373873483,-28.585417790098916,0 28.619547978356593,-28.585486441645912,0 28.61949076168935,-28.585513155108004,0 28.61934578917686,-28.58551124584727,0 28.619076849616988,-28.585520778660964,0 28.618960492632652,-28.585539854180865,0 28.618838428550703,-28.585623768122332,0 28.618720162305692,-28.585713411644576,0 28.61870298165735,-28.585803047972263,0 28.618701079591176,-28.585890782233776,0 28.618729711307196,-28.585970884848393,0 28.6188155282141,-28.58611202355098,0 28.618891833891098,-28.586178773031918,0 28.618943320977507,-28.586211200786238,0 28.618994829647704,-28.586235989699105,0 28.619094023070772,-28.58627031862028,0 28.619258062109907,-28.58636186510796,0 28.619404930393273,-28.586491576125297,0 28.61945452170886,-28.586565949159194,0 28.61945452170886,-28.58665367622615,0 28.619439274602883,-28.58674522900907,0 28.61918558394757,-28.58693786199268,0 28.618868939849733,-28.587189613709654,0 28.618727801147145,-28.587376525206423,0 28.618630518783448,-28.58755390299018,0 28.618619067715827,-28.587735100194664,0 28.61860000118918,-28.58791437284998,0 28.618529432287517,-28.588038338998103,0 28.618392089623285,-28.588187101253652,0 28.618218524065696,-28.588297722361972,0 28.618065919906314,-28.588345404416827,0 28.617999163230877,-28.588349209448438,0 28.61792476681461,-28.58829962442809,0 28.61767679674682,-28.58805359419796,0 28.61747651772714,-28.58785332956745,0 28.617339184056164,-28.587838074367596,0 28.617236180205623,-28.58783425494687,0 28.61722665368717,-28.58787049492736,0 28.617150348010227,-28.587908628880086,0 28.61718657989678,-28.588145131692443,0 28.6172171127796,-28.588246219987013,0 28.617232367979454,-28.588314878728625,0 28.617247630373868,-28.58838163630344,0 28.617255262020763,-28.588471272631068,0 28.617255262020763,-28.58855138333962,0 28.617230473107895,-28.588652461741674,0 28.61720375964586,-28.588745925583964,0 28.61730676439572,-28.58897860178098,0 28.61740976824626,-28.589209384905132,0 28.61741357957311,-28.589283766032906,0 28.617379249752616,-28.589417273088657,0 28.617341101410773,-28.58948974405638,0 28.617211397587994,-28.58960798871766,0 28.617024471702052,-28.589798712440597,0 28.616976774358704,-28.58987310076293,0 28.616990141881615,-28.590080988946454,0 28.617001577660744,-28.59029077919604,0 28.616961527252727,-28.59045290177994,0 28.61690812191233,-28.590609294783064,0 28.616812748809366,-28.59075424571182,0 28.61660865126828,-28.59099074222894,0 28.616265323386017,-28.59125585427421,0 28.61586475725278,-28.59151904896487,0 28.61564731287325,-28.59163348139998,0 28.61558818694533,-28.591665901060423,0 28.615546211088827,-28.591747913835093,0 28.615502340360763,-28.59182230215748,0 28.61547373202717,-28.59195198979245,0 28.615406967257798,-28.592165600362137,0 28.61530969208866,-28.592335353693556,0 28.615176169744473,-28.59250128130907,0 28.61501212980602,-28.592697725619473,0 28.614794694419686,-28.59292849975043,0 28.614640187294867,-28.593046759700144,0 28.614447539022763,-28.593233664002355,0 28.614281589823577,-28.59340340294466,0 28.614153788966235,-28.593496857793696,0 28.613928705745252,-28.59364371078857,0 28.61381427420946,-28.593702843911046,0 28.613610167675176,-28.59370093465037,0 28.61353196712662,-28.593800104691013,0 28.613442322705055,-28.59390119208632,0 28.613398451977048,-28.593975573214095,0 28.613350769922135,-28.594212068831894,0 28.613339318854514,-28.59426929269364,0 28.61317336875601,-28.594534390349793,0 28.613140949095566,-28.59457062943096,0 28.61301123897755,-28.594795690168894,0 28.612892979927153,-28.594994043740087,0 28.61287391340045,-28.595077958580873,0 28.61286818381967,-28.595179037882247,0 28.612860552172776,-28.595224818770305,0 28.612824313091608,-28.59536023598605,0 28.612814779378596,-28.595495653201795,0 28.612807147731758,-28.595619619349918,0 28.612772810716706,-28.59574359179328,0 28.612767089229862,-28.595798899199792,0 28.612749931963833,-28.595899985695723,0 28.612692700907473,-28.59598962202341,0 28.612677437613684,-28.596033492751417,0 28.61268506926058,-28.596102152392348,0 28.612667919189164,-28.596168909067842,0 28.61266028844159,-28.59630431908903,0 28.612667919189164,-28.596411135165738,0 28.612688888681305,-28.596439742600012,0 28.612786171045002,-28.596607572281584,0 28.61291588116302,-28.59691274282875,0 28.612969278409537,-28.59706341524435,0 28.612969278409537,-28.597133984146012,0 28.61293876800977,-28.597225523439135,0 28.612900625963164,-28.597252228807292,0 28.612791893431165,-28.597385735862986,0 28.61266409167456,-28.5974257952642,0 28.612559201046338,-28.597433410723283,0 28.61247143710716,-28.59744104237018,0 28.612343652437687,-28.59741434419658,0 28.612229204714083,-28.597381923636817,0 28.612080419076108,-28.59733614274876,0 28.611904928969352,-28.597233154186654,0 28.611752340098462,-28.597114902330816,0 28.611597832973644,-28.597015717001682,0 28.61142043990145,-28.596905103987297,0 28.611384200820282,-28.59688412010604,0 28.61125831012299,-28.596811641044383,0 28.61114005017322,-28.596760138669424,0 28.61098935617389,-28.59675633543651,0 28.610811971195574,-28.596748702890295,0 28.610708967345033,-28.59675061305029,0 28.610529672206667,-28.596750604956412,0 28.610365632268156,-28.596704824967674,0 28.61019968216965,-28.59658085881955,0 28.61004709329876,-28.596458794737543,0 28.609829641724616,-28.596386323769764,0 28.609671323273005,-28.59634817542792,0 28.609652248652424,-28.596361519568404,0 28.609619820898047,-28.59635579808156,0 28.609518719113623,-28.596289041406067,0 28.609320342160117,-28.5961478946096,0 28.609156302221606,-28.595981952604973,0 28.609080003739223,-28.59590376015035,0 28.60890069421174,-28.595754989800866,0 28.60872330113949,-28.595606213156145,0 28.608597403247586,-28.595516568734638,0 28.608488669816325,-28.595436458925406,0 28.608305548062617,-28.595371612409963,0 28.60803659411357,-28.59529912525437,0 28.607897350282542,-28.595293389378355,0 28.60780769866642,-28.59528767418675,0 28.607655101701653,-28.595295297739767,0 28.607437651026828,-28.595346784826233,0 28.607290768354346,-28.595442142640707,0 28.607162968396324,-28.59563858065593,0 28.607065693227185,-28.595907504927368,0 28.607042799185876,-28.596037191663015,0 28.60706187290714,-28.59606579999661,0 28.607126728415835,-28.59620122530623,0 28.607168688983847,-28.59628131982703,0 28.607246896726963,-28.596405301263587,0 28.60734036776381,-28.59649303462578,0 28.607447191934398,-28.596613203836228,0 28.60752921190368,-28.596779130552363,0 28.6075368426512,-28.596838264574217,0 28.607515858769943,-28.596864962747816,0 28.607439560287503,-28.5969107292467,0 28.607286964222055,-28.596948870393987,0 28.607107653795254,-28.596937419326423,0 28.60693216278912,-28.59684585934889,0 28.606678472133808,-28.59670853197315,0 28.606396157856466,-28.59655594310226,0 28.60621113403664,-28.596460569999238,0 28.605974599748038,-28.596428142244918,0 28.605804838322683,-28.59641478191662,0 28.605791477994387,-28.596445292316332,0 28.605747607266323,-28.596502508983576,0 28.60568084969151,-28.596580708632757,0 28.60564460971102,-28.59667035305432,0 28.605652242257236,-28.59672756882219,0 28.60567130878394,-28.596817213243753,0 28.60569611208598,-28.596906848672063,0 28.605743803134033,-28.597009838133488,0 28.605795297415114,-28.597099481655732,0 28.605820100717153,-28.597130008243255,0 28.605860152024434,-28.597185313851128,0 28.60602801228299,-28.597332182134437,0 28.60615582033489,-28.597446621764163,0 28.6062378394048,-28.597568700235286,0 28.60632749102092,-28.59775940866973,0 28.606314137887182,-28.597883382012412,0 28.60628171822674,-28.597936793648046,0 28.60621875669034,-28.597980649986937,0 28.6061405570411,-28.5980187920336,0 28.605835364010886,-28.59803976062642,0 28.605585476588544,-28.598003520645932,0 28.605278380592836,-28.597946289589572,0 28.60497317317345,-28.597902411666894,0 28.604723292945664,-28.597879510431028,0 28.604563058938083,-28.597917651578314,0 28.60433798291166,-28.597999641869933,0 28.604255962942375,-28.598062595312456,0 28.60414913877179,-28.59816367371451,0 28.60405566863426,-28.598253310941516,0 28.60398509163872,-28.598375375023522,0 28.60391450834794,-28.598486003326343,0 28.603899253148086,-28.598577540820827,0 28.603904981829487,-28.598690063995207,0 28.60391070421565,-28.59877016660988,0 28.603918326869348,-28.598871254005132,0 28.603952656689785,-28.598928469773,0 28.603988911958766,-28.59905244311574,0 28.60400035493251,-28.599161162157884,0 28.603973648665033,-28.599254609812363,0 28.603885900014347,-28.599390018934173,0 28.603796249297545,-28.599491099134866,0 28.60373903173098,-28.59960362860454,0 28.603740920307303,-28.599725692686548,0 28.60380197078439,-28.599861109902236,0 28.603868741849,-28.59995266268521,0 28.60389926843652,-28.599996534312538,0 28.603964107757406,-28.60011288410226,0 28.60409190771543,-28.600376085987534,0 28.60415486115795,-28.600542019898228,0 28.604030873426098,-28.60062402457902,0 28.60395458213833,-28.600677421825537,0 28.603712319168267,-28.600734631298167,0 28.603494866694803,-28.60076132857239,0 28.603391862844262,-28.600772773344772,0 28.603239273973372,-28.600795652097645,0 28.603061873706565,-28.600828063664153,0 28.602873029566695,-28.60085476273707,0 28.602758582742467,-28.600871920003044,0 28.602655570797992,-28.600883362976788,0 28.602413323116423,-28.600892888595865,0 28.60217106824024,-28.60089479156136,0 28.602068070684993,-28.600890972140633,0 28.60200320798174,-28.60087952107301,0 28.601940262633093,-28.600866167939273,0 28.601888761157454,-28.600866167939273,0 28.60178576360215,-28.60081656942907,0 28.60161407762763,-28.60071166980765,0 28.601436678260143,-28.600543824837587,0 28.6013145988897,-28.60041794223423,0 28.60118679803236,-28.600374070606847,0 28.601051373622056,-28.600395040998308,0 28.600965527037488,-28.600448445439383,0 28.60086253757612,-28.600517104180994,0 28.600759519336407,-28.600662055109694,0 28.6007213772898,-28.60077458457937,0 28.600646988967412,-28.60093288144725,0 28.600481038868907,-28.60115793409136,0 28.600366583950745,-28.601257104132003,0 28.600185378652327,-28.60137724996008,0 28.60002515094004,-28.601489781228395,0 28.59981342085274,-28.60159467185656,0 28.599544466903694,-28.601735795270713,0 28.59945482428077,-28.601783486318766,0 28.599212582894438,-28.60192271396204,0 28.59895698207913,-28.602067664890797,0 28.598880690791304,-28.60210579074959,0 28.59880248394751,-28.602138233792402,0 28.59871474159212,-28.602172563612896,0 28.598670870864055,-28.602195443265032,0 28.598550701653608,-28.60219926178644,0 28.598293198772183,-28.602170639063672,0 28.59811581379381,-28.60210961826425,0 28.598064297029737,-28.6020752812492,0 28.59798227706051,-28.60194749568035,0 28.59790599296724,-28.601810177297807,0 28.597867829336906,-28.60165568456216,0 28.597812522829713,-28.601451601410247,0 28.597694247591505,-28.601299019733915,0 28.597593161095574,-28.601194112917938,0 28.597415768922644,-28.60110828881642,0 28.597238375850395,-28.601028179007187,0 28.597205948096075,-28.60103771182088,0 28.59712965680825,-28.60103771182088,0 28.596708106793756,-28.601035802560205,0 28.596689032173174,-28.60102817091331,0 28.596566960896553,-28.601081576253705,0 28.596414356737228,-28.601136881861578,0 28.596286572067697,-28.601173129036624,0 28.596107268835453,-28.601253223557364,0 28.59602715902622,-28.6012990053448,0 28.595720063030512,-28.60159843192207,0 28.595350021686215,-28.601943653776573,0 28.59512303729838,-28.602065709764645,0 28.59485409144321,-28.602176330872908,0 28.594701501673,-28.602233539446217,0 28.594625204089937,-28.60225452422685,0 28.594484050098856,-28.602283131661125,0 28.59436960327463,-28.602306011313317,0 28.594253252585588,-28.602298378767102,0 28.59411400875456,-28.602296470405747,0 28.594049146950624,-28.602304101153322,0 28.593986208796537,-28.6023174605823,0 28.593934707320955,-28.602336528907642,0 28.59380310233138,-28.602428075395324,0 28.59370390980763,-28.60251580066364,0 28.593673391313985,-28.602578738817726,0 28.59365621875952,-28.60264168416637,0 28.5937401488888,-28.60279236377653,0 28.59383552199182,-28.60293922396596,0 28.59397095359668,-28.60303458178049,0 28.594108288167035,-28.60313186414419,0 28.594236088125,-28.603261551779156,0 28.59438105344293,-28.60344274178908,0 28.594384872863657,-28.60357815900477,0 28.59434101022947,-28.603736462167944,0 28.59425135141879,-28.603879510131264,0 28.59408922074101,-28.604032083713662,0 28.593871769166867,-28.604167500929407,0 28.5936028233117,-28.604268580230723,0 28.593459760059943,-28.604310533604178,0 28.593373928763867,-28.60436011142997,0 28.593288087575218,-28.604405898613265,0 28.59324421774653,-28.604445950819922,0 28.59321751867361,-28.60451270030086,0 28.59321751867361,-28.60458135994179,0 28.5932289616473,-28.60464812471116,0 28.59327474972997,-28.604783533832972,0 28.59338537803285,-28.60510777180616,0 28.593465488741344,-28.60531947941041,0 28.593303358063565,-28.60553308908078,0 28.59308590738874,-28.605786750058428,0 28.592958113726013,-28.605859221925527,0 28.592857019136147,-28.605918355048004,0 28.5927044230707,-28.605998451367384,0 28.592473616564178,-28.606084274569582,0 28.59224282084955,-28.606116695129344,0 28.59190711022501,-28.60612049926158,0 28.591817458608887,-28.606164369989642,0 28.591689657751544,-28.606254014411206,0 28.59157139870115,-28.60632839463966,0 28.5912452208903,-28.606627822116252,0 28.5909171419126,-28.606929166048133,0 28.590913329686487,-28.606973028682262,0 28.59088471415828,-28.607034064770232,0 28.59081604732279,-28.607146595139227,0 28.590779800147686,-28.607259124608845,0 28.590823678070365,-28.60738309075697,0 28.590859918050853,-28.607507064999027,0 28.59099152304043,-28.60782367132532,0 28.59108118095179,-28.60802012372966,0 28.591115510772283,-28.608153622691475,0 28.59109072185936,-28.60827760412809,0 28.591060197070476,-28.608342444348295,0 28.591033490803,-28.608344347313732,0 28.590985807848824,-28.608384404916308,0 28.59090951026576,-28.608420644896796,0 28.590833211783377,-28.608449260425004,0 28.590705410926034,-28.608489303638407,0 28.590610038722332,-28.6085064618037,0 28.590577610968012,-28.60849310866996,0 28.590514672813924,-28.608485485117,0 28.590426924163296,-28.608477854369426,0 28.590222832917448,-28.608443509260496,0 28.58994051864005,-28.60837103019884,0 28.589801290097512,-28.608300461297233,0 28.589724977225956,-28.60825086818295,0 28.58954759134832,-28.608111639640413,0 28.589330139774177,-28.607886578902423,0 28.589154664056537,-28.607693938724253,0 28.589078358379595,-28.607617654630985,0 28.589003970057206,-28.60746696782627,0 28.58887616919992,-28.60723047220847,0 28.58872167016898,-28.60703783922486,0 28.58855954039052,-28.60688716680926,0 28.58839549955269,-28.60681277129231,0 28.58828487214919,-28.606778448666432,0 28.588063609248195,-28.6067593515628,0 28.587647779821225,-28.606692602081864,0 28.58746847658898,-28.606644911933074,0 28.587430342636253,-28.606568620645305,0 28.58735403695931,-28.6064770822515,0 28.587327338785713,-28.60638743063538,0 28.587333061171876,-28.60633974138591,0 28.587401728007364,-28.60627871968711,0 28.58748374707733,-28.60622151201312,0 28.587617270320834,-28.606173829058946,0 28.587752701026375,-28.606131874786172,0 28.58776985109779,-28.606145220725296,0 28.587792753233032,-28.606141409398504,0 28.587869050816096,-28.606076561084365,0 28.587926266583963,-28.60602887902951,0 28.587937717651585,-28.605964037909985,0 28.58793580839091,-28.605893469008322,0 28.587808008432887,-28.60571991064529,0 28.587674493283316,-28.605548255247754,0 28.587544791259177,-28.60544526488701,0 28.58734069191945,-28.605258339001125,0 28.587254859724055,-28.605172522094165,0 28.58722052990356,-28.605149636146734,0 28.587117518858463,-28.605092412284932,0 28.586964929088253,-28.605048540657606,0 28.58686382730383,-28.605046631396874,0 28.586760830647847,-28.605042811976148,0 28.58665783399192,-28.605046631396874,0 28.586581528314923,-28.605058075269937,0 28.586453742746073,-28.60507332237586,0 28.586318311141213,-28.605132456397712,0 28.586224840104364,-28.60518394258486,0 28.586146639555807,-28.60523733983132,0 28.585961607642105,-28.605506264102758,0 28.585826191325737,-28.60574275162662,0 28.58579567373141,-28.605786623254005,0 28.5857479826833,-28.6058209530745,0 28.585627807177616,-28.605841929761198,0 28.58550763796717,-28.60586100438178,0 28.585475217407406,-28.60584765124804,0 28.58530926820822,-28.605794239612408,0 28.585116619936116,-28.605723669811482,0 28.584981188331255,-28.605580621848162,0 28.58486674780221,-28.605387996958427,0 28.58480189319289,-28.605286909563176,0 28.58477327766468,-28.605243038835113,0 28.584630229701418,-28.604953130682418,0 28.58451960139854,-28.60472617507287,0 28.584479542896645,-28.60464797542369,0 28.584439490689988,-28.604567871909694,0 28.584311690731965,-28.60434281207108,0 28.5841953409423,-28.604140645374457,0 28.584153380374232,-28.604051000952893,0 28.58404464694297,-28.603906050923456,0 28.58392638609388,-28.603797339975188,0 28.58376425721474,-28.603747754954895,0 28.583605954051563,-28.603745845694164,0 28.583445719144663,-28.603854549447874,0 28.583354158267866,-28.603946095036235,0 28.58335987885539,-28.603972793209778,0 28.583254972938676,-28.604075782671202,0 28.583066144087354,-28.604201666173935,0 28.582913539927972,-28.60424933383962,0 28.582837248640146,-28.604268415654815,0 28.58258355798489,-28.604300820926085,0 28.582329867329577,-28.604329429259735,0 28.58222877184039,-28.60434660091488,0 28.582100971882426,-28.604369479667696,0 28.58190832361032,-28.604399990067463,0 28.581742381605693,-28.6044285912065,0 28.581654640149566,-28.60445529027936,0 28.5815268401916,-28.60446864161446,0 28.581412391568676,-28.604487709939804,0 28.581284591610654,-28.604502972334274,0 28.58113009257977,-28.604533482733984,0 28.580939340078544,-28.604537294060833,0 28.58084969026106,-28.6045353848001,0 28.58074669180644,-28.604546820579287,0 28.58058074980181,-28.60454300925244,0 28.580479648017388,-28.604527753153263,0 28.5804167098633,-28.604523933732537,0 28.580361388067672,-28.604527753153263,0 28.580264112898533,-28.604493408943597,0 28.58008481056561,-28.60443810243646,0 28.579819684131166,-28.604329384293578,0 28.579636568672754,-28.60423782971202,0 28.579539287208377,-28.604163448584245,0 28.579400043377348,-28.60407191108976,0 28.579272243419325,-28.60399179318665,0 28.5790948422532,-28.603898344632853,0 28.578968937166792,-28.603839210611056,0 28.57889263778503,-28.603787709135418,0 28.578764837827066,-28.603755288575655,0 28.578570273099672,-28.603747649734203,0 28.578328017324168,-28.603781979554697,0 28.578207840919163,-28.60381629498596,0 28.578198300011593,-28.603843001253438,0 28.578116280042366,-28.603909757928932,0 28.57804761320682,-28.603961253109276,0 28.577950329943803,-28.60409093984498,0 28.57785304038555,-28.604235882679802,0 28.57779582371836,-28.604329339327478,0 28.576668476768816,-28.604304512643125,0 28.575365728745453,-28.608628203928447,0 28.569229419702026,-28.576134334132178,0 28.569488827347527,-28.57548205405351,0 28.570225104105305,-28.574784009274538,0 28.57311482369022,-28.57486035182376,0 28.576355501904914,-28.5755260452907,0 28.578976261245487,-28.576485434854874,0 28.580698650022725,-28.576815409603398,0 28.581776337308156,-28.576788733912906,0 28.58330991162319,-28.57560627470974,0 28.58517345439145,-28.574608809648794,0 28.5865353580204,-28.5739870696475,0 28.587908698327794,-28.57350267231044,0 28.588763242229902,-28.57222862884811,0 28.58881285692786,-28.570422476316196,0 28.58920198728191,-28.56874982184678,0 28.589701737844962,-28.56794497538027,0 28.58801179930515,-28.566482080583512,0 28.587559768568497,-28.564809411724923,0 28.586693833853417,-28.562568370433894,0 28.58679113060623,-28.56097200005769,0 28.58682739306977,-28.559491978571884,0 28.58651268880959,-28.558050091938128,0 28.58609688995955,-28.557147955014045,0 28.586796927636158,-28.55578617818952,0 28.585272931100917,-28.554124929821626,0 28.584029309005473,-28.552759311992588,0 28.582675058607094,-28.551574883274213,0 28.582030373303155,-28.550518255413124,0 28.58034993789937,-28.549684754747602,0 28.578461622405996,-28.548549903854962,0 28.577265683264727,-28.547348309776623,0 28.576611455254522,-28.546120032813235,0 28.57541741817937,-28.544968031849123,0 28.573391752827206,-28.54387896094522,0 28.57234077900381,-28.542324528654035,0 28.570475319780257,-28.541771404226893,0 28.56904284005509,-28.54183051486632,0 28.567717189896427,-28.540916919680058,0 28.566231320119357,-28.538994393976054,0 28.564621461711113,-28.53769936033717,0 28.56414843180471,-28.53648252634747,0 28.563963407085623,-28.53603050190611,0 28.56201210937138,-28.535279030203014,0 28.56081043975007,-28.534746904046358,0 28.559503850722194,-28.53390579511631,0 28.55840328378457,-28.53305894221637,0 28.55908233038531,-28.532532568123486,0 28.560184829066657,-28.531502660919045,0 28.5614094206083,-28.530478482396006,0 28.562698846074966,-28.529410402567976,0 28.564138972735464,-28.528111550407687,0 28.5656935174419,-28.52649420964002,0 28.56720037919422,-28.525170590150594,0 28.568690053103523,-28.5229772749812,0 28.570940771099743,-28.52070769280573,0 28.56988024917422,-28.5194584013841,0 28.569382436650187,-28.518306385131552,0 28.569475922975528,-28.51724782462736,0 28.569468306617125,-28.515779210142398,0 28.56875304431759,-28.51466914006869,0 28.56752087239039,-28.513854692440077,0 28.567282451324104,-28.51320620120515,0 28.56658053406443,-28.512269704783023,0 28.56651378368423,-28.511113884398185,0 28.566538579791654,-28.509586164669713,0 28.566481372117664,-28.50840938288667,0 28.565867181025624,-28.507404242112045,0 28.56500311060512,-28.50679581027839,0 28.564417550329722,-28.506292284361393,0 28.564110446240136,-28.505777322665267,0 28.56422491015155,-28.50428585191048,0 28.564484330387586,-28.502939330285813,0 28.56489633859519,-28.501882724008453,0 28.56554106257005,-28.50073074642677,0 28.566605412909553,-28.49991444799332,0 28.567461850783843,-28.49934990217622,0 28.567435152610244,-28.498463019552673,0 28.56745042309859,-28.497240464975448,0 28.56825727685191,-28.495552540917004,0 28.569083213319686,-28.493937095920217,0 28.5701323003654,-28.493448839592247,0 28.571011633180376,-28.492695473017648,0 28.572295328166888,-28.492338829773132,0 28.57310600224025,-28.491430972261526,0 28.57411502988475,-28.490397244736982,0 28.574172268135726,-28.489106029619506,0 28.574549948321533,-28.48737805425378,0 28.57245178861922,-28.48604484889063,0 28.570622576570713,-28.485512714640038,0 28.569138601665202,-28.485041610182122,0 28.56780340430373,-28.484580044833137,0 28.566493002150366,-28.484681109745395,0 28.565606060171604,-28.483229682204012,0 28.564225089116633,-28.48217875964201,0 28.563521260797586,-28.481625649603984,0 28.561095023916266,-28.48063385386922,0 28.55901402327862,-28.479756490569514,0 28.55715238257642,-28.479109910394016,0 28.556463780678996,-28.479863269774057,0 28.554810058737246,-28.479672531661947,0 28.55332036234489,-28.479212862083898,0 28.55230180098738,-28.47897253895144,0 28.550966609921147,-28.4781829099133,0 28.54919652380056,-28.478085620355046,0 28.54782889778545,-28.477942564297848,0 28.54716131124559,-28.47731697519822,0 28.547498939224738,-28.47624890256475,0 28.547020186932116,-28.47545737865505,0 28.546106539585196,-28.474908080843193,0 28.546041692170434,-28.47486993160203,0 28.54412473776648,-28.473294522624087,0 28.54245958094498,-28.4722264356015,0 28.54120259762186,-28.471171709806526,0 28.53931616980543,-28.47030960170673,0 28.53659429429132,-28.4690660479597,0 28.53452093159575,-28.46801320894241,0 28.5327565822505,-28.4674886991441,0 28.530476290048796,-28.461152959141714,0 28.52663969316734,-28.45049303322685,0 28.52393499830157,-28.45057314303608,0 28.5251978586943,-28.436703535839456,0 28.52435865272969,-28.433581342404977,0 28.524326285229904,-28.433461696599977,0 28.524295700186485,-28.433348657214708,0 28.524143117610834,-28.43276884900314,0 28.525058675117805,-28.432879491695132,0 28.52738953260092,-28.433806431921255,0 28.527580271612294,-28.433880821142964,0 28.530365069992058,-28.435116752236297,0 28.531074378779635,-28.435534490024622,0 28.532508979106126,-28.436379373409295,0 28.533756420622353,-28.437493225132187,0 28.534052058355883,-28.43781364368465,0 28.535259447665453,-28.43837439256413,0 28.536249394394076,-28.438357236197476,0 28.539991747721047,-28.43799299098373,0 28.540130991552076,-28.437979637849935,0 28.540182493926977,-28.43797391726241,0 28.5403350908918,-28.437960571323288,0 28.542669767795587,-28.43775652504354,0 28.547089251268005,-28.437989262394524,0 28.54769962293932,-28.438054108909967,0 28.546364341940887,-28.4449011485691,0 28.550018940321877,-28.445473370999252,0 28.559502546705232,-28.44695733061627,0 28.558413468606716,-28.443478478648842,0 28.559231811199197,-28.439149013715962,0 28.562783794236793,-28.4379715952129,0 28.565900192439983,-28.43693857185758,0 28.572231041929115,-28.43354940837844,0 28.582136409667612,-28.43671930814952,0 28.58234241916739,-28.436786065724334,0 28.582538877866966,-28.43684901107298,0 28.582733444393,-28.43691194922701,0 28.58680772669527,-28.43821654715589,0 28.587832048210487,-28.436820433316313,0 28.590334681600325,-28.433414081994272,0 28.59295552277922,-28.43300976299014,0 28.598792314413856,-28.432069545173306,0 28.598819018882693,-28.43206572485326,0 28.60130060184133,-28.431665211780057,0 28.60517453137959,-28.435462594623004,0 28.60643342306406,-28.435788742756245,0 28.61018329562262,-28.436498381595015,0 28.618679160414956,-28.438106180555735,0 28.629217771383082,-28.438251123390614,0 28.631843307023075,-28.43874144636061,0 28.634089359336542,-28.43916089915615,0 28.639742997741223,-28.440219459660284,0 28.644345730670977,-28.437728598396063,0 28.648471582797356,-28.43484102009694,0 28.647037358387422,-28.42713187323733,0 28.64700493782766,-28.426950683227403,0 28.64695535280731,-28.426687481342128,0 28.646921022986874,-28.42650629133226,0 28.651115513170453,-28.42516931061516,0 28.652164608310102,-28.42477641300104,0 28.652950485376664,-28.42448269262212,0 28.655662864049987,-28.423363112217828,0 28.656059662923155,-28.420952331085175,0 28.656578489006108,-28.420382062881856,0 28.65667959079053,-28.42002922466895,0 28.658321899436146,-28.41941506415384,0 28.660009972782063,-28.41904696984176,0 28.660744348373044,-28.41848813831689,0 28.661339501716668,-28.416859340186363,0 28.661886951421707,-28.416346274261116,0 28.663624632271024,-28.41547084270519,0 28.664746190284518,-28.415385011409114,0 28.66484729206894,-28.415222903214385,0 28.66507236000149,-28.415209542886032,0 28.670262458146,-28.41411095265829,0 28.671202834243445,-28.41343768869831,0 28.671748380083727,-28.411772644292057,0 28.67214130737551,-28.41147131474935,0 28.672156576964483,-28.41057871063896,0 28.673819863196172,-28.410683610260378,0 28.675082582395305,-28.41020299367318,0 28.677758729182074,-28.40886982518225,0 28.67999425223303,-28.40768541894687,0 28.684482498768375,-28.405108719192015,0 28.687927343771946,-28.40411314810325,0 28.68815302594146,-28.404251537578375,0 28.68867695927429,-28.404572803292183,0 28.689582990262863,-28.40512591333021,0 28.691234817332997,-28.40524989386745,0 28.691131820677015,-28.40541009999606,0 28.689245339800664,-28.40861619388221,0 28.689178566937358,-28.409646109180528,0 28.689577223809863,-28.410656964247437,0</coordinates></LinearRing></outerBoundaryIs></Polygon></Placemark></Folder><Folder><name>Main Roads</name></Folder><Folder><name>Gates</name></Folder><Folder><name>Picnic Spots</name></Folder><Folder><name>Bird Hides</name></Folder><Folder><name>Water Holes</name></Folder><Folder><name>Dams</name></Folder><Folder><name>Waypoints</name></Folder><Folder><name>POI</name></Folder><Folder><name>Camps</name></Folder><Folder><name>Other Features (Viewpoints, Lookouts, Pans, Trails - not in the requested category list, kept so no surveyed data is lost)</name></Folder>
</Document>
</kml>