<?xml version="1.0" encoding="UTF-8"?>
<kml xmlns="http://www.opengis.net/kml/2.2">
<Document>
<name>Mapungubwe National Park</name>
<description>Boundary from WDPA. Gates/Camps/POI added manually from the SANParks website.</description>
<Style id="style_GATES">
  <IconStyle><scale>0.9</scale><Icon><href>../../icons/gate.png</href></Icon></IconStyle>
  <LabelStyle><scale>0.8</scale></LabelStyle>
</Style>
<Style id="style_CAMPS">
  <IconStyle><scale>0.9</scale><Icon><href>../../icons/camp.png</href></Icon></IconStyle>
  <LabelStyle><scale>0.8</scale></LabelStyle>
</Style>
<Style id="style_PICNIC">
  <IconStyle><scale>0.9</scale><Icon><href>../../icons/picnic.png</href></Icon></IconStyle>
  <LabelStyle><scale>0.8</scale></LabelStyle>
</Style>
<Style id="style_POI">
  <IconStyle><scale>0.9</scale><Icon><href>../../icons/poi.png</href></Icon></IconStyle>
  <LabelStyle><scale>0.8</scale></LabelStyle>
</Style>
<Style id="style_WATER_HOLES">
  <IconStyle><scale>0.9</scale><Icon><href>../../icons/waterhole.png</href></Icon></IconStyle>
  <LabelStyle><scale>0.8</scale></LabelStyle>
</Style>
<Style id="style_BIRD_HIDES">
  <IconStyle><scale>0.9</scale><Icon><href>../../icons/birdhide.png</href></Icon></IconStyle>
  <LabelStyle><scale>0.8</scale></LabelStyle>
</Style>
<Style id="style_OTHER">
  <IconStyle><scale>0.9</scale><Icon><href>../../icons/lookout.png</href></Icon></IconStyle>
  <LabelStyle><scale>0.8</scale></LabelStyle>
</Style>
<Style id="style_DAMS">
  <IconStyle><scale>0.9</scale><Icon><href>http://maps.google.com/mapfiles/kml/paddle/blu-circle.png</href></Icon></IconStyle>
  <LabelStyle><scale>0.8</scale></LabelStyle>
</Style>
<Style id="style_WAYPOINTS">
  <IconStyle><scale>0.9</scale><Icon><href>http://maps.google.com/mapfiles/kml/paddle/wht-blank.png</href></Icon></IconStyle>
  <LabelStyle><scale>0.8</scale></LabelStyle>
</Style>
<Style id="style_MAIN_ROADS">
  <LineStyle><color>ff0055ff</color><width>4</width></LineStyle>
</Style>
<Style id="style_BOUNDARY">
  <LineStyle><color>ff29610d</color><width>3</width></LineStyle>
  <PolyStyle><color>4029610d</color></PolyStyle>
</Style><Folder><name>Boundary</name><Placemark><name>Mapungubwe National Park Boundary</name><description>Source: WDPA (World Database on Protected Areas), record name "Mapungupwe National Park". 4 section(s), 2 excluded enclave(s)/hole(s).</description><styleUrl>#style_BOUNDARY</styleUrl><MultiGeometry><Polygon><outerBoundaryIs><LinearRing><coordinates>29.208431197441882,-22.293434377394533,0 29.19978641391191,-22.296958912224,0 29.199785044244436,-22.296958612749734,0 29.199377377963685,-22.296695597923474,0 29.19319680968505,-22.28960186973046,0 29.19181445367417,-22.288503310079648,0 29.178824232352497,-22.282283897383934,0 29.17721306992729,-22.26091600377049,0 29.19172457812681,-22.257042576054005,0 29.208431197441882,-22.293434377394533,0</coordinates></LinearRing></outerBoundaryIs></Polygon><Polygon><outerBoundaryIs><LinearRing><coordinates>29.194682396175722,-22.256158228619313,0 29.189455921353726,-22.242465001858307,0 29.187427682141845,-22.229454056559405,0 29.191697638934954,-22.23351296764929,0 29.195474760951527,-22.230383852133002,0 29.18100420158271,-22.192436968291418,0 29.195821046703998,-22.217186545722484,0 29.19591792886939,-22.217144273089673,0 29.206624758925557,-22.212736952048658,0 29.193306442438427,-22.184688253959735,0 29.195023108829446,-22.18381284488686,0 29.1962533930797,-22.18366219585363,0 29.19978019060335,-22.182935586807844,0 29.202061448676943,-22.182908903023417,0 29.204417103166804,-22.182737285397366,0 29.207543341751887,-22.18248364600339,0 29.208247169171557,-22.182373048277498,0 29.210736337911726,-22.181982097695595,0 29.21320071773897,-22.180849224412157,0 29.21427078057212,-22.179895637273773,0 29.21516918081312,-22.179085075615717,0 29.216693207925232,-22.17825163610405,0 29.217730843903382,-22.178055198988204,0 29.219596280643884,-22.178059032798103,0 29.221044001179735,-22.178131527148196,0 29.222682459827695,-22.178215456378155,0 29.225354728737784,-22.178474876614246,0 29.22796214933379,-22.178966965852737,0 29.23142409224812,-22.17981960768867,0 29.234195559977138,-22.18062461243585,0 29.235711947348534,-22.18099470594086,0 29.236827791069743,-22.181309455167195,0 29.238294579031674,-22.18182067928086,0 29.23901368413425,-22.182328039007757,0 29.246934778717105,-22.224221952880782,0 29.251714589956407,-22.23878164495693,0 29.230931493093976,-22.245811477217842,0 29.223324637821804,-22.247907313971325,0 29.215504210650863,-22.250060433941826,0 29.215496855095864,-22.25004815459863,0 29.194682396175722,-22.256158228619313,0</coordinates></LinearRing></outerBoundaryIs></Polygon><Polygon><outerBoundaryIs><LinearRing><coordinates>29.417853152201246,-22.253264319093034,0 29.39932274195104,-22.24400083706894,0 29.399320832690307,-22.243955048986265,0 29.39916638582008,-22.2324831773567,0 29.39916634085398,-22.232483178256018,0 29.399320787724207,-22.24395503369783,0 29.39932269698494,-22.244000821780446,0 29.39659892659921,-22.244105698918816,0 29.39577874309458,-22.244176259726544,0 29.39502150403922,-22.244124758250962,0 29.394487438044905,-22.244048466963136,0 29.393892328768004,-22.244050369928573,0 29.392972951840306,-22.243741394349797,0 29.392122265130467,-22.243399999110636,0 29.391487097351728,-22.24312726261303,0 29.390777549344477,-22.243029988343267,0 29.389931227044542,-22.2428930440787,0 29.38972847668788,-22.242860242206348,0 29.38931647477557,-22.24289838335369,0 29.388185383049063,-22.24286023411247,0 29.37877999879794,-22.243909126005292,0 29.378703693120997,-22.243916757652187,0 29.37054957700144,-22.244938973854516,0 29.345604926726025,-22.246490424893125,0 29.3450973115917,-22.23064806305763,0 29.3450973565578,-22.23064806485627,0 29.348347749249285,-22.196854201660017,0 29.348746419611643,-22.192723189223784,0 29.34875786438397,-22.192591585133528,0 29.350020553006175,-22.193678708105836,0 29.350701492679775,-22.19492793207837,0 29.351597953982434,-22.196840879103263,0 29.3527042424069,-22.197809743924495,0 29.354756589744852,-22.1986737244128,0 29.3570473743369,-22.19936987521953,0 29.35876403443268,-22.19946715668391,0 29.36024417462903,-22.19971510426859,0 29.36119405386256,-22.199680781642712,0 29.36227555337416,-22.19918109942813,0 29.364533910211833,-22.198603222061024,0 29.368028271887283,-22.19759053237715,0 29.371085829247647,-22.196575901956237,0 29.372464867659573,-22.196686538352992,0 29.37431505009954,-22.1967952555965,0 29.376209087079758,-22.195700538748838,0 29.37755763038041,-22.194323537301386,0 29.37883368023023,-22.19300184236107,0 29.38144110082618,-22.192126454871925,0 29.383941690056986,-22.19145131942281,0 29.38555343614223,-22.190759002425978,0 29.387945321619327,-22.189326708860506,0 29.39033529064119,-22.189151262820474,0 29.392444869934877,-22.188224374755066,0 29.39463074771089,-22.18685119272834,0 29.39755670008168,-22.184938275381057,0 29.399401152041605,-22.183950359321557,0 29.402632267765,-22.18346022430984,0 29.405842413096934,-22.18288235503661,0 29.407879498939792,-22.18204700536495,0 29.40835445429468,-22.18114871843858,0 29.408793168769762,-22.17982129301822,0 29.40906595023347,-22.17862545909759,0 29.410061631938788,-22.17742009775924,0 29.411040126700527,-22.176622874845748,0 29.412192203207667,-22.176277676373616,0 29.412392483126666,-22.176218556740935,0 29.414076721763365,-22.17555485617163,0 29.416295028193076,-22.17450018343669,0 29.419377403244596,-22.173201396027537,0 29.42265625318356,-22.171561207083982,0 29.42391895709426,-22.171214083163363,0 29.42611057164561,-22.171294192972596,0 29.429067048805337,-22.171521155776645,0 29.43098906459369,-22.171352839561848,0 29.431107115001396,-22.17312027538037,0 29.43134702624434,-22.174912483923947,0 29.43857664289783,-22.17391878612301,0 29.444206325161815,-22.173144995944767,0 29.45058851155062,-22.172267782831852,0 29.45016889417917,-22.170504548645965,0 29.449624522853526,-22.168841923415982,0 29.45172714589114,-22.168458222269123,0 29.45261791358587,-22.16814735181879,0 29.461534901214748,-22.19226798298098,0 29.49221753191364,-22.197314613178833,0 29.497083339024925,-22.19811376783605,0 29.50092105106569,-22.19874506403346,0 29.50867657776189,-22.20001912907952,0 29.515468909862363,-22.20113294393019,0 29.521112963292694,-22.20205984728409,0 29.526703581704965,-22.202977246602586,0 29.52315362124267,-22.238453452664658,0 29.456955055131743,-22.233767074690718,0 29.44721180997709,-22.233667508048995,0 29.425583927756122,-22.233446499656168,0 29.419852132869664,-22.2481434579542,0 29.417853152201246,-22.253264319093034,0</coordinates></LinearRing></outerBoundaryIs><innerBoundaryIs><LinearRing><coordinates>29.42375112021807,-22.19197995531067,0 29.425679666883184,-22.1951448368647,0 29.426658739009667,-22.19539332314332,0 29.42708459587743,-22.19589324637616,0 29.427272719660323,-22.19598769767407,0 29.429272098728404,-22.199471096613763,0 29.429314397441544,-22.19948027779253,0 29.4325133543079,-22.201518239575023,0 29.437639630264755,-22.204784036753836,0 29.444987431324932,-22.195285053762177,0 29.447576533630183,-22.191937956071797,0 29.448553043588163,-22.18884004882915,0 29.444634240577784,-22.18778878992066,0 29.438292673867863,-22.186087588271562,0 29.43622739158093,-22.184633120122328,0 29.433452329261627,-22.182678780001652,0 29.427022572333897,-22.182799989727698,0 29.426305757804528,-22.186917926920728,0 29.424701059706194,-22.188602392186624,0 29.4241528320876,-22.190551645741834,0 29.42375112021807,-22.19197995531067,0</coordinates></LinearRing></innerBoundaryIs><innerBoundaryIs><LinearRing><coordinates>29.481289939878877,-22.20277492342393,0 29.473883416686363,-22.210663147786022,0 29.481781969762153,-22.22040525529826,0 29.50172210059452,-22.211174416865788,0 29.496072394025816,-22.202551853784996,0 29.481289939878877,-22.20277492342393,0</coordinates></LinearRing></innerBoundaryIs></Polygon><Polygon><outerBoundaryIs><LinearRing><coordinates>29.310468468345164,-22.227239637898947,0 29.292781122151098,-22.224880283598168,0 29.267050520165412,-22.189524201780443,0 29.267624636567803,-22.189590952160643,0 29.26864510089075,-22.190279464125922,0 29.26936228144416,-22.191069062587133,0 29.270390361226248,-22.192484214175124,0 29.271115158138116,-22.19297247679833,0 29.272524729432746,-22.193010626039495,0 29.27487275227577,-22.19278559587849,0 29.27710822226669,-22.192581534310307,0 29.278174473772992,-22.191675630126213,0 29.27932082789397,-22.189951519147257,0 29.28055874379106,-22.188631726273115,0 29.281573492922405,-22.187746791581105,0 29.282750358342412,-22.186800813606624,0 29.284224792340353,-22.18611422619057,0 29.286177971436302,-22.185973102776416,0 29.287635216691967,-22.186718838603497,0 29.289212641050597,-22.187599977257094,0 29.290954089159925,-22.18787081798382,0 29.2930980207571,-22.187758294809385,0 29.293317367202803,-22.187680108650056,0 29.310468468345164,-22.227239637898947,0</coordinates></LinearRing></outerBoundaryIs></Polygon></MultiGeometry></Placemark></Folder><Folder><name>Main Roads</name></Folder><Folder><name>Gates</name><Placemark>
  <name>Entrance Gate</name>
  
  <styleUrl>#style_GATES</styleUrl>
  <Point><coordinates>29.400556,-22.243611,0</coordinates></Point>
</Placemark></Folder><Folder><name>Picnic Spots</name></Folder><Folder><name>Bird Hides</name></Folder><Folder><name>Water Holes</name></Folder><Folder><name>Dams</name></Folder><Folder><name>Waypoints</name></Folder><Folder><name>POI</name></Folder><Folder><name>Camps</name></Folder><Folder><name>Other Features (Viewpoints, Lookouts, Pans, Trails - not in the requested category list, kept so no surveyed data is lost)</name></Folder>
</Document>
</kml>