<?xml version="1.0" encoding="UTF-8"?>
<kml xmlns="http://www.opengis.net/kml/2.2">
<Document>
<name>Mountain Zebra National Park</name>
<description>Restructured from source 'My Places.kmz' (folder: Mountain Zebra National Park). Boundary is empty - no boundary geometry exists in the source data.</description>
<Style id="style_GATES">
  <IconStyle><scale>0.9</scale><Icon><href>../../icons/gate.png</href></Icon></IconStyle>
  <LabelStyle><scale>0.8</scale></LabelStyle>
</Style>
<Style id="style_CAMPS">
  <IconStyle><scale>0.9</scale><Icon><href>../../icons/camp.png</href></Icon></IconStyle>
  <LabelStyle><scale>0.8</scale></LabelStyle>
</Style>
<Style id="style_PICNIC">
  <IconStyle><scale>0.9</scale><Icon><href>../../icons/picnic.png</href></Icon></IconStyle>
  <LabelStyle><scale>0.8</scale></LabelStyle>
</Style>
<Style id="style_POI">
  <IconStyle><scale>0.9</scale><Icon><href>../../icons/poi.png</href></Icon></IconStyle>
  <LabelStyle><scale>0.8</scale></LabelStyle>
</Style>
<Style id="style_WATER_HOLES">
  <IconStyle><scale>0.9</scale><Icon><href>../../icons/waterhole.png</href></Icon></IconStyle>
  <LabelStyle><scale>0.8</scale></LabelStyle>
</Style>
<Style id="style_BIRD_HIDES">
  <IconStyle><scale>0.9</scale><Icon><href>../../icons/birdhide.png</href></Icon></IconStyle>
  <LabelStyle><scale>0.8</scale></LabelStyle>
</Style>
<Style id="style_OTHER">
  <IconStyle><scale>0.9</scale><Icon><href>../../icons/lookout.png</href></Icon></IconStyle>
  <LabelStyle><scale>0.8</scale></LabelStyle>
</Style>
<Style id="style_DAMS">
  <IconStyle><scale>0.9</scale><Icon><href>http://maps.google.com/mapfiles/kml/paddle/blu-circle.png</href></Icon></IconStyle>
  <LabelStyle><scale>0.8</scale></LabelStyle>
</Style>
<Style id="style_WAYPOINTS">
  <IconStyle><scale>0.9</scale><Icon><href>http://maps.google.com/mapfiles/kml/paddle/wht-blank.png</href></Icon></IconStyle>
  <LabelStyle><scale>0.8</scale></LabelStyle>
</Style>
<Style id="style_MAIN_ROADS">
  <LineStyle><color>ff0055ff</color><width>4</width></LineStyle>
</Style>
<Style id="style_BOUNDARY">
  <LineStyle><color>ff29610d</color><width>3</width></LineStyle>
  <PolyStyle><color>4029610d</color></PolyStyle>
</Style><Folder><name>Boundary</name></Folder><Folder><name>Main Roads</name></Folder><Folder><name>Gates</name><Placemark>
  <name>Main Gate</name>
  
  <styleUrl>#style_GATES</styleUrl>
  <Point><coordinates>25.50950541130169,-32.14078848182752,0</coordinates></Point>
</Placemark></Folder><Folder><name>Picnic Spots</name><Placemark>
  <name>Picnic Site 1</name>
  
  <styleUrl>#style_PICNIC</styleUrl>
  <Point><coordinates>25.46996107913768,-32.23390124139618,0</coordinates></Point>
</Placemark>
<Placemark>
  <name>Picnic Site 2</name>
  
  <styleUrl>#style_PICNIC</styleUrl>
  <Point><coordinates>25.45428659407784,-32.2605847355828,0</coordinates></Point>
</Placemark></Folder><Folder><name>Bird Hides</name></Folder><Folder><name>Water Holes</name></Folder><Folder><name>Dams</name></Folder><Folder><name>Waypoints</name></Folder><Folder><name>POI</name><Placemark>
  <name>Start of Impofu Trail</name>
  
  <styleUrl>#style_POI</styleUrl>
  <Point><coordinates>25.47897814681215,-32.22480109923904,0</coordinates></Point>
</Placemark>
<Placemark>
  <name>Main Rest Camp</name>
  
  <styleUrl>#style_POI</styleUrl>
  <Point><coordinates>25.48025760417693,-32.22340600686195,0</coordinates></Point>
</Placemark>
<Placemark>
  <name>Lookout</name>
  
  <styleUrl>#style_POI</styleUrl>
  <Point><coordinates>25.46080723727558,-32.22540489592825,0</coordinates></Point>
</Placemark>
<Placemark>
  <name>Lookout</name>
  
  <styleUrl>#style_POI</styleUrl>
  <Point><coordinates>25.43388727711259,-32.24611012927021,0</coordinates></Point>
</Placemark></Folder><Folder><name>Camps</name><Placemark>
  <name>Doornhoek Guesthouse</name>
  
  <styleUrl>#style_CAMPS</styleUrl>
  <Point><coordinates>25.45425122834082,-32.24089310639953,0</coordinates></Point>
</Placemark></Folder><Folder><name>Other Features (Viewpoints, Lookouts, Pans, Trails - not in the requested category list, kept so no surveyed data is lost)</name><Placemark>
  <name>Mountain Zebra National Park</name>
  
  <styleUrl>#style_OTHER</styleUrl>
  <Point><coordinates>25.45,-32.25,0</coordinates></Point>
</Placemark></Folder>
</Document>
</kml>