<?xml version="1.0" encoding="UTF-8"?>
<kml xmlns="http://www.opengis.net/kml/2.2">
<Document>
<name>Table Mountain National Park</name>
<description>Restructured from source 'My Places.kmz' (folder: Table Mountain National Park). Boundary is empty - no boundary geometry exists in the source data.</description>
<Style id="style_GATES">
  <IconStyle><scale>0.9</scale><Icon><href>../../icons/gate.png</href></Icon></IconStyle>
  <LabelStyle><scale>0.8</scale></LabelStyle>
</Style>
<Style id="style_CAMPS">
  <IconStyle><scale>0.9</scale><Icon><href>../../icons/camp.png</href></Icon></IconStyle>
  <LabelStyle><scale>0.8</scale></LabelStyle>
</Style>
<Style id="style_PICNIC">
  <IconStyle><scale>0.9</scale><Icon><href>../../icons/picnic.png</href></Icon></IconStyle>
  <LabelStyle><scale>0.8</scale></LabelStyle>
</Style>
<Style id="style_POI">
  <IconStyle><scale>0.9</scale><Icon><href>../../icons/poi.png</href></Icon></IconStyle>
  <LabelStyle><scale>0.8</scale></LabelStyle>
</Style>
<Style id="style_WATER_HOLES">
  <IconStyle><scale>0.9</scale><Icon><href>../../icons/waterhole.png</href></Icon></IconStyle>
  <LabelStyle><scale>0.8</scale></LabelStyle>
</Style>
<Style id="style_OTHER">
  <IconStyle><scale>0.9</scale><Icon><href>../../icons/lookout.png</href></Icon></IconStyle>
  <LabelStyle><scale>0.8</scale></LabelStyle>
</Style>
<Style id="style_BIRD_HIDES">
  <IconStyle><scale>0.9</scale><Icon><href>http://maps.google.com/mapfiles/kml/paddle/grn-circle.png</href></Icon></IconStyle>
  <LabelStyle><scale>0.8</scale></LabelStyle>
</Style>
<Style id="style_DAMS">
  <IconStyle><scale>0.9</scale><Icon><href>http://maps.google.com/mapfiles/kml/paddle/blu-circle.png</href></Icon></IconStyle>
  <LabelStyle><scale>0.8</scale></LabelStyle>
</Style>
<Style id="style_WAYPOINTS">
  <IconStyle><scale>0.9</scale><Icon><href>http://maps.google.com/mapfiles/kml/paddle/wht-blank.png</href></Icon></IconStyle>
  <LabelStyle><scale>0.8</scale></LabelStyle>
</Style>
<Style id="style_MAIN_ROADS">
  <LineStyle><color>ff0055ff</color><width>4</width></LineStyle>
</Style>
<Style id="style_BOUNDARY">
  <LineStyle><color>ff0000ff</color><width>3</width></LineStyle>
  <PolyStyle><color>330000ff</color></PolyStyle>
</Style><Folder><name>Boundary</name></Folder><Folder><name>Main Roads</name></Folder><Folder><name>Gates</name><Placemark>
  <name>Cape Point Gate</name>
  
  <styleUrl>#style_GATES</styleUrl>
  <Point><coordinates>18.45810939471629,-34.2614512873938,0</coordinates></Point>
</Placemark>
<Placemark>
  <name>Silvermine Entrance</name>
  
  <styleUrl>#style_GATES</styleUrl>
  <Point><coordinates>18.42053929873464,-34.08706842523543,0</coordinates></Point>
</Placemark></Folder><Folder><name>Picnic Spots</name></Folder><Folder><name>Bird Hides</name></Folder><Folder><name>Water Holes</name></Folder><Folder><name>Dams</name></Folder><Folder><name>Waypoints</name></Folder><Folder><name>POI</name><Placemark>
  <name>Boulders Beach</name>
  
  <styleUrl>#style_POI</styleUrl>
  <Point><coordinates>18.452078,-34.196684,0</coordinates></Point>
</Placemark>
<Placemark>
  <name>Cable Car Entrance</name>
  
  <styleUrl>#style_POI</styleUrl>
  <Point><coordinates>18.40310694031598,-33.94809957442531,0</coordinates></Point>
</Placemark>
<Placemark>
  <name>Cable Car Top</name>
  
  <styleUrl>#style_POI</styleUrl>
  <Point><coordinates>18.40327136974393,-33.95747126243293,0</coordinates></Point>
</Placemark>
<Placemark>
  <name>Cape Point</name>
  
  <styleUrl>#style_POI</styleUrl>
  <Point><coordinates>18.49666666627629,-34.35611111164977,0</coordinates></Point>
</Placemark>
<Placemark>
  <name>Cape Point Lookout Parking</name>
  
  <styleUrl>#style_POI</styleUrl>
  <Point><coordinates>18.48428138282887,-34.35066166017324,0</coordinates></Point>
</Placemark>
<Placemark>
  <name>Buffelsfontein Visitors Centre</name>
  
  <styleUrl>#style_POI</styleUrl>
  <Point><coordinates>18.44923,-34.31328,0</coordinates></Point>
</Placemark>
<Placemark>
  <name>Most South Westerrn Point</name>
  
  <styleUrl>#style_POI</styleUrl>
  <Point><coordinates>18.47324644303594,-34.35643942117651,0</coordinates></Point>
</Placemark>
<Placemark>
  <name>Newlands Forest</name>
  
  <styleUrl>#style_POI</styleUrl>
  <Point><coordinates>18.44444444374895,-33.97388888891333,0</coordinates></Point>
</Placemark>
<Placemark>
  <name>Oudekraal</name>
  
  <styleUrl>#style_POI</styleUrl>
  <Point><coordinates>18.34955489316576,-33.98750030104985,0</coordinates></Point>
</Placemark>
<Placemark>
  <name>Perdekloof</name>
  
  <styleUrl>#style_POI</styleUrl>
  <Point><coordinates>18.40555555538591,-34.20555555532697,0</coordinates></Point>
</Placemark>
<Placemark>
  <name>Platboom</name>
  
  <styleUrl>#style_POI</styleUrl>
  <Point><coordinates>18.449023280664,-34.33454686215444,0</coordinates></Point>
</Placemark>
<Placemark>
  <name>Platteklip Wash House</name>
  
  <styleUrl>#style_POI</styleUrl>
  <Point><coordinates>18.41749999986366,-33.94611111086702,0</coordinates></Point>
</Placemark>
<Placemark>
  <name>Signal Hill</name>
  
  <styleUrl>#style_POI</styleUrl>
  <Point><coordinates>18.40285238678127,-33.91775455842544,0</coordinates></Point>
</Placemark>
<Placemark>
  <name>Silvermine</name>
  
  <styleUrl>#style_POI</styleUrl>
  <Point><coordinates>18.41581145492783,-34.08660023179764,0</coordinates></Point>
</Placemark>
<Placemark>
  <name>Silvermine Dam</name>
  
  <styleUrl>#style_POI</styleUrl>
  <Point><coordinates>18.40061782366393,-34.07558408509743,0</coordinates></Point>
</Placemark>
<Placemark>
  <name>Tokai Forest</name>
  
  <styleUrl>#style_POI</styleUrl>
  <Point><coordinates>18.41416666682637,-34.06166666639014,0</coordinates></Point>
</Placemark></Folder><Folder><name>Camps</name><Folder><name>Rest Camps</name><Placemark>
  <name>Silvermine Tented Camp</name>
  
  <styleUrl>#style_CAMPS</styleUrl>
  <Point><coordinates>18.40718663093377,-34.07737158131205,0</coordinates></Point>
</Placemark>
<Placemark>
  <name>Smitswinkel Tented Camp</name>
  
  <styleUrl>#style_CAMPS</styleUrl>
  <Point><coordinates>18.4613779453637,-34.25735269508171,0</coordinates></Point>
</Placemark>
<Placemark>
  <name>Slangkop Tented Camp</name>
  
  <styleUrl>#style_CAMPS</styleUrl>
  <Point><coordinates>18.31951534165961,-34.14604584928366,0</coordinates></Point>
</Placemark></Folder></Folder><Folder><name>Other Features (Viewpoints, Lookouts, Pans, Trails - not in the requested category list, kept so no surveyed data is lost)</name><Placemark>
  <name>Table Mountain National Park</name>
  
  <styleUrl>#style_OTHER</styleUrl>
  <Point><coordinates>18.4013073,-33.9604458,0</coordinates></Point>
</Placemark></Folder>
</Document>
</kml>